Fast Food,Store Name,Street,City,State,Zip,Country,unique_address,LAT,LONG
Domino's,White Rock,1/194-196 Progress Road,WHITE ROCK,QLD,4868,Australia,"1/194-196 Progress Road, WHITE ROCK,QLD, 4868,Australia",-16.98041426,145.7442812
Domino's,Mount Cotton,20/101 Valley Way,MOUNT COTTON,QLD,4165,Australia,"20/101 Valley Way, MOUNT COTTON,QLD, 4165,Australia",-27.6387353,153.248858
Domino's,Pimpama,1/102 Pimpama Jacobs Well Road (Pimpama City Shopping Centre),PIMPAMA,QLD,4209,Australia,"1/102 Pimpama Jacobs Well Road (Pimpama City Shopping Centre), PIMPAMA,QLD, 4209,Australia",-27.81561726,153.2946972
Domino's,Treendale,4/10 The Promenade,AUSTRALIND,WA,6233,Australia,"4/10 The Promenade, AUSTRALIND,WA, 6233,Australia",-33.28287873,115.7417474
Domino's,Tarneit,T2 Lot 5 32 Escapade St Riverdale Village,TARNEIT,VIC,3029,Australia,"T2 Lot 5 32 Escapade St Riverdale Village, TARNEIT,VIC, 3029,Australia",-37.83305329,144.6528402
Domino's,Denman Prospect,Shop 21A And 22 3 Felstead Vista,DENMAN PROSPECT,ACT,2611,Australia,"Shop 21A And 22 3 Felstead Vista, DENMAN PROSPECT,ACT, 2611,Australia",-35.29902979,149.0235189
Domino's,Moss Vale,225-229 Argyle Street,MOSS VALE,NSW,2577,Australia,"225-229 Argyle Street, MOSS VALE,NSW, 2577,Australia",-34.54638425,150.3742133
Domino's,Golden Bay,40 Talisker Bend,GOLDEN BAY,WA,6174,Australia,"40 Talisker Bend, GOLDEN BAY,WA, 6174,Australia",-32.42109809,115.7610955
Domino's,Mudgeeraba,12/2 Bell Place Bell Central,MUDGEERABA,QLD,4213,Australia,"12/2 Bell Place Bell Central, MUDGEERABA,QLD, 4213,Australia",-28.08018474,153.3651022
Domino's,Mount Tamborine,27 Main Western Rd,MOUNT TAMBORINE,QLD,4272,Australia,"27 Main Western Rd, MOUNT TAMBORINE,QLD, 4272,Australia",-27.92945294,153.183352
Domino's,Mpk Two (Events),485 Kingsford Smith Drive,HAMILTON,QLD,4007,Australia,"485 Kingsford Smith Drive, HAMILTON,QLD, 4007,Australia",-27.43953459,153.0631141
Domino's,Fernvale Mpk,Woolworths Carpark 1455 Brisbane Valley Highway,FERNVALE,QLD,4306,Australia,"Woolworths Carpark 1455 Brisbane Valley Highway, FERNVALE,QLD, 4306,Australia",-27.45711512,152.6545657
Domino's,Logan Reserve,Tenancy 3 450-458 Chambers Flat Road,LOGAN RESERVE,QLD,4133,Australia,"Tenancy 3 450-458 Chambers Flat Road, LOGAN RESERVE,QLD, 4133,Australia",-27.70861238,153.0958117
Domino's,Newstead Qld,Tenancy R2 & R3 26 Reddacliff Street,NEWSTEAD,QLD,4006,Australia,"Tenancy R2 & R3 26 Reddacliff Street, NEWSTEAD,QLD, 4006,Australia",-27.44911104,153.0431776
Domino's,Bowen,41 Herbert St,BOWEN,QLD,4805,Australia,"41 Herbert St, BOWEN,QLD, 4805,Australia",-20.01400426,148.2470421
Domino's,Clifton Beach,23/55 Endeavor Road,CLIFTON BEACH,QLD,4879,Australia,"23/55 Endeavor Road, CLIFTON BEACH,QLD, 4879,Australia",-16.76448885,145.6681072
Domino's,Fairfield Central,37/30 Lakeside Drive Fairfield Central Cnr Of Waterfront Pde And Lakeside Dr,IDALIA,QLD,4811,Australia,"37/30 Lakeside Drive Fairfield Central Cnr Of Waterfront Pde And Lakeside Dr, IDALIA,QLD, 4811,Australia",-19.31559249,146.8169361
Domino's,Clinton,2/221 Dawson Highway,CLINTON,QLD,4680,Australia,"2/221 Dawson Highway, CLINTON,QLD, 4680,Australia",-23.87548411,151.2251288
Domino's,Gordonvale,T7 & 8 Gordonvale S/C 46L Draper Rd,GORDONVALE,QLD,4865,Australia,"T7 & 8 Gordonvale S/C 46L Draper Rd, GORDONVALE,QLD, 4865,Australia",-17.08490793,145.7705826
Domino's,Winmalee,3/14-28 White Cross Road (Winmalee Village),WINMALEE,NSW,2777,Australia,"3/14-28 White Cross Road (Winmalee Village), WINMALEE,NSW, 2777,Australia",-33.67081806,150.6084804
Domino's,Mount Hutton,9 Wilsons Road,MOUNT HUTTON,NSW,2290,Australia,"9 Wilsons Road, MOUNT HUTTON,NSW, 2290,Australia",-32.98302075,151.669463
Domino's,Leumeah,5/9 Bradfield Street,LEUMEAH,NSW,2560,Australia,"5/9 Bradfield Street, LEUMEAH,NSW, 2560,Australia",-34.05751268,150.8377126
Domino's,Marayong,76 Falmouth Rd,QUAKERS HILL,NSW,2763,Australia,"76 Falmouth Rd, QUAKERS HILL,NSW, 2763,Australia",-33.74030123,150.8859234
Domino's,Sutherland,55B Eton Street,SUTHERLAND,NSW,2232,Australia,"55B Eton Street, SUTHERLAND,NSW, 2232,Australia",-34.03314578,151.0582523
Domino's,Rosemeadow,T16 Rosemeadow Marketplace Thomas Rose Dr,ROSEMEADOW,NSW,2560,Australia,"T16 Rosemeadow Marketplace Thomas Rose Dr, ROSEMEADOW,NSW, 2560,Australia",-34.1006084,150.7981743
Domino's,Prestons Nsw,57 Minnamurra Cct,PRESTONS,NSW,2170,Australia,"57 Minnamurra Cct, PRESTONS,NSW, 2170,Australia",-33.94996025,150.8640598
Domino's,Macquarie Fields,52 Saywell Rd,MACQUARIE FIELDS,NSW,2564,Australia,"52 Saywell Rd, MACQUARIE FIELDS,NSW, 2564,Australia",-33.98988233,150.8829111
Domino's,Mittagong,7/130 Main Street,MITTAGONG,NSW,2575,Australia,"7/130 Main Street, MITTAGONG,NSW, 2575,Australia",-34.45126859,150.4452396
Domino's,Huntlee,2 Bakehouse Road,NORTH ROTHBURY,NSW,2335,Australia,"2 Bakehouse Road, NORTH ROTHBURY,NSW, 2335,Australia",-32.6721481,151.3572525
Domino's,Woolgoolga,1A/46 Beach St,WOOLGOOLGA,NSW,2456,Australia,"1A/46 Beach St, WOOLGOOLGA,NSW, 2456,Australia",-30.1112242,153.1995393
Domino's,Lisarow,3/1 Parsons Road,LISAROW,NSW,2250,Australia,"3/1 Parsons Road, LISAROW,NSW, 2250,Australia",-33.38526582,151.3673655
Domino's,Charmhaven,1/215 Pacific Highway,CHARMHAVEN,NSW,2263,Australia,"1/215 Pacific Highway, CHARMHAVEN,NSW, 2263,Australia",-33.22708241,151.5034275
Domino's,Woodrising,9/80 Hayden Brook Road,WOODRISING,NSW,2284,Australia,"9/80 Hayden Brook Road, WOODRISING,NSW, 2284,Australia",-32.98441521,151.6068087
Domino's,Gillieston Heights,4/353 Cessnock Road,GILLIESTON HEIGHTS,NSW,2321,Australia,"4/353 Cessnock Road, GILLIESTON HEIGHTS,NSW, 2321,Australia",-32.76397774,151.5285055
Domino's,Wyee,2/121 Wyee Road,WYEE,NSW,2259,Australia,"2/121 Wyee Road, WYEE,NSW, 2259,Australia",-33.17552021,151.4842927
Domino's,Toukley,231B Main Road,TOUKLEY,NSW,2263,Australia,"231B Main Road, TOUKLEY,NSW, 2263,Australia",-33.26405038,151.5404286
Domino's,Nambucca Heads,30A Bowra Street,NAMBUCCA HEADS,NSW,2448,Australia,"30A Bowra Street, NAMBUCCA HEADS,NSW, 2448,Australia",-30.6413504,153.0021863
Domino's,Wadalba,Shop 4 1 A London Drive,WADALBA,NSW,2259,Australia,"Shop 4 1 A London Drive, WADALBA,NSW, 2259,Australia",-33.26471921,151.4539709
Domino's,Killarney Vale,132 Wyong Road,KILLARNEY VALE,NSW,2261,Australia,"132 Wyong Road, KILLARNEY VALE,NSW, 2261,Australia",-33.36621765,151.4624181
Domino's,Boorooma,Shop 7 2 Phar Lap Place,BOOROOMA,NSW,2650,Australia,"Shop 7 2 Phar Lap Place, BOOROOMA,NSW, 2650,Australia",-35.07582339,147.3585483
Domino's,South Geraldton,1/ 1 Fortyn Court,MAHOMETS FLATS,WA,6530,Australia,"1/ 1 Fortyn Court, MAHOMETS FLATS,WA, 6530,Australia",-28.79216338,114.6167715
Domino's,Wanneroo,Shop 3 964 Wanneroo Rd,WANNEROO,WA,6065,Australia,"Shop 3 964 Wanneroo Rd, WANNEROO,WA, 6065,Australia",-31.75122691,115.8034895
Domino's,South Hedland,Shop E2 South Hedland Square 9-31 Throssell Road,SOUTH HEDLAND,WA,6722,Australia,"Shop E2 South Hedland Square 9-31 Throssell Road, SOUTH HEDLAND,WA, 6722,Australia",-20.4102364,118.5997821
Domino's,Carramar,Tenancy 2 Carramar Village Shopping Centre 7 Cheriton Dr,CARRAMAR,WA,6031,Australia,"Tenancy 2 Carramar Village Shopping Centre 7 Cheriton Dr, CARRAMAR,WA, 6031,Australia",-31.71206808,115.788543
Domino's,Rokeby,5/27 South Arm Road,ROKEBY,TAS,7019,Australia,"5/27 South Arm Road, ROKEBY,TAS, 7019,Australia",-42.90061084,147.4444077
Domino's,New Town Tas,9/1 Risdon Road,NEW TOWN,TAS,7008,Australia,"9/1 Risdon Road, NEW TOWN,TAS, 7008,Australia",-42.85576351,147.3053657
Domino's,Hindmarsh,230 Port Road,HINDMARSH,SA,5007,Australia,"230 Port Road, HINDMARSH,SA, 5007,Australia",-34.9047187,138.5701429
Domino's,Munno Para West,6/262 Curtis Road,MUNNO PARA WEST,SA,5115,Australia,"6/262 Curtis Road, MUNNO PARA WEST,SA, 5115,Australia",-34.67094164,138.6782178
Domino's,Nuriootpa,Shop 1 7 Gawler Street,NURIOOTPA,SA,5355,Australia,"Shop 1 7 Gawler Street, NURIOOTPA,SA, 5355,Australia",-34.47453118,138.9931143
Domino's,Reservoir,268 Broadway,RESERVOIR,VIC,3073,Australia,"268 Broadway, RESERVOIR,VIC, 3073,Australia",-37.716674,145.009076
Domino's,Seaford Vic,1/1-2 Sunderland Court,SEAFORD,VIC,3198,Australia,"1/1-2 Sunderland Court, SEAFORD,VIC, 3198,Australia",-38.1106714,145.1425002
Domino's,South Melbourne,229 Clarendon Street,SOUTH MELBOURNE,VIC,3205,Australia,"229 Clarendon Street, SOUTH MELBOURNE,VIC, 3205,Australia",-37.83355734,144.9613792
Domino's,Carnegie,1/81 Koornang Road,CARNEGIE,VIC,3163,Australia,"1/81 Koornang Road, CARNEGIE,VIC, 3163,Australia",-37.88727817,145.0572198
Domino's,Mount Eliza,47 Mount Eliza Way,MOUNT ELIZA,VIC,3930,Australia,"47 Mount Eliza Way, MOUNT ELIZA,VIC, 3930,Australia",-38.18295869,145.0911368
Domino's,Moonee Ponds,26 Pratt Street,MOONEE PONDS,VIC,3039,Australia,"26 Pratt Street, MOONEE PONDS,VIC, 3039,Australia",-37.76755417,144.9220586
Domino's,Colac,204 Murray Street,COLAC,VIC,3250,Australia,"204 Murray Street, COLAC,VIC, 3250,Australia",-38.33991473,143.5837944
Domino's,Altona,80 Pier Street,ALTONA,VIC,3018,Australia,"80 Pier Street, ALTONA,VIC, 3018,Australia",-37.86793001,144.830688
Domino's,Epsom Vic,Tenancy 1 176-180 Midland Highway,EPSOM,VIC,3551,Australia,"Tenancy 1 176-180 Midland Highway, EPSOM,VIC, 3551,Australia",-36.70418754,144.3166009
Domino's,Kalkallo,Shop 6 44 Toyon Rd,KALKALLO,VIC,3064,Australia,"Shop 6 44 Toyon Rd, KALKALLO,VIC, 3064,Australia",-37.53523761,144.9611324
Domino's,Somerville,Shop 3 13 Eramosa Rd,SOMERVILLE,VIC,3912,Australia,"Shop 3 13 Eramosa Rd, SOMERVILLE,VIC, 3912,Australia",-38.22390957,145.1731743
Domino's,Angle Vale,Shop 16 121/129 Heaslip Rd,ANGLE VALE,SA,5117,Australia,"Shop 16 121/129 Heaslip Rd, ANGLE VALE,SA, 5117,Australia",-34.64767794,138.6439645
Domino's,Kilmore,97 Clarke Street,KILMORE,VIC,3764,Australia,"97 Clarke Street, KILMORE,VIC, 3764,Australia",-37.28691019,144.9481437
Domino's,Gisborne Vic,Shop 2 10 Prince Street,GISBORNE,VIC,3437,Australia,"Shop 2 10 Prince Street, GISBORNE,VIC, 3437,Australia",-37.48642295,144.5880527
Domino's,Donvale,2 Tunstall Square,DONCASTER EAST,VIC,3109,Australia,"2 Tunstall Square, DONCASTER EAST,VIC, 3109,Australia",-37.79027202,145.170084
Domino's,Clyde North,Shop 2 St Germain Blvd,CLYDE NORTH,VIC,3978,Australia,"Shop 2 St Germain Blvd, CLYDE NORTH,VIC, 3978,Australia",-38.09651906,145.3662713
Domino's,Beresfield Mpk,18A Lawson Ave,BERESFIELD,NSW,2322,Australia,"18A Lawson Ave, BERESFIELD,NSW, 2322,Australia",-32.80171906,151.6575691
Domino's,Mpk Six,Don Rhodes Mining Museum Park,PORT HEDLAND,WA,6721,Australia,"Don Rhodes Mining Museum Park, PORT HEDLAND,WA, 6721,Australia",-20.3114826,118.6049245
Domino's,Mpk Three,124 Wyong Rd,KILLARNEY VALE,NSW,2261,Australia,"124 Wyong Rd, KILLARNEY VALE,NSW, 2261,Australia",-33.36649475,151.4630346
Domino's,Mpk Seven,,MELBOURNE CITY,VIC,3000,Australia,", MELBOURNE CITY,VIC, 3000,Australia",-37.8190835,144.9653806
Domino's,Blackwater Mpk Eight,Blackwater Shopping Centre 8-12 Blain St,BLACKWATER,QLD,4717,Australia,"Blackwater Shopping Centre 8-12 Blain St, BLACKWATER,QLD, 4717,Australia",-23.57477281,148.8890915
Domino's,Mpk One,Cockatoo Island,SYDNEY,NSW,2110,Australia,"Cockatoo Island, SYDNEY,NSW, 2110,Australia",-33.84603,151.173
Domino's,Fernvale - Mpk Nine,1455 Brisbane Valley Highway,FERNVALE,QLD,4306,Australia,"1455 Brisbane Valley Highway, FERNVALE,QLD, 4306,Australia",-27.45711512,152.6545657
Domino's,Newmarket,Shop 1 104-110 Enoggera Road,NEWMARKET,QLD,4051,Australia,"Shop 1 104-110 Enoggera Road, NEWMARKET,QLD, 4051,Australia",-27.43699965,153.0065231
Domino's,Kedron,439 Gympie Rd,KEDRON,QLD,4031,Australia,"439 Gympie Rd, KEDRON,QLD, 4031,Australia",-27.40076029,153.0319263
Domino's,Rochedale (Qld),549 Underwood Rd (Rochedale Shopping Village),ROCHEDALE,QLD,4123,Australia,"549 Underwood Rd (Rochedale Shopping Village), ROCHEDALE,QLD, 4123,Australia",-27.5957882,153.1237026
Domino's,Strathpine,Unit 17 357 Gympie Road,STRATHPINE,QLD,4500,Australia,"Unit 17 357 Gympie Road, STRATHPINE,QLD, 4500,Australia",-27.30498351,152.9900253
Domino's,Woolloongabba,130 Logan Rd,WOOLLOONGABBA,QLD,4102,Australia,"130 Logan Rd, WOOLLOONGABBA,QLD, 4102,Australia",-27.49118451,153.0407844
Domino's,Taringa,Shop 1 191 Moggill Road (Cnr Moorak Street),TARINGA,QLD,4068,Australia,"Shop 1 191 Moggill Road (Cnr Moorak Street), TARINGA,QLD, 4068,Australia",-27.4925428,152.9790447
Domino's,Mermaid Beach,2547 Gold Coast Hwy,MERMAID BEACH,QLD,4218,Australia,"2547 Gold Coast Hwy, MERMAID BEACH,QLD, 4218,Australia",-28.03969173,153.4340256
Domino's,Sunnybank,Shop 2 581 Beenleigh Road,SUNNYBANK,QLD,4109,Australia,"Shop 2 581 Beenleigh Road, SUNNYBANK,QLD, 4109,Australia",-27.58645833,153.0575046
Domino's,Biggera Waters,Metro Market 33 Hollywell Rd,BIGGERA WATERS,QLD,4216,Australia,"Metro Market 33 Hollywell Rd, BIGGERA WATERS,QLD, 4216,Australia",-27.9323472,153.3996633
Domino's,Logan Central,Shop 5 390 Kingston Road,LOGAN CENTRAL,QLD,4114,Australia,"Shop 5 390 Kingston Road, LOGAN CENTRAL,QLD, 4114,Australia",-27.64404595,153.1189838
Domino's,Gabba1 D2Go,Lvl 2 Sec 37 Brisbane Cricket Ground Vulture Street,WOOLLOONGABBA,QLD,4102,Australia,"Lvl 2 Sec 37 Brisbane Cricket Ground Vulture Street, WOOLLOONGABBA,QLD, 4102,Australia",-27.4846758,153.0361378
Domino's,Capalaba,3/67 Redland Bay Rd,CAPALABA,QLD,4157,Australia,"3/67 Redland Bay Rd, CAPALABA,QLD, 4157,Australia",-27.52692176,153.1928524
Domino's,Redcliffe,10/457 Oxley Avenue,REDCLIFFE,QLD,4020,Australia,"10/457 Oxley Avenue, REDCLIFFE,QLD, 4020,Australia",-27.22971205,153.1092771
Domino's,Bundamba,Shop 1 4 Brisbane Road,BUNDAMBA,QLD,4304,Australia,"Shop 1 4 Brisbane Road, BUNDAMBA,QLD, 4304,Australia",-27.60987884,152.8067111
Domino's,Springfield,Shop 20 Springfield Shopping Centre Sapphire St,SPRINGFIELD,QLD,4300,Australia,"Shop 20 Springfield Shopping Centre Sapphire St, SPRINGFIELD,QLD, 4300,Australia",-27.65132427,152.9171925
Domino's,Bracken Ridge,71 Gawain Road,BRACKEN RIDGE,QLD,4017,Australia,"71 Gawain Road, BRACKEN RIDGE,QLD, 4017,Australia",-27.31505005,153.0325014
Domino's,Morayfield,110 Morayfield Road,MORAYFIELD,QLD,4506,Australia,"110 Morayfield Road, MORAYFIELD,QLD, 4506,Australia",-27.09801424,152.948295
Domino's,Beenleigh,Shop 42 Beenleigh Market Place George Street,BEENLEIGH,QLD,4207,Australia,"Shop 42 Beenleigh Market Place George Street, BEENLEIGH,QLD, 4207,Australia",-27.71771877,153.2066778
Domino's,Browns Plains,Shop 5 Ground Floor 111-121 Grand Plaza Drive,BROWNS PLAINS,QLD,4118,Australia,"Shop 5 Ground Floor 111-121 Grand Plaza Drive, BROWNS PLAINS,QLD, 4118,Australia",-27.66163491,153.0429067
Domino's,Marsden Park,3/875 Richmond Road,MARSDEN PARK,NSW,2765,Australia,"3/875 Richmond Road, MARSDEN PARK,NSW, 2765,Australia",-33.71612288,150.8457133
Domino's,Seven Hills,Shop 66 Seven Hills Plaza Shopping Centre Corner Prospect Hwy & Federal Rd,SEVEN HILLS,NSW,2147,Australia,"Shop 66 Seven Hills Plaza Shopping Centre Corner Prospect Hwy & Federal Rd, SEVEN HILLS,NSW, 2147,Australia",-33.77675702,150.9331541
Domino's,Palm Beach,8/6 Fifth Ave,PALM BEACH,QLD,4221,Australia,"8/6 Fifth Ave , PALM BEACH,QLD, 4221,Australia",-28.12249081,153.4725864
Domino's,Tweed Heads,85 Minjungbal Drive,TWEED HEADS SOUTH,NSW,2486,Australia,"85 Minjungbal Drive, TWEED HEADS SOUTH,NSW, 2486,Australia",-28.19902647,153.5434417
Domino's,Goodna,Shop 12 St Ives Shopping Centre 2 Smiths Road,GOODNA,QLD,4300,Australia,"Shop 12 St Ives Shopping Centre 2 Smiths Road, GOODNA,QLD, 4300,Australia",-27.6101501,152.8983033
Domino's,Holland Park,1226 Logan Road (Cnr Nursery Rd),HOLLAND PARK,QLD,4121,Australia,"1226 Logan Road (Cnr Nursery Rd), HOLLAND PARK,QLD, 4121,Australia",-27.52935674,153.0723585
Domino's,Nerang,39 Station Street,NERANG,QLD,4211,Australia,"39 Station Street, NERANG,QLD, 4211,Australia",-27.99512578,153.3391676
Domino's,Marsden,74 Chambers Flat Road,MARSDEN,QLD,4132,Australia,"74 Chambers Flat Road, MARSDEN,QLD, 4132,Australia",-27.68115821,153.1151829
Domino's,Cannon Hill,1181 Wynnum Road,CANNON HILL,QLD,4170,Australia,"1181 Wynnum Road, CANNON HILL,QLD, 4170,Australia",-27.47073267,153.101583
Domino's,Deception Bay,Tenancy T12 Deception Bay Shopping Centre 1-45 Bay Ave,DECEPTION BAY,QLD,4508,Australia,"Tenancy T12 Deception Bay Shopping Centre 1-45 Bay Ave, DECEPTION BAY,QLD, 4508,Australia",-27.19428342,153.0291335
Domino's,Maroochydore,Shop 14A Sunshine Homemaker Centre 100 Maroochydore Road,MAROOCHYDORE,QLD,4558,Australia,"Shop 14A Sunshine Homemaker Centre 100 Maroochydore Road, MAROOCHYDORE,QLD, 4558,Australia",-26.65060703,153.0816913
Domino's,Currimundi,Shop 1 Currimundi Junction Cnr Nicklin Way & Erang St,CURRIMUNDI,QLD,4551,Australia,"Shop 1 Currimundi Junction Cnr Nicklin Way & Erang St, CURRIMUNDI,QLD, 4551,Australia",-26.76895032,153.1222432
Domino's,Wyalla,Wyalla Plaza 238 Taylor St,NEWTOWN,QLD,4350,Australia,"Wyalla Plaza 238 Taylor St, NEWTOWN,QLD, 4350,Australia",-27.5526618,151.9201047
Domino's,Arana Hills,4/290 Dawson Parade,ARANA HILLS,QLD,4054,Australia,"4/290 Dawson Parade, ARANA HILLS,QLD, 4054,Australia",-27.39615334,152.9610161
Domino's,Richlands,Progress Corner Convenience Centre Cnr Progress & Garden Rds,RICHLANDS,QLD,4077,Australia,"Progress Corner Convenience Centre Cnr Progress & Garden Rds, RICHLANDS,QLD, 4077,Australia",-27.59728599,152.9491401
Domino's,Beaudesert,2B Telemon Street,BEAUDESERT,QLD,4285,Australia,"2B Telemon Street, BEAUDESERT,QLD, 4285,Australia",-27.98871111,152.9955012
Domino's,Kallangur,1450 Anzac Ave (Cnr Andrew Street),KALLANGUR,QLD,4503,Australia,"1450 Anzac Ave (Cnr Andrew Street), KALLANGUR,QLD, 4503,Australia",-27.2496031,152.9986384
Domino's,Westridge,Shop 25 Westridge Shopping Centre 300 West St,KEARNEYS SPRING,QLD,4350,Australia,"Shop 25 Westridge Shopping Centre 300 West St, KEARNEYS SPRING,QLD, 4350,Australia",-27.60089071,151.9361724
Domino's,Yeronga,Shop 3 Domino's Place 541 Fairfield Rd,YERONGA,QLD,4104,Australia,"Shop 3 Domino's Place 541 Fairfield Rd, YERONGA,QLD, 4104,Australia",-27.51905107,153.0157003
Domino's,Birkdale,106 Birkdale Rd,BIRKDALE,QLD,4159,Australia,"106 Birkdale Rd, BIRKDALE,QLD, 4159,Australia",-27.49576685,153.2124004
Domino's,Calamvale,Cnr Kameruka & Beaudesert Rds,CALAMVALE,QLD,4116,Australia,"Cnr Kameruka & Beaudesert Rds, CALAMVALE,QLD, 4116,Australia",-27.62362692,153.0483142
Domino's,Fortitude Valley,330 Brunswick St,FORTITUDE VALLEY,QLD,4006,Australia,"330 Brunswick St, FORTITUDE VALLEY,QLD, 4006,Australia",-27.45813856,153.0348963
Domino's,Victoria Point Qld,Shop 1/3 Town Centre West 349-369 Colburn Ave,VICTORIA POINT,QLD,4165,Australia,"Shop 1/3 Town Centre West 349-369 Colburn Ave, VICTORIA POINT,QLD, 4165,Australia",-27.58600458,153.2839075
Domino's,Oxenford,Shop 2 Exit 57 170 Old Pacific Highway,OXENFORD,QLD,4210,Australia,"Shop 2 Exit 57 170 Old Pacific Highway, OXENFORD,QLD, 4210,Australia",-27.89011754,153.3134532
Domino's,Mooloolaba,3 Tarcoola Avenue,MOOLOOLABA,QLD,4557,Australia,"3 Tarcoola Avenue, MOOLOOLABA,QLD, 4557,Australia",-26.68337444,153.1171446
Domino's,Cleveland,18-20 Shore St West,ORMISTON,QLD,4160,Australia,"18-20 Shore St West, ORMISTON,QLD, 4160,Australia",-27.52354532,153.2522429
Domino's,Clayfield,2/805 Sandgate Rd,CLAYFIELD,QLD,4011,Australia,"2/805 Sandgate Rd, CLAYFIELD,QLD, 4011,Australia",-27.41621195,153.0587359
Domino's,Kenmore,Shop 7 2095 Moggill Road,KENMORE,QLD,4069,Australia,"Shop 7 2095 Moggill Road, KENMORE,QLD, 4069,Australia",-27.50941016,152.9376991
Domino's,Mount Ommaney,Sirocco Court 104 Dandenong Rd,MOUNT OMMANEY,QLD,4074,Australia,"Sirocco Court 104 Dandenong Rd, MOUNT OMMANEY,QLD, 4074,Australia",-27.54989557,152.9357975
Domino's,New Farm,676 Brunswick St,NEW FARM,QLD,4005,Australia,"676 Brunswick St, NEW FARM,QLD, 4005,Australia",-27.46363001,153.0418321
Domino's,Noosa,Shop 9 18 Thomas St,NOOSAVILLE,QLD,4566,Australia,"Shop 9 18 Thomas St, NOOSAVILLE,QLD, 4566,Australia",-26.40063437,153.0623723
Domino's,Wynnum,Shop 4 Wynnum West Shopping Centre 2063-2067 Wynnum Rd,WYNNUM,QLD,4178,Australia,"Shop 4 Wynnum West Shopping Centre 2063-2067 Wynnum Rd, WYNNUM,QLD, 4178,Australia",-27.45358757,153.1563792
Domino's,Nambour,2/186 Currie Street,NAMBOUR,QLD,4560,Australia,"2/186 Currie Street, NAMBOUR,QLD, 4560,Australia",-26.63084723,152.9598126
Domino's,Robina,86 Robina Town Centre Dr,ROBINA,QLD,4226,Australia,"86 Robina Town Centre Dr, ROBINA,QLD, 4226,Australia",-28.0804054,153.3880598
Domino's,Shailer Park,Shop 12 Loganholme Shopping Village 37-59 Bryants Rd,LOGANHOLME,QLD,4129,Australia,"Shop 12 Loganholme Shopping Village 37-59 Bryants Rd, LOGANHOLME,QLD, 4129,Australia",-27.6629591,153.1764667
Domino's,Warwick (Qld),26 Albion St,WARWICK,QLD,4370,Australia,"26 Albion St, WARWICK,QLD, 4370,Australia",-28.21292635,152.0360732
Domino's,Coolum,Shop 8 Sea Coolum 1796 David Low Way,COOLUM BEACH,QLD,4573,Australia,"Shop 8 Sea Coolum 1796 David Low Way, COOLUM BEACH,QLD, 4573,Australia",-26.52995033,153.0910108
Domino's,Brassall,Shop 7 Pine Mountain Rd Shopping Village 92-98 Pine Mountain Road,BRASSALL,QLD,4305,Australia,"Shop 7 Pine Mountain Rd Shopping Village 92-98 Pine Mountain Road, BRASSALL,QLD, 4305,Australia",-27.58945273,152.7521565
Domino's,Burpengary,19/157-161 Station Rd,BURPENGARY,QLD,4505,Australia,"19/157-161 Station Rd, BURPENGARY,QLD, 4505,Australia",-27.15522639,152.9723803
Domino's,The Gap,Shop 3 858 Waterworks Road,THE GAP,QLD,4061,Australia,"Shop 3 858 Waterworks Road, THE GAP,QLD, 4061,Australia",-27.44661495,152.9589168
Domino's,Albany Creek,Shop 12A Woolworths Marketplace Old Northern Road,ALBANY CREEK,QLD,4035,Australia,"Shop 12A Woolworths Marketplace Old Northern Road, ALBANY CREEK,QLD, 4035,Australia",-27.3586229,152.9704706
Domino's,Ashmore,Shop 1B Ashmore Professional Centre 115 Currumburra Road,ASHMORE,QLD,4214,Australia,"Shop 1B Ashmore Professional Centre 115 Currumburra Road, ASHMORE,QLD, 4214,Australia",-27.98729159,153.3823414
Domino's,Spring Hill,1C/74 Little Edward St,SPRING HILL,QLD,4000,Australia,"1C/74 Little Edward St, SPRING HILL,QLD, 4000,Australia",-27.4611602,153.0243726
Domino's,Carindale,Shop 3 Millennium Business Centre 1019 Old Cleveland Road,CARINDALE,QLD,4152,Australia,"Shop 3 Millennium Business Centre 1019 Old Cleveland Road, CARINDALE,QLD, 4152,Australia",-27.50081062,153.1031344
Domino's,Upper Mount Gravatt,Shop 3 Palmdale Shopping Centre 2120 Logan Road,UPPER MOUNT GRAVATT,QLD,4122,Australia,"Shop 3 Palmdale Shopping Centre 2120 Logan Road, UPPER MOUNT GRAVATT,QLD, 4122,Australia",-27.5615336,153.0835839
Domino's,Buderim,Shop 1B Buderim Marketplace 67 Burnett Street,BUDERIM,QLD,4556,Australia,"Shop 1B Buderim Marketplace 67 Burnett Street, BUDERIM,QLD, 4556,Australia",-26.687779,153.049479
Domino's,Yamanto,Shop 23 Yamanto 7 Day Shopping Centre 502-510 Warwick Road,YAMANTO,QLD,4305,Australia,"Shop 23 Yamanto 7 Day Shopping Centre 502-510 Warwick Road, YAMANTO,QLD, 4305,Australia",-27.66072912,152.7402785
Domino's,Beerwah,Shop 10 Beerwah Market Place Peachester Road,BEERWAH,QLD,4519,Australia,"Shop 10 Beerwah Market Place Peachester Road, BEERWAH,QLD, 4519,Australia",-26.8565827,152.9553219
Domino's,East Toowoomba,120-126 Herries Street,TOOWOOMBA,QLD,4350,Australia,"120-126 Herries Street, TOOWOOMBA,QLD, 4350,Australia",-27.56566065,151.9565665
Domino's,Bribie Island,Bribie Island Shopping Complex 5-7 Fortune Ave,BRIBIE ISLAND,QLD,4507,Australia,"Bribie Island Shopping Complex 5-7 Fortune Ave, BRIBIE ISLAND,QLD, 4507,Australia",-27.0657073,153.1583563
Domino's,Caloundra,Shop 6 3-5 Park Place,CALOUNDRA,QLD,4551,Australia,"Shop 6 3-5 Park Place, CALOUNDRA,QLD, 4551,Australia",-26.80501488,153.1234708
Domino's,Zillmere,Shop 1 413 Zillmere Rd (Cnr. Handford Road),ZILLMERE,QLD,4034,Australia,"Shop 1 413 Zillmere Rd (Cnr. Handford Road), ZILLMERE,QLD, 4034,Australia",-27.35920143,153.0386479
Domino's,Forest Lake,Shop 3 200 Grand Avenue,FOREST LAKE,QLD,4078,Australia,"Shop 3 200 Grand Avenue, FOREST LAKE,QLD, 4078,Australia",-27.62724518,152.9678602
Domino's,West End,Unit 1 West Point 162 Boundary Street,WEST END,QLD,4101,Australia,"Unit 1 West Point 162 Boundary Street, WEST END,QLD, 4101,Australia",-27.48183278,153.0121999
Domino's,Corinda,Shop 2 670 Oxley Road,CORINDA,QLD,4075,Australia,"Shop 2 670 Oxley Road, CORINDA,QLD, 4075,Australia",-27.54012271,152.9818752
Domino's,Ipswich,3/27 Thorn Street,IPSWICH,QLD,4305,Australia,"3/27 Thorn Street, IPSWICH,QLD, 4305,Australia",-27.61659781,152.7643397
Domino's,Morningside,Shop 12 611 Wynnum Road,MORNINGSIDE,QLD,4170,Australia,"Shop 12 611 Wynnum Road, MORNINGSIDE,QLD, 4170,Australia",-27.46873203,153.0718212
Domino's,Southport,102/139 Scarborough Street,SOUTHPORT,QLD,4215,Australia,"102/139 Scarborough Street, SOUTHPORT,QLD, 4215,Australia",-27.96421361,153.4124313
Domino's,Kelvin Grove,T5 44 Musk Avenue,KELVIN GROVE BC,QLD,4059,Australia,"T5 44 Musk Avenue, KELVIN GROVE BC,QLD, 4059,Australia",-27.45370864,153.0134976
Domino's,Petrie,Shop 2 1004 Anzac Avenue,PETRIE,QLD,4502,Australia,"Shop 2 1004 Anzac Avenue, PETRIE,QLD, 4502,Australia",-27.2696444,152.9776585
Domino's,Virginia,5/7 Wellington Street,NORTHGATE,QLD,4013,Australia,"5/7 Wellington Street, NORTHGATE,QLD, 4013,Australia",-27.38307476,153.0637029
Domino's,Sandgate,Shop 2 80 Loudon Street,SANDGATE,QLD,4017,Australia,"Shop 2 80 Loudon Street, SANDGATE,QLD, 4017,Australia",-27.32127818,153.0700019
Domino's,Everton Park,Shop 4 & 5 Centro Shopping Centre 791 Stafford Road,EVERTON PARK,QLD,4053,Australia,"Shop 4 & 5 Centro Shopping Centre 791 Stafford Road, EVERTON PARK,QLD, 4053,Australia",-27.40642373,152.9923355
Domino's,North Lakes,Shop 10 North Lakes Convenience Centre 1-3 College Street,NORTH LAKES,QLD,4509,Australia,"Shop 10 North Lakes Convenience Centre 1-3 College Street, NORTH LAKES,QLD, 4509,Australia",-27.23216627,153.0222077
Domino's,Westfield Helensvale,Shop 1122A Westfield Helensvale Town Centre Drive,HELENSVALE,QLD,4212,Australia,"Shop 1122A Westfield Helensvale Town Centre Drive, HELENSVALE,QLD, 4212,Australia",-27.9235381,153.3389633
Domino's,Aspley,1289 Gympie Rd,ASPLEY,QLD,4034,Australia,"1289 Gympie Rd, ASPLEY,QLD, 4034,Australia",-27.36581328,153.0179118
Domino's,Waterford West Qld,Shop 1 954 Kingston Rd,WATERFORD,QLD,4133,Australia,"Shop 1 954 Kingston Rd, WATERFORD,QLD, 4133,Australia",-27.69146154,153.1349457
Domino's,Upper Coomera,Shop J2 Coomera Square 2 City Centre Drive,UPPER COOMERA,QLD,4209,Australia,"Shop J2 Coomera Square 2 City Centre Drive, UPPER COOMERA,QLD, 4209,Australia",-27.85140493,153.3006508
Domino's,Ormeau,Shop 5 1 Vaughan Drive,ORMEAU,QLD,4208,Australia,"Shop 5 1 Vaughan Drive, ORMEAU,QLD, 4208,Australia",-27.7851374,153.2505936
Domino's,Coomera East,T6 Building B 334 Foxwell Road,COOMERA,QLD,4209,Australia,"T6 Building B 334 Foxwell Road, COOMERA,QLD, 4209,Australia",-27.85198039,153.3366739
Domino's,West Burleigh,Shop 3 151 West Burleigh Road,BURLEIGH HEADS,QLD,4220,Australia,"Shop 3 151 West Burleigh Road, BURLEIGH HEADS,QLD, 4220,Australia",-28.10006276,153.4422218
Domino's,Tanah Merah,Store Closed 09/12/2007,LOGANHOLME,QLD,4129,Australia,"Store Closed 09/12/2007, LOGANHOLME,QLD, 4129,Australia",-27.6637112,153.1734563
Domino's,Tugun,3/467 Golden Four Drive,TUGUN,QLD,4224,Australia,"3/467 Golden Four Drive, TUGUN,QLD, 4224,Australia",-28.14243123,153.4938031
Domino's,Bardon,Store Temp Closed 25/03/2012 Shop 3 Bardon Central 60 Macgregor Terrace,BARDON,QLD,4065,Australia,"Store Temp Closed 25/03/2012 Shop 3 Bardon Central 60 Macgregor Terrace, BARDON,QLD, 4065,Australia",-27.45833474,152.9869273
Domino's,Miami,3 Mountain View Ave,MIAMI,QLD,4220,Australia,"3 Mountain View Ave, MIAMI,QLD, 4220,Australia",-28.07545551,153.4446427
Domino's,Casula,T1 629-632 Hume Highway,CASULA,NSW,2170,Australia,"T1 629-632 Hume Highway, CASULA,NSW, 2170,Australia",-33.95557407,150.8959336
Domino's,North Melbourne,Shop 5A 33 Flemington Road,NORTH MELBOURNE,VIC,3051,Australia,"Shop 5A 33 Flemington Road, NORTH MELBOURNE,VIC, 3051,Australia",-37.80044811,144.9554212
Domino's,Greenslopes,496 Logan Road,GREENSLOPES,QLD,4120,Australia,"496 Logan Road, GREENSLOPES,QLD, 4120,Australia",-27.5039649,153.0477613
Domino's,Queen St (Qld),Unit 2 371 Queen St,BRISBANE,QLD,4000,Australia,"Unit 2 371 Queen St, BRISBANE,QLD, 4000,Australia",-27.46630493,153.0297887
Domino's,Cowra,28 Kendal St,COWRA,NSW,2794,Australia,"28 Kendal St, COWRA,NSW, 2794,Australia",-33.83404595,148.6883917
Domino's,The Junction,56 Glebe Road,THE JUNCTION,NSW,2291,Australia,"56 Glebe Road, THE JUNCTION,NSW, 2291,Australia",-32.93846641,151.7599987
Domino's,Batemans Bay,17 Orient Street,BATEMANS BAY,NSW,2536,Australia,"17 Orient Street, BATEMANS BAY,NSW, 2536,Australia",-35.70752913,150.1782388
Domino's,Malua Bay,Store Closed 16/07/2006,MALUA BAY,NSW,2536,Australia,"Store Closed 16/07/2006, MALUA BAY,NSW, 2536,Australia",-35.77183395,150.2014099
Domino's,Lithgow,190 Main St,LITHGOW,NSW,2790,Australia,"190 Main St, LITHGOW,NSW, 2790,Australia",-33.48209084,150.1534423
Domino's,Kempsey,1/60 Belgrave Street,KEMPSEY,NSW,2440,Australia,"1/60 Belgrave Street, KEMPSEY,NSW, 2440,Australia",-31.08003612,152.8372461
Domino's,Ulladulla,Shop 3 128 Princes Highway,ULLADULLA,NSW,2539,Australia,"Shop 3 128 Princes Highway, ULLADULLA,NSW, 2539,Australia",-35.36022589,150.4741425
Domino's,Griffith (Nsw),312 Banna Ave,GRIFFITH,NSW,2680,Australia,"312 Banna Ave, GRIFFITH,NSW, 2680,Australia",-34.28826321,146.0452248
Domino's,Woonona,413-415 Princes Highway (Cnr Campbell St),WOONONA,NSW,2517,Australia,"413-415 Princes Highway (Cnr Campbell St), WOONONA,NSW, 2517,Australia",-34.34227711,150.9058105
Domino's,Tumut,54B Fitzroy St,TUMUT,NSW,2720,Australia,"54B Fitzroy St, TUMUT,NSW, 2720,Australia",-35.30105586,148.2260368
Domino's,Narrabri,103 Tibbereena Street,NARRABRI,NSW,2390,Australia,"103 Tibbereena Street, NARRABRI,NSW, 2390,Australia",-30.3237194,149.7807558
Domino's,Casino,134 Canterbury Street,CASINO,NSW,2470,Australia,"134 Canterbury Street, CASINO,NSW, 2470,Australia",-28.8622744,153.0468025
Domino's,Murwillumbah,Shop 25A Sunnyside Shopping Centre Cnr Brisbane & Wollumbin Streets,MURWILLUMBAH,NSW,2484,Australia,"Shop 25A Sunnyside Shopping Centre Cnr Brisbane & Wollumbin Streets, MURWILLUMBAH,NSW, 2484,Australia",-28.32762959,153.3957255
Domino's,Gunnedah,340A Conadilly Street,GUNNEDAH,NSW,2380,Australia,"340A Conadilly Street, GUNNEDAH,NSW, 2380,Australia",-30.9794848,150.2576053
Domino's,Broken Hill,143 Oxide Street,BROKEN HILL,NSW,2880,Australia,"143 Oxide Street, BROKEN HILL,NSW, 2880,Australia",-31.95220605,141.4634145
Domino's,Yass,63 Laidlaw St,YASS,NSW,2582,Australia,"63 Laidlaw St, YASS,NSW, 2582,Australia",-34.82698497,148.9095005
Domino's,Kingscliff,T20 22-26 Pearl Street,KINGSCLIFF,NSW,2487,Australia,"T20 22-26 Pearl Street, KINGSCLIFF,NSW, 2487,Australia",-28.25612437,153.5749967
Domino's,St Leonards,22 Pacific Hwy,ST LEONARDS,NSW,2065,Australia,"22 Pacific Hwy, ST LEONARDS,NSW, 2065,Australia",-33.82391981,151.1935842
Domino's,Narooma (Pinkys),Narooma Plaza Shop M 13 Willcocks Ave,NAROOMA,NSW,2546,Australia,"Narooma Plaza Shop M 13 Willcocks Ave, NAROOMA,NSW, 2546,Australia",-36.22350067,150.1300096
Domino's,Wauchope,Closed Eff 23/03/09,WAUCHOPE,NSW,2446,Australia,"Closed Eff 23/03/09, WAUCHOPE,NSW, 2446,Australia",-31.4732028,152.6903418
Domino's,Win1 D2Go,Win Stadium Cnr Harbour & Crown Streets,WOLLONGONG,NSW,2500,Australia,"Win Stadium Cnr Harbour & Crown Streets, WOLLONGONG,NSW, 2500,Australia",-34.42621031,150.902129
Domino's,Win2 D2Go,Win Stadium Cnr Harbour St & Crown St,WOLLONGONG,NSW,2500,Australia,"Win Stadium Cnr Harbour St & Crown St, WOLLONGONG,NSW, 2500,Australia",-34.42621031,150.902129
Domino's,Albion Park,Shop 1 150 Tongarra Road,ALBION PARK,NSW,2527,Australia,"Shop 1 150 Tongarra Road, ALBION PARK,NSW, 2527,Australia",-34.57060095,150.7732087
Domino's,Parkes,246 Clarinda Street,PARKES,NSW,2870,Australia,"246 Clarinda Street, PARKES,NSW, 2870,Australia",-33.13707129,148.1742706
Domino's,Inverell,1/121 Byron Street,INVERELL,NSW,2360,Australia,"1/121 Byron Street, INVERELL,NSW, 2360,Australia",-29.77244087,151.1138668
Domino's,Cecil Hills,Shop 1 Cecil Hills Shopping Centre 1 Lancaster Ave,CECIL HILLS,NSW,2171,Australia,"Shop 1 Cecil Hills Shopping Centre 1 Lancaster Ave, CECIL HILLS,NSW, 2171,Australia",-33.88694648,150.8488239
Domino's,Alstonville,24/8-20 Robertson Street,ALSTONVILLE,NSW,2477,Australia,"24/8-20 Robertson Street, ALSTONVILLE,NSW, 2477,Australia",-28.84305591,153.4401161
Domino's,Goonellabah,Shop 2 Woolworths Goonellabah Simeoni Drive,GOONELLABAH,NSW,2480,Australia,"Shop 2 Woolworths Goonellabah Simeoni Drive, GOONELLABAH,NSW, 2480,Australia",-28.8222819,153.3278146
Domino's,Coonabarabran,Shop 3 77 John Street,COONABARABRAN,NSW,2357,Australia,"Shop 3 77 John Street, COONABARABRAN,NSW, 2357,Australia",-31.27305337,149.277395
Domino's,Tolland,231 Bourke Street,TOLLAND,NSW,2650,Australia,"231 Bourke Street, TOLLAND,NSW, 2650,Australia",-35.14351904,147.351542
Domino's,Mudgee,Shop 6 The Gateway 84/86 Mortimer Street,MUDGEE,NSW,2850,Australia,"Shop 6 The Gateway 84/86 Mortimer Street, MUDGEE,NSW, 2850,Australia",-32.59248157,149.5871702
Domino's,Wellington Nsw,94 Lee Street,WELLINGTON,NSW,2820,Australia,"94 Lee Street, WELLINGTON,NSW, 2820,Australia",-32.54976098,148.9413614
Domino's,Huskisson,Lot 5 47 Owen Street,HUSKISSON,NSW,2540,Australia,"Lot 5 47 Owen Street, HUSKISSON,NSW, 2540,Australia",-35.03838093,150.6697312
Domino's,Moree,217 Balo St,MOREE,NSW,2400,Australia,"217 Balo St, MOREE,NSW, 2400,Australia",-29.46765593,149.8411093
Domino's,Picton,T21 Picton Mall S/C 9-13 Margaret Street,PICTON,NSW,2571,Australia,"T21 Picton Mall S/C 9-13 Margaret Street, PICTON,NSW, 2571,Australia",-34.16878249,150.6133737
Domino's,Bomaderry,2/271 Princess Hwy,BOMADERRY,NSW,2541,Australia,"2/271 Princess Hwy, BOMADERRY,NSW, 2541,Australia",-34.84009955,150.5940195
Domino's,Cooma,32 Sharp Street,COOMA,NSW,2630,Australia,"32 Sharp Street, COOMA,NSW, 2630,Australia",-36.23260532,149.1319477
Domino's,Budgewoi,Shop 1 16 Lake Street,BUDGEWOI,NSW,2262,Australia,"Shop 1 16 Lake Street, BUDGEWOI,NSW, 2262,Australia",-33.23697394,151.5637711
Domino's,Charlestown,1/158 Pacific Highway,CHARLESTOWN,NSW,2290,Australia,"1/158 Pacific Highway, CHARLESTOWN,NSW, 2290,Australia",-32.96434969,151.6953243
Domino's,Adamstown,260 Brunker Rd,ADAMSTOWN,NSW,2289,Australia,"260 Brunker Rd, ADAMSTOWN,NSW, 2289,Australia",-32.93471698,151.7254302
Domino's,Belmont (Nsw),15/1 Singleton St,BELMONT,NSW,2280,Australia,"15/1 Singleton St, BELMONT,NSW, 2280,Australia",-33.03691371,151.6592801
Domino's,Mayfield,175 Maitland Road,MAYFIELD,NSW,2304,Australia,"175 Maitland Road, MAYFIELD,NSW, 2304,Australia",-32.89755891,151.7372849
Domino's,Glendale,553 Main Rd,GLENDALE,NSW,2285,Australia,"553 Main Rd, GLENDALE,NSW, 2285,Australia",-32.9284715,151.6415716
Domino's,East Maitland,Shop 13 East Maitland Village Walk Cnr Lawes & High Streets,EAST MAITLAND,NSW,2323,Australia,"Shop 13 East Maitland Village Walk Cnr Lawes & High Streets, EAST MAITLAND,NSW, 2323,Australia",-32.75110988,151.5899488
Domino's,Morisset,Shop 3 24 Yambo Street,MORISSET,NSW,2264,Australia,"Shop 3 24 Yambo Street, MORISSET,NSW, 2264,Australia",-33.10747001,151.4883586
Domino's,Toronto,2 James Street,TORONTO,NSW,2283,Australia,"2 James Street, TORONTO,NSW, 2283,Australia",-33.01139563,151.5930027
Domino's,Raymond Terrace,Shop 3 Lakeside Shopping Village Benjamin Lee Drive,RAYMOND TERRACE,NSW,2324,Australia,"Shop 3 Lakeside Shopping Village Benjamin Lee Drive, RAYMOND TERRACE,NSW, 2324,Australia",-32.75969007,151.7687983
Domino's,Kurri Kurri,89-95 Northcote Street,KURRI KURRI,NSW,2327,Australia,"89-95 Northcote Street, KURRI KURRI,NSW, 2327,Australia",-32.81229186,151.4759283
Domino's,Armidale (Nsw),Shop 4 4/10 Queen Elizabeth Dr,ARMIDALE,NSW,2350,Australia,"Shop 4 4/10 Queen Elizabeth Dr, ARMIDALE,NSW, 2350,Australia",-30.50410918,151.6510507
Domino's,Coffs Harbour,7/19 Gordon St,COFFS HARBOUR,NSW,2450,Australia,"7/19 Gordon St, COFFS HARBOUR,NSW, 2450,Australia",-30.29820622,153.1157295
Domino's,Tamworth,Shop 3 3-5 Phillip St,TAMWORTH,NSW,2340,Australia,"Shop 3 3-5 Phillip St, TAMWORTH,NSW, 2340,Australia",-31.09551146,150.9125718
Domino's,Salamander Bay,Shop 12 5 Town Centre Circuit,SALAMANDER BAY,NSW,2317,Australia,"Shop 12 5 Town Centre Circuit, SALAMANDER BAY,NSW, 2317,Australia",-32.73722593,152.1083748
Domino's,Wyoming,Shop 3 482 Pacific Highway,WYOMING,NSW,2250,Australia,"Shop 3 482 Pacific Highway, WYOMING,NSW, 2250,Australia",-33.4085507,151.3495864
Domino's,Kincumber,Shop 2 34 Avoca Drive,KINCUMBER,NSW,2251,Australia,"Shop 2 34 Avoca Drive, KINCUMBER,NSW, 2251,Australia",-33.46814113,151.3820451
Domino's,Mingara,8 Mingara Drive,TUMBI UMBI,NSW,2261,Australia,"8 Mingara Drive, TUMBI UMBI,NSW, 2261,Australia",-33.36277675,151.4431437
Domino's,Port Macquarie,Shop 6 124 Gordon Street,PORT MACQUARIE,NSW,2444,Australia,"Shop 6 124 Gordon Street, PORT MACQUARIE,NSW, 2444,Australia",-31.43496542,152.9039461
Domino's,Wallsend,Shop 34 Wallsend Plaza Cnr Kokera & Cowper Sts,WALLSEND,NSW,2287,Australia,"Shop 34 Wallsend Plaza Cnr Kokera & Cowper Sts, WALLSEND,NSW, 2287,Australia",-32.90397191,151.667349
Domino's,Ballina,Shop 1 271 River Street,BALLINA,NSW,2478,Australia,"Shop 1 271 River Street, BALLINA,NSW, 2478,Australia",-28.86813645,153.5555981
Domino's,Lake Haven,Lot 14 Bannister Drive,LAKE HAVEN,NSW,2263,Australia,"Lot 14 Bannister Drive, LAKE HAVEN,NSW, 2263,Australia",-33.2426795,151.5057967
Domino's,Lismore Mpk Five,55 Ballina Road,EAST LISMORE,NSW,2480,Australia,"55 Ballina Road, EAST LISMORE,NSW, 2480,Australia",-28.81382297,153.274719
Domino's,Dubbo,58 Erskine Street,DUBBO,NSW,2830,Australia,"58 Erskine Street, DUBBO,NSW, 2830,Australia",-32.24325481,148.6080404
Domino's,Wagga Wagga,,WAGGA WAGGA,NSW,,Australia,", WAGGA WAGGA,NSW,,Australia",-35.1147487,147.3696155
Domino's,Nowra,Shop 1 100-104 Kinghorne Street,NOWRA,NSW,2541,Australia,"Shop 1 100-104 Kinghorne Street  , NOWRA,NSW, 2541,Australia",-34.87635907,150.6030406
Domino's,Woy Woy,6/39 George St,WOY WOY,NSW,2256,Australia,"6/39 George St, WOY WOY,NSW, 2256,Australia",-33.48907828,151.3248487
Domino's,Kooringal,Shop 38 Kooringal Mall 269-293 Lake Albert Road,KOORINGAL,NSW,2650,Australia,"Shop 38 Kooringal Mall 269-293 Lake Albert Road, KOORINGAL,NSW, 2650,Australia",-35.14149841,147.3762408
Domino's,Figtree,45 Princes Highway,FIGTREE,NSW,2525,Australia,"45 Princes Highway, FIGTREE,NSW, 2525,Australia",-34.4383362,150.8592977
Domino's,Dapto,1/130 Princes Hwy,DAPTO,NSW,2530,Australia,"1/130 Princes Hwy, DAPTO,NSW, 2530,Australia",-34.49522329,150.7926702
Domino's,Shellharbour,Shop 5 Shellharbour City Centre Lot 2 Memorial Ave,SHELLHARBOUR,NSW,2529,Australia,"Shop 5 Shellharbour City Centre Lot 2 Memorial Ave, SHELLHARBOUR,NSW, 2529,Australia",-34.56395498,150.8360633
Domino's,Thornton,Shop 10 Thornton Shopping Centre Cnr Thomas Cooke Drive & Taylor Avenue,THORNTON,NSW,2322,Australia,"Shop 10 Thornton Shopping Centre Cnr Thomas Cooke Drive & Taylor Avenue, THORNTON,NSW, 2322,Australia",-32.77690481,151.6388239
Domino's,Tuggerah,Shop 4 186 Pacific Hwy,TUGGERAH,NSW,2259,Australia,"Shop 4 186 Pacific Hwy, TUGGERAH,NSW, 2259,Australia",-33.29384716,151.4217679
Domino's,Cessnock,Shop 1 191 Wollombi Road,CESSNOCK,NSW,2325,Australia,"Shop 1 191 Wollombi Road, CESSNOCK,NSW, 2325,Australia",-32.83347792,151.3538049
Domino's,Swansea,Shop 1 2 Belmont Street,SWANSEA,NSW,2281,Australia,"Shop 1 2 Belmont Street, SWANSEA,NSW, 2281,Australia",-33.08630998,151.638337
Domino's,Erina,Shop 5 Harvey Norman Complex Erina 176 The Entrance Road,ERINA,NSW,2250,Australia,"Shop 5 Harvey Norman Complex Erina 176 The Entrance Road, ERINA,NSW, 2250,Australia",-33.43705106,151.38523
Domino's,Singleton,2B William Street,SINGLETON,NSW,2330,Australia,"2B William Street, SINGLETON,NSW, 2330,Australia",-32.5640758,151.1692923
Domino's,Bathurst,Shop 2 4 Stockland Drive,KELSO,NSW,2795,Australia,"Shop 2 4 Stockland Drive, KELSO,NSW, 2795,Australia",-33.41913403,149.6020248
Domino's,Toormina,Shop 6 4 Minorca Place,TOORMINA,NSW,2452,Australia,"Shop 6 4 Minorca Place, TOORMINA,NSW, 2452,Australia",-30.35248718,153.0912705
Domino's,Taree,162 Victoria Street,TAREE,NSW,2430,Australia,"162 Victoria Street, TAREE,NSW, 2430,Australia",-31.91340852,152.4616943
Domino's,Rutherford,Shop 2 West Mall Plaza,RUTHERFORD,NSW,2320,Australia,"Shop 2 West Mall Plaza, RUTHERFORD,NSW, 2320,Australia",-32.715533,151.526903
Domino's,Bowral,1/271 Bong Bong Street,BOWRAL,NSW,2576,Australia,"1/271 Bong Bong Street, BOWRAL,NSW, 2576,Australia",-34.4782074,150.4175873
Domino's,Lavington,1/318 Wagga Road,LAVINGTON,NSW,2641,Australia,"1/318 Wagga Road, LAVINGTON,NSW, 2641,Australia",-36.0514462,146.934926
Domino's,The Entrance,Shop 2 217 The Entrance Rd,THE ENTRANCE,NSW,2261,Australia,"Shop 2 217 The Entrance Rd, THE ENTRANCE,NSW, 2261,Australia",-33.34449444,151.4961322
Domino's,Katoomba,162 Katoomba St,KATOOMBA,NSW,2780,Australia,"162 Katoomba St, KATOOMBA,NSW, 2780,Australia",-33.71615993,150.3114641
Domino's,Kiama,40 Terralong Street,KIAMA,NSW,2533,Australia,"40 Terralong Street, KIAMA,NSW, 2533,Australia",-34.67095287,150.8550883
Domino's,Forster,Shop 3 21-23 Wharf Street,FORSTER,NSW,2428,Australia,"Shop 3 21-23 Wharf Street, FORSTER,NSW, 2428,Australia",-32.1752746,152.5014106
Domino's,Grafton,38 Prince Street,GRAFTON,NSW,2460,Australia,"38 Prince Street, GRAFTON,NSW, 2460,Australia",-29.69113561,152.9338753
Domino's,Orange,24B Sale Street,ORANGE,NSW,2800,Australia,"24B Sale Street, ORANGE,NSW, 2800,Australia",-33.28394076,149.0964763
Domino's,Muswellbrook,Shop C2 Muswellbrook Fair Rutherford Road,MUSWELLBROOK,NSW,2333,Australia,"Shop C2 Muswellbrook Fair Rutherford Road, MUSWELLBROOK,NSW, 2333,Australia",-32.2821164,150.8959285
Domino's,North Tamworth,Northgate Shopping Centre Shop 14 1 Piper St,NORTH TAMWORTH,NSW,2340,Australia,"Northgate Shopping Centre Shop 14 1 Piper St, NORTH TAMWORTH,NSW, 2340,Australia",-31.07748413,150.9185249
Domino's,Wollongong City,Cnr Smith And Keira St,WOLLONGONG,NSW,2500,Australia,"Cnr Smith And Keira St, WOLLONGONG,NSW, 2500,Australia",-34.4214454,150.8937637
Domino's,Nowra,112A Kinghorne Street,NOWRA,NSW,2541,Australia,"112A Kinghorne Street, NOWRA,NSW, 2541,Australia",-34.87723892,150.6028841
Domino's,Fairy Meadow,Shop 1 493-495 Princes Highway,FAIRY MEADOW,NSW,2519,Australia,"Shop 1 493-495 Princes Highway, FAIRY MEADOW,NSW, 2519,Australia",-34.38652639,150.8939628
Domino's,Wagga Wagga,30 Baylis Street,WAGGA WAGGA,NSW,2650,Australia,"30 Baylis Street, WAGGA WAGGA,NSW, 2650,Australia",-35.1176915,147.36877
Domino's,Warrawong,130 Northcliffe Drive,WARRAWONG,NSW,2502,Australia,"130 Northcliffe Drive, WARRAWONG,NSW, 2502,Australia",-34.48635457,150.8863124
Domino's,Byron Bay,Shop 1 93 Jonson Street,BYRON BAY,NSW,2481,Australia,"Shop 1 93 Jonson Street, BYRON BAY,NSW, 2481,Australia",-28.64558028,153.6131158
Domino's,Warners Bay,Unit D3 393A Hillsborough Road,WARNERS BAY,NSW,2282,Australia,"Unit D3 393A Hillsborough Road, WARNERS BAY,NSW, 2282,Australia",-32.96564448,151.6533338
Domino's,Busselton,Shop 2 1 Albert Street (Cnr West Street),BUSSELTON,WA,6280,Australia,"Shop 2 1 Albert Street (Cnr West Street), BUSSELTON,WA, 6280,Australia",-33.65221087,115.3445203
Domino's,Port Kennedy,Lot 12 377 Warnbro Sound Ave,PORT KENNEDY,WA,6172,Australia,"Lot 12 377 Warnbro Sound Ave, PORT KENNEDY,WA, 6172,Australia",-32.36650998,115.75568
Domino's,Warwick (Wa),Tenancy Fs07 Centro Warwick 643 Beach Road,WARWICK,WA,6024,Australia,"Tenancy Fs07 Centro Warwick 643 Beach Road, WARWICK,WA, 6024,Australia",-31.84403235,115.8109234
Domino's,Kelmscott,4/2756 Albany Highway,KELMSCOTT,WA,6111,Australia,"4/2756 Albany Highway, KELMSCOTT,WA, 6111,Australia",-32.11207274,116.0140901
Domino's,Broome,1 Hamersley Street,DJUGUN,WA,6725,Australia,"1 Hamersley Street, DJUGUN,WA, 6725,Australia",-17.95337523,122.2414726
Domino's,Windaroo,Shop 3 & 4 Windaroo Shopping Village 2-12 Carl Heck Boulevard,WINDAROO,QLD,4207,Australia,"Shop 3 & 4 Windaroo Shopping Village 2-12 Carl Heck Boulevard, WINDAROO,QLD, 4207,Australia",-27.74058674,153.1917306
Domino's,Cottesloe Beach,596 Stirling Highway,MOSMAN PARK,WA,6012,Australia,"596 Stirling Highway, MOSMAN PARK,WA, 6012,Australia",-32.00662832,115.7585036
Domino's,Southern River (Canning Vale),Shop T20a The Vale Shopping Centre 271 Amherst Road,CANNING VALE,WA,6155,Australia,"Shop T20a The Vale Shopping Centre 271 Amherst Road, CANNING VALE,WA, 6155,Australia",-32.08965166,115.9416097
Domino's,Mirrabooka,Unit 1 3 Cobbler Place,MIRRABOOKA,WA,6061,Australia,"Unit 1 3 Cobbler Place, MIRRABOOKA,WA, 6061,Australia",-31.87385998,115.86174
Domino's,Kalamunda,Suite 6 10 Barber Street,KALAMUNDA,WA,6076,Australia,"Suite 6 10 Barber Street, KALAMUNDA,WA, 6076,Australia",-31.97232675,116.0576148
Domino's,Ellenbrook,Shop 8 16 Main Street,ELLENBROOK,WA,6069,Australia,"Shop 8 16 Main Street, ELLENBROOK,WA, 6069,Australia",-31.78108597,115.96732
Domino's,Leederville,Shop 3 226 Oxford Street,LEEDERVILLE,WA,6007,Australia,"Shop 3 226 Oxford Street, LEEDERVILLE,WA, 6007,Australia",-31.93331001,115.84159
Domino's,Leeming,Shop 20 Leeming Forum Shopping Centre Farrington Road,LEEMING,WA,6149,Australia,"Shop 20 Leeming Forum Shopping Centre Farrington Road, LEEMING,WA, 6149,Australia",-32.0794569,115.8577204
Domino's,Applecross,1/13 Riseley Street,ARDROSS,WA,6153,Australia,"1/13 Riseley Street, ARDROSS,WA, 6153,Australia",-32.02126999,115.83427
Domino's,Umina,5/233 West Street,UMINA BEACH,NSW,2257,Australia,"5/233 West Street, UMINA BEACH,NSW, 2257,Australia",-33.5215582,151.3221499
Domino's,East Perth,Tenancy 4 118 Royal St,EAST PERTH,WA,6004,Australia,"Tenancy 4 118 Royal St, EAST PERTH,WA, 6004,Australia",-31.95268113,115.8750638
Domino's,Success,Unit 4 2 Brushfoot Boulevard Cnr Russell Road,SUCCESS,WA,6164,Australia,"Unit 4 2 Brushfoot Boulevard Cnr Russell Road, SUCCESS,WA, 6164,Australia",-32.15962228,115.8471164
Domino's,Adventure World D2Go,Adventure World 179 Progress Drive,BIBRA LAKE,WA,6163,Australia,"Adventure World 179 Progress Drive, BIBRA LAKE,WA, 6163,Australia",-32.09564693,115.8198919
Domino's,Langford Wa,74 Nicholson Road Langford (Cnr Nicholson & Spencer Rd),LANGFORD,WA,6147,Australia,"74 Nicholson Road Langford (Cnr Nicholson & Spencer Rd), LANGFORD,WA, 6147,Australia",-32.03170906,115.9385155
Domino's,Esperance,Shop 13A Esperance Boulevard Shopping Centre 1 Forrest St,ESPERANCE,WA,6450,Australia,"Shop 13A Esperance Boulevard Shopping Centre 1 Forrest St, ESPERANCE,WA, 6450,Australia",-33.8580211,121.8905914
Domino's,Karratha,1/53 Balmoral Road,KARRATHA,WA,6714,Australia,"1/53 Balmoral Road, KARRATHA,WA, 6714,Australia",-20.73414998,116.84039
Domino's,Mundaring,Shop 19B 7295 Great Eastern Highway,MUNDARING,WA,6073,Australia,"Shop 19B 7295 Great Eastern Highway, MUNDARING,WA, 6073,Australia",-31.90119487,116.1671137
Domino's,Malaga,Lot 2 15 Bonner Drive,MALAGA,WA,6090,Australia,"Lot 2 15 Bonner Drive, MALAGA,WA, 6090,Australia",-31.85002453,115.8785479
Domino's,Northam,68 Fitzgerald Street East,NORTHAM,WA,6401,Australia,"68 Fitzgerald Street East, NORTHAM,WA, 6401,Australia",-31.65035096,116.6732889
Domino's,Byford,Shop 9 867 South West Highway,BYFORD,WA,6122,Australia,"Shop 9 867 South West Highway, BYFORD,WA, 6122,Australia",-32.22099838,116.0084822
Domino's,Margaret River,Shop 5 111 Bussell Highway,MARGARET RIVER,WA,6285,Australia,"Shop 5 111 Bussell Highway, MARGARET RIVER,WA, 6285,Australia",-33.95010815,115.0744291
Domino's,Jindalee,Tenancy 3 Jindalee Commercial Centre 6 Jindalee Blvd,JINDALEE,WA,6036,Australia,"Tenancy 3 Jindalee Commercial Centre 6 Jindalee Blvd, JINDALEE,WA, 6036,Australia",-31.64896585,115.6955228
Domino's,Baldivis,3/83 Norseman Approach,BALDIVIS,WA,6171,Australia,"3/83 Norseman Approach, BALDIVIS,WA, 6171,Australia",-32.33201925,115.8176131
Domino's,Dunsborough,Shop 6 Dunsbrough Park Shopping Centre 26-34 Dunn Bay Rd,DUNSBOROUGH,WA,6281,Australia,"Shop 6 Dunsbrough Park Shopping Centre 26-34 Dunn Bay Rd, DUNSBOROUGH,WA, 6281,Australia",-33.61595934,115.1077008
Domino's,Tuart Hill,Shop 2 77 Wanneroo Rd,TUART HILL,WA,6060,Australia,"Shop 2 77 Wanneroo Rd, TUART HILL,WA, 6060,Australia",-31.90179204,115.8422566
Domino's,Dalyellup,Shop 9 Woolworths Dalyellup Tiffany Centre (Corner Norton Promenade,DALYELLUP,WA,6230,Australia,"Shop 9 Woolworths Dalyellup Tiffany Centre (Corner Norton Promenade, DALYELLUP,WA, 6230,Australia",-33.39741617,115.6337507
Domino's,Meadow Springs,Shop 23A Meadow Springs Shopping Centre 25 Meadow Springs Drive,MEADOW SPRINGS,WA,6210,Australia,"Shop 23A Meadow Springs Shopping Centre 25 Meadow Springs Drive, MEADOW SPRINGS,WA, 6210,Australia",-32.49327998,115.74795
Domino's,Pinjarra,T 37 Pinjarra Shopping Centre 21 George Street,PINJARRA,WA,6208,Australia,"T 37 Pinjarra Shopping Centre 21 George Street, PINJARRA,WA, 6208,Australia",-32.6288788,115.8745388
Domino's,Collie,90 Forrest Street,COLLIE,WA,6225,Australia,"90 Forrest Street , COLLIE,WA, 6225,Australia",-33.35816603,116.1528625
Domino's,Noranda,Shop 37A Noranda Shopping Village 42-58 Benara Rd,NORANDA,WA,6062,Australia,"Shop 37A Noranda Shopping Village 42-58 Benara Rd, NORANDA,WA, 6062,Australia",-31.87667001,115.89543
Domino's,West Perth,1238 Hay St,WEST PERTH,WA,6005,Australia,"1238 Hay St, WEST PERTH,WA, 6005,Australia",-31.94815038,115.8416108
Domino's,Yanchep,1 Peony Blvd,YANCHEP,WA,6035,Australia,"1 Peony Blvd, YANCHEP,WA, 6035,Australia",-31.54923671,115.6390602
Domino's,Scarborough,Tenancy 3 22 Scarborough Beach Road,SCARBOROUGH,WA,6019,Australia,"Tenancy 3 22 Scarborough Beach Road, SCARBOROUGH,WA, 6019,Australia",-31.89395651,115.7591663
Domino's,Durack Qld,Shop 6 146 Blunder Road,DURACK,QLD,4077,Australia,"Shop 6 146 Blunder Road, DURACK,QLD, 4077,Australia",-27.57547071,152.9830252
Domino's,Livingston Marketplace,Shop 4 100-104 Ranford Road. Livingston Market Place,CANNING VALE,WA,6155,Australia,"Shop 4 100-104 Ranford Road. Livingston Market Place, CANNING VALE,WA, 6155,Australia",-32.08608,115.91718
Domino's,Orion Springfield,Shop 241A Orion Shopping Centre Opposite Lagoon Near Target 1 Main Street,SPRINGFIELD CENTRAL,QLD,4300,Australia,"Shop 241A Orion Shopping Centre Opposite Lagoon Near Target 1 Main Street, SPRINGFIELD CENTRAL,QLD, 4300,Australia",-27.67792443,152.9019467
Domino's,Tannum Sands,95 Hampton Drive,TANNUM SANDS,QLD,4680,Australia,"95 Hampton Drive, TANNUM SANDS,QLD, 4680,Australia",-23.94996868,151.3688807
Domino's,Karawara,Shop 27C Waterford Plaza Shopping Centre 213 Kent Street,KARAWARA,WA,6152,Australia,"Shop 27C Waterford Plaza Shopping Centre 213 Kent Street, KARAWARA,WA, 6152,Australia",-32.01101485,115.8868401
Domino's,Calala,9/10 Campbell Road,CALALA,NSW,2340,Australia,"9/10 Campbell Road, CALALA,NSW, 2340,Australia",-31.12611128,150.9413446
Domino's,Inglewood,Unit 1 1008 Beaufort Street,INGLEWOOD,WA,6052,Australia,"Unit 1 1008 Beaufort Street, INGLEWOOD,WA, 6052,Australia",-31.91703998,115.89204
Domino's,Spearwood,218 Rockingham Road,SPEARWOOD,WA,6163,Australia,"218 Rockingham Road, SPEARWOOD,WA, 6163,Australia",-32.09453001,115.78363
Domino's,Bentley (Wa),1140 Albany Highway,BENTLEY,WA,6102,Australia,"1140 Albany Highway, BENTLEY,WA, 6102,Australia",-32.00171652,115.920677
Domino's,Thornlie (Wa),Unit 3 10 Warton Road,HUNTINGDALE,WA,6110,Australia,"Unit 3 10 Warton Road, HUNTINGDALE,WA, 6110,Australia",-32.06781001,115.97023
Domino's,Gracemere,Shop 3 2 Middle Road,GRACEMERE,QLD,4702,Australia,"Shop 3 2 Middle Road, GRACEMERE,QLD, 4702,Australia",-23.44671732,150.4528558
Domino's,Padbury,Shop 20 Padbury Shopping Centre 75 Warburton Avenue,PADBURY,WA,6025,Australia,"Shop 20 Padbury Shopping Centre 75 Warburton Avenue, PADBURY,WA, 6025,Australia",-31.8109403,115.7667766
Domino's,Doubleview,253C Scarborough Beach Rd,DOUBLEVIEW,WA,6018,Australia,"253C Scarborough Beach Rd, DOUBLEVIEW,WA, 6018,Australia",-31.89647867,115.7828955
Domino's,Myaree,Shop 15 Melville Central 7 Marshall Rd,MYAREE,WA,6154,Australia,"Shop 15 Melville Central 7 Marshall Rd, MYAREE,WA, 6154,Australia",-32.0454232,115.8182749
Domino's,Willetton,2 Glenmoy Ave,WILLETTON,WA,6155,Australia,"2 Glenmoy Ave , WILLETTON,WA, 6155,Australia",-32.04951731,115.8984937
Domino's,Waikiki,Shop 5 Waikiki Village Shopping Centre 1-9 Gnangara Drive,WAIKIKI,WA,6169,Australia,"Shop 5 Waikiki Village Shopping Centre 1-9 Gnangara Drive, WAIKIKI,WA, 6169,Australia",-32.31405289,115.7535324
Domino's,William St,Store Closed 30/06/2004,PERTH,WA,6000,Australia,"Store Closed 30/06/2004, PERTH,WA, 6000,Australia",-31.9528536,115.8573142
Domino's,Alexander Heights,Shop 57 Alexander Heights Shopping Centre 200 Mirrabooka Avenue,ALEXANDER HEIGHTS,WA,6064,Australia,"Shop 57 Alexander Heights Shopping Centre 200 Mirrabooka Avenue, ALEXANDER HEIGHTS,WA, 6064,Australia",-31.82984715,115.8536874
Domino's,Armadale (Wa),89 Jull Street,ARMADALE,WA,6112,Australia,"89 Jull Street, ARMADALE,WA, 6112,Australia",-32.15000874,116.0185731
Domino's,Midland,Shop 4 182 Great Eastern Highway,MIDLAND,WA,6056,Australia,"Shop 4 182 Great Eastern Highway, MIDLAND,WA, 6056,Australia",-31.89239434,116.0189816
Domino's,Beechboro,Shop 29 Altone Park Shopping Centre 161 Altone Road,BEECHBORO,WA,6063,Australia,"Shop 29 Altone Park Shopping Centre 161 Altone Road, BEECHBORO,WA, 6063,Australia",-31.8705944,115.9448655
Domino's,Kwinana,Tenancy 1 Kwinana Town Centre 40 Meares Avenue,KWINANA,WA,6167,Australia,"Tenancy 1 Kwinana Town Centre 40 Meares Avenue , KWINANA,WA, 6167,Australia",-32.24523927,115.8160773
Domino's,Swan View,Shop 7 Darling Ridge Shopping Centre 309 Morrison Road,SWAN VIEW,WA,6056,Australia,"Shop 7 Darling Ridge Shopping Centre 309 Morrison Road, SWAN VIEW,WA, 6056,Australia",-31.8854511,116.042224
Domino's,Joondalup,Unit 2 7 Dwyer Turn,JOONDALUP,WA,6027,Australia,"Unit 2 7 Dwyer Turn, JOONDALUP,WA, 6027,Australia",-31.74004998,115.7645
Domino's,Nedlands,128 Broadway,NEDLANDS,WA,6009,Australia,"128 Broadway, NEDLANDS,WA, 6009,Australia",-31.98624609,115.8148893
Domino's,Kalgoorlie,60 Maritana St,KALGOORLIE,WA,6430,Australia,"60 Maritana St, KALGOORLIE,WA, 6430,Australia",-30.74476607,121.4726572
Domino's,Bunbury,Unit 4 Shop 3 7 Sandridge Road,BUNBURY,WA,6230,Australia,"Unit 4 Shop 3 7 Sandridge Road, BUNBURY,WA, 6230,Australia",-33.34066353,115.6503736
Domino's,Mindarie,Unit 8 Mindarie Commercial Centre Cnr Of Bergen Way & Anchorage Drive North,MINDARIE,WA,6030,Australia,"Unit 8 Mindarie Commercial Centre Cnr Of Bergen Way & Anchorage Drive North, MINDARIE,WA, 6030,Australia",-31.67687209,115.7103729
Domino's,South Lake,Lake Shopping Centre Shop 44 1 Omeo Street,SOUTH LAKE,WA,6164,Australia,"Lake Shopping Centre Shop 44 1 Omeo Street, SOUTH LAKE,WA, 6164,Australia",-32.10799998,115.82856
Domino's,Balcatta,6/361 Wanneroo Rd,BALCATTA,WA,6021,Australia,"6/361 Wanneroo Rd, BALCATTA,WA, 6021,Australia",-31.87508001,115.83186
Domino's,Wembley,353 Cambridge St,WEMBLEY,WA,6014,Australia,"353 Cambridge St, WEMBLEY,WA, 6014,Australia",-31.94112714,115.8103191
Domino's,Woodvale,Unit 3 Woodvale Park Commercial Centre Whitfords Ave,WOODVALE,WA,6026,Australia,"Unit 3 Woodvale Park Commercial Centre Whitfords Ave, WOODVALE,WA, 6026,Australia",-31.80033531,115.7947678
Domino's,Beldon,Shop 5 Belridge Shopping Centre Gwendoline Drive,BELDON,WA,6027,Australia,"Shop 5 Belridge Shopping Centre Gwendoline Drive, BELDON,WA, 6027,Australia",-31.76986001,115.76581
Domino's,Mandurah,Shop 4 32 Pinjarra Rd,MANDURAH,WA,6210,Australia,"Shop 4 32 Pinjarra Rd, MANDURAH,WA, 6210,Australia",-32.53453998,115.7208
Domino's,Belmont (Wa),Shop 2/200 Great Eastern Hwy Cnr Grandstand Road,BELMONT,WA,6104,Australia,"Shop 2/200 Great Eastern Hwy Cnr Grandstand Road, BELMONT,WA, 6104,Australia",-31.94132998,115.92569
Domino's,North Geraldton,First St Lot 61,GERALDTON,WA,6530,Australia,"First St Lot 61, GERALDTON,WA, 6530,Australia",-28.76063866,114.6284571
Domino's,East Fremantle,172 Canning Highway,EAST FREMANTLE,WA,6158,Australia,"172 Canning Highway, EAST FREMANTLE,WA, 6158,Australia",-32.04066999,115.76585
Domino's,Albany (Wa),319-331 Albany Highway,Albany,WA,6330,Australia,"319-331 Albany Highway, Albany,WA, 6330,Australia",-35.00449486,117.8656109
Domino's,Northbridge,105 Lake Street,NORTHBRIDGE,WA,6003,Australia,"105 Lake Street, NORTHBRIDGE,WA, 6003,Australia",-31.94513294,115.8582274
Domino's,Forrestfield,Shop 13 Forrestfield Marketplace 80 Hale Road,FORRESTFIELD,WA,6058,Australia,"Shop 13 Forrestfield Marketplace 80 Hale Road, FORRESTFIELD,WA, 6058,Australia",-31.98713956,116.0081495
Domino's,Rockingham,Shop 4 6 Acute Court,ROCKINGHAM,WA,6168,Australia,"Shop 4 6 Acute Court, ROCKINGHAM,WA, 6168,Australia",-32.28534001,115.73935
Domino's,Eaton,Unit 4 Eaton Fair Shopping Centre Cnr Recreation And Eaton Drives,EATON,WA,6232,Australia,"Unit 4 Eaton Fair Shopping Centre Cnr Recreation And Eaton Drives, EATON,WA, 6232,Australia",-33.31879887,115.7168625
Domino's,Erskine (Wa),Shop 9 Erskine Shopping Centre Wattleglen Avenue,ERSKINE,WA,6210,Australia,"Shop 9 Erskine Shopping Centre Wattleglen Avenue, ERSKINE,WA, 6210,Australia",-32.5616215,115.689342
Domino's,Victoria Park Wa,410 - 412 Albany Highway,VICTORIA PARK,WA,6100,Australia,"410 - 412 Albany Highway, VICTORIA PARK,WA, 6100,Australia",-31.9736089,115.8968138
Domino's,Gosnells,Shop 21A 2158 Albany Hwy Gosnells Shopping Centre Albany Hwy,GOSNELLS,WA,6110,Australia,"Shop 21A 2158 Albany Hwy Gosnells Shopping Centre Albany Hwy, GOSNELLS,WA, 6110,Australia",-32.0691219,115.9996498
Domino's,Cremorne,108 Glover Street,CREMORNE,NSW,2090,Australia,"108 Glover Street, CREMORNE,NSW, 2090,Australia",-33.8283999,151.2307345
Domino's,Davidson,Store Closed 21/09/2002,DAVIDSON,NSW,2085,Australia,"Store Closed 21/09/2002, DAVIDSON,NSW, 2085,Australia",-33.7282611,151.1873725
Domino's,Coogee,188 Coogee Bay Road,COOGEE,NSW,2034,Australia,"188 Coogee Bay Road, COOGEE,NSW, 2034,Australia",-33.92015617,151.2540384
Domino's,Parramatta,Shop 1 91 Grose Street (Cnr Mcarthur St),PARRAMATTA,NSW,2150,Australia,"Shop 1 91 Grose Street (Cnr Mcarthur St), PARRAMATTA,NSW, 2150,Australia",-33.80693782,151.0072103
Domino's,Zzztest,240 Sandgate Rd,ZZZTest,QLD,ZZZTest,Australia,"240 Sandgate Rd, ZZZTest,QLD, ZZZTest,Australia",-27.4315036,153.0415132
Domino's,Gladesville,309 Victoria Road,GLADESVILLE,NSW,2111,Australia,"309 Victoria Road, GLADESVILLE,NSW, 2111,Australia",-33.82773869,151.1265507
Domino's,Revesby,Shop 2 268 Canterbury Road,REVESBY,NSW,2212,Australia,"Shop 2 268 Canterbury Road, REVESBY,NSW, 2212,Australia",-33.9383643,151.0197139
Domino's,Kingswood,Shop 3 1 Bringelly Road,KINGSWOOD,NSW,2747,Australia,"Shop 3 1 Bringelly Road, KINGSWOOD,NSW, 2747,Australia",-33.75963824,150.7201916
Domino's,Liverpool,Unit 1 Reilly Centre 389-393 Hume Highway,LIVERPOOL,NSW,2170,Australia,"Unit 1 Reilly Centre 389-393 Hume Highway, LIVERPOOL,NSW, 2170,Australia",-33.93304259,150.9158972
Domino's,Penshurst,493 Forest Road,PENSHURST,NSW,2222,Australia,"493 Forest Road, PENSHURST,NSW, 2222,Australia",-33.96225994,151.0793182
Domino's,Manly Vale,327 Condamine Street,MANLY VALE,NSW,2093,Australia,"327 Condamine Street, MANLY VALE,NSW, 2093,Australia",-33.78367498,151.2670764
Domino's,St Marys,9 Astley Centre 370 Great Western Hwy,SAINT MARYS,NSW,2760,Australia,"9 Astley Centre 370 Great Western Hwy, SAINT MARYS,NSW, 2760,Australia",-33.77049209,150.7754791
Domino's,Rose Bay,512 Old South Head Road,ROSE BAY,NSW,2029,Australia,"512 Old South Head Road, ROSE BAY,NSW, 2029,Australia",-33.87372227,151.2730223
Domino's,Five Dock,61 Great North Road,FIVE DOCK,NSW,2046,Australia,"61 Great North Road, FIVE DOCK,NSW, 2046,Australia",-33.87040019,151.1289242
Domino's,Emerton,Shop 6 135-137 Popondetta Road,EMERTON,NSW,2770,Australia,"Shop 6 135-137 Popondetta Road, EMERTON,NSW, 2770,Australia",-33.74463895,150.8102247
Domino's,Mascot,Shop 9 8 Bourke St,MASCOT,NSW,2020,Australia,"Shop 9 8 Bourke St, MASCOT,NSW, 2020,Australia",-33.92263097,151.1871461
Domino's,Lakemba,Shop 3 57-171 Haldon Street,LAKEMBA,NSW,2195,Australia,"Shop 3 57-171 Haldon Street, LAKEMBA,NSW, 2195,Australia",-33.9228968,151.079096
Domino's,Blacktown,87 Flushcombe Road,BLACKTOWN,NSW,2148,Australia,"87 Flushcombe Road, BLACKTOWN,NSW, 2148,Australia",-33.77313985,150.9077269
Domino's,Narrabeen,1/63 Waterloo Street,NARRABEEN,NSW,2101,Australia,"1/63 Waterloo Street, NARRABEEN,NSW, 2101,Australia",-33.71287937,151.2982525
Domino's,Gymea,25 Gymea Bay Road,GYMEA,NSW,2227,Australia,"25 Gymea Bay Road, GYMEA,NSW, 2227,Australia",-34.03385367,151.0849191
Domino's,Lane Cove,18 Birdwood Lane,LANE COVE,NSW,2066,Australia,"18 Birdwood Lane, LANE COVE,NSW, 2066,Australia",-33.81353367,151.1695436
Domino's,Carlton (Nsw),333 Princes Hwy,CARLTON,NSW,2218,Australia,"333 Princes Hwy, CARLTON,NSW, 2218,Australia",-33.97733546,151.1236526
Domino's,Mount Colah,537 Pacific Highway,MOUNT COLAH,NSW,2079,Australia,"537 Pacific Highway, MOUNT COLAH,NSW, 2079,Australia",-33.67664131,151.111829
Domino's,Baulkham Hills,Shop 49E 6 Seven Hills Road,BAULKHAM HILLS,NSW,2153,Australia,"Shop 49E 6 Seven Hills Road, BAULKHAM HILLS,NSW, 2153,Australia",-33.76251759,150.992333
Domino's,Rozelle,Shop 1 744 Darling Street,ROZELLE,NSW,2039,Australia,"Shop 1 744 Darling Street, ROZELLE,NSW, 2039,Australia",-33.86530282,151.1682165
Domino's,Ramsgate,Shop 3 272-276 Rocky Point Road,RAMSGATE,NSW,2217,Australia,"Shop 3 272-276 Rocky Point Road, RAMSGATE,NSW, 2217,Australia",-33.98326624,151.1368401
Domino's,Sylvania,Shop B 202 Princes Highway,SYLVANIA,NSW,2224,Australia,"Shop B 202 Princes Highway, SYLVANIA,NSW, 2224,Australia",-34.01086789,151.0954045
Domino's,Hornsby,Pacific Point Retail 2 135 - 137 Pacific Hwy,HORNSBY,NSW,2077,Australia,"Pacific Point Retail 2 135 - 137 Pacific Hwy, HORNSBY,NSW, 2077,Australia",-33.70627737,151.098585
Domino's,Croydon Park (Nsw),145 Georges River Road,CROYDON PARK,NSW,2133,Australia,"145 Georges River Road, CROYDON PARK,NSW, 2133,Australia",-33.89549397,151.1068137
Domino's,Epping (Nsw),25 Oxford Street,EPPING,NSW,2121,Australia,"25 Oxford Street, EPPING,NSW, 2121,Australia",-33.77108817,151.0826518
Domino's,Campbelltown,Unit 23B Campbelltown Marketfair Corner Of Narellan Rd And Kellicar Rd,CAMPBELLTOWN,NSW,2560,Australia,"Unit 23B Campbelltown Marketfair Corner Of Narellan Rd And Kellicar Rd, CAMPBELLTOWN,NSW, 2560,Australia",-34.0720886,150.8055778
Domino's,Enmore,Closed 23/03/2009,ENMORE,NSW,2042,Australia,"Closed 23/03/2009, ENMORE,NSW, 2042,Australia",-33.8979888,151.1774215
Domino's,Wentworthville,Shop 2 71 Dunmore St,WENTWORTHVILLE,NSW,2145,Australia,"Shop 2 71 Dunmore St, WENTWORTHVILLE,NSW, 2145,Australia",-33.80720303,150.9701564
Domino's,Ingleburn,64B Oxford Street,INGLEBURN,NSW,2565,Australia,"64B Oxford Street, INGLEBURN,NSW, 2565,Australia",-33.9990541,150.8673848
Domino's,Thornleigh (Nsw),290 Pennant Hills Rd,THORNLEIGH,NSW,2120,Australia,"290 Pennant Hills Rd, THORNLEIGH,NSW, 2120,Australia",-33.73224639,151.0785027
Domino's,Quakers Hill,Shop 11 Farnham Rd Shopping Centre 216 Farnham Road,QUAKERS HILL,NSW,2763,Australia,"Shop 11 Farnham Rd Shopping Centre 216 Farnham Road, QUAKERS HILL,NSW, 2763,Australia",-33.72693499,150.9046231
Domino's,Carnes Hill,Shop 1 Lot 101 Kurrajong Road,HORNINGSEA PARK,NSW,2171,Australia,"Shop 1 Lot 101 Kurrajong Road, HORNINGSEA PARK,NSW, 2171,Australia",-33.93611288,150.8439257
Domino's,Bexley,691-695 Forest Road,BEXLEY,NSW,2207,Australia,"691-695 Forest Road, BEXLEY,NSW, 2207,Australia",-33.96012192,151.1163482
Domino's,Willoughby,503 Willoughby Rd,WILLOUGHBY,NSW,2068,Australia,"503 Willoughby Rd, WILLOUGHBY,NSW, 2068,Australia",-33.80759911,151.1997026
Domino's,Bass Hill,Shop 2 872 Hume Hwy,BASS HILL,NSW,2197,Australia,"Shop 2 872 Hume Hwy, BASS HILL,NSW, 2197,Australia",-33.89730182,150.9926313
Domino's,Villawood,Unit 7 708-712 Woodville Road,FAIRFIELD,NSW,2165,Australia,"Unit 7 708-712 Woodville Road, FAIRFIELD,NSW, 2165,Australia",-33.87080093,150.9846111
Domino's,Fairfield Heights,1/135 Polding Street,FAIRFIELD HEIGHTS,NSW,2165,Australia,"1/135 Polding Street, FAIRFIELD HEIGHTS,NSW, 2165,Australia",-33.86248398,150.9395353
Domino's,Strathfield,187 The Boulevarde,STRATHFIELD,NSW,2135,Australia,"187 The Boulevarde, STRATHFIELD,NSW, 2135,Australia",-33.88751423,151.0909743
Domino's,Castle Hill,259B Old Northern Road,CASTLE HILL,NSW,2154,Australia,"259B Old Northern Road, CASTLE HILL,NSW, 2154,Australia",-33.73453444,151.0037851
Domino's,Windsor Nsw,2/31 Brabyn St,WINDSOR,NSW,2756,Australia,"2/31 Brabyn St, WINDSOR,NSW, 2756,Australia",-33.6140396,150.8125264
Domino's,Maroubra,Shop 2 924 Anzac Pde,MAROUBRA,NSW,2035,Australia,"Shop 2 924 Anzac Pde, MAROUBRA,NSW, 2035,Australia",-33.94277972,151.2403413
Domino's,Narellan,332 Camden Valley Way,NARELLAN,NSW,2567,Australia,"332 Camden Valley Way, NARELLAN,NSW, 2567,Australia",-34.04031549,150.7373372
Domino's,Hurlstone Park,2/720-722 New Canterbury Road,HURLSTONE PARK,NSW,2193,Australia,"2/720-722 New Canterbury Road, HURLSTONE PARK,NSW, 2193,Australia",-33.90507667,151.1284619
Domino's,Surry Hills,17 Randle St,SURRY HILLS,NSW,2010,Australia,"17 Randle St, SURRY HILLS,NSW, 2010,Australia",-33.88530585,151.2073102
Domino's,Carlingford,312B Pennant Hills Road,CARLINGFORD,NSW,2118,Australia,"312B Pennant Hills Road, CARLINGFORD,NSW, 2118,Australia",-33.7833724,151.0464023
Domino's,Rockdale,432 Princes Hwy,ROCKDALE,NSW,2216,Australia,"432 Princes Hwy, ROCKDALE,NSW, 2216,Australia",-33.94995815,151.1394263
Domino's,Emu Plains,Shop 3 140-142 Russell Street,EMU PLAINS,NSW,2750,Australia,"Shop 3 140-142 Russell Street, EMU PLAINS,NSW, 2750,Australia",-33.74419693,150.6553778
Domino's,Lansvale,Store Closed 16/06/2003,LANSVALE,NSW,2166,Australia,"Store Closed 16/06/2003, LANSVALE,NSW, 2166,Australia",-33.89043885,150.9672149
Domino's,West Ryde,1000 Victoria Road,WEST RYDE,NSW,2114,Australia,"1000 Victoria Road, WEST RYDE,NSW, 2114,Australia",-33.80771772,151.0871401
Domino's,Menai,Tenancy F2.01 Menai Central 5 Carter Road,MENAI,NSW,2234,Australia,"Tenancy F2.01 Menai Central 5 Carter Road, MENAI,NSW, 2234,Australia",-34.01696133,151.0114711
Domino's,Bondi,85 Bondi Road,BONDI,NSW,2026,Australia,"85 Bondi Road, BONDI,NSW, 2026,Australia",-33.89383213,151.2611753
Domino's,Marrickville,291 Marrickville Road,MARRICKVILLE,NSW,2204,Australia,"291 Marrickville Road, MARRICKVILLE,NSW, 2204,Australia",-33.90963445,151.1550564
Domino's,Edensor Park,Shop 4 207-215 Edensor Road,EDENSOR PARK,NSW,2176,Australia,"Shop 4 207-215 Edensor Road, EDENSOR PARK,NSW, 2176,Australia",-33.87611032,150.87685
Domino's,Riverwood,152 Belmore Rd,RIVERWOOD,NSW,2210,Australia,"152 Belmore Rd, RIVERWOOD,NSW, 2210,Australia",-33.95414554,151.0518245
Domino's,Merrylands,246 Merrylands Road,MERRYLANDS,NSW,2160,Australia,"246 Merrylands Road, MERRYLANDS,NSW, 2160,Australia",-33.83639007,150.987749
Domino's,Caringbah,369 Port Hacking Road,CARINGBAH,NSW,2229,Australia,"369 Port Hacking Road, CARINGBAH,NSW, 2229,Australia",-34.04426341,151.1230989
Domino's,Engadine,59 Station Street,ENGADINE,NSW,2233,Australia,"59 Station Street, ENGADINE,NSW, 2233,Australia",-34.06589907,151.0134551
Domino's,Bankstown,Shop 17 South Terrace Plaza 212 South Terrace,BANKSTOWN,NSW,2200,Australia,"Shop 17 South Terrace Plaza 212 South Terrace, BANKSTOWN,NSW, 2200,Australia",-33.91846562,151.0398901
Domino's,Rooty Hill,Unit 1 71 Rooty Hill Road North,ROOTY HILL,NSW,2766,Australia,"Unit 1 71 Rooty Hill Road North, ROOTY HILL,NSW, 2766,Australia",-33.76964657,150.8418525
Domino's,Auburn,117 Auburn Rd,AUBURN,NSW,2144,Australia,"117 Auburn Rd, AUBURN,NSW, 2144,Australia",-33.85400183,151.0319187
Domino's,North Strathfield,223 Concord Road,NORTH STRATHFIELD,NSW,2137,Australia,"223 Concord Road, NORTH STRATHFIELD,NSW, 2137,Australia",-33.85624487,151.0918988
Domino's,Redfern,1/154 Redfern St,REDFERN,NSW,2016,Australia,"1/154 Redfern St, REDFERN,NSW, 2016,Australia",-33.89226748,151.2018315
Domino's,Darlinghurst,Shop 3 106-110 Darlinghurst Road,DARLINGHURST,NSW,2010,Australia,"Shop 3 106-110 Darlinghurst Road, DARLINGHURST,NSW, 2010,Australia",-33.87634048,151.2216392
Domino's,Pymble,985 Pacific Highway,PYMBLE,NSW,2073,Australia,"985 Pacific Highway, PYMBLE,NSW, 2073,Australia",-33.74520205,151.1427231
Domino's,Guildford,Shop 2 291-293 Woodville Road,GUILDFORD,NSW,2161,Australia,"Shop 2 291-293 Woodville Road, GUILDFORD,NSW, 2161,Australia",-33.85035642,150.997056
Domino's,Chatswood,5 Railway Street,CHATSWOOD,NSW,2067,Australia,"5 Railway Street, CHATSWOOD,NSW, 2067,Australia",-33.7962742,151.1806245
Domino's,Springwood (Nsw),135 Macquarie Road,SPRINGWOOD,NSW,2777,Australia,"135 Macquarie Road, SPRINGWOOD,NSW, 2777,Australia",-33.69875323,150.5670626
Domino's,Kensington,Shop 3 230 Anzac Parade,KENSINGTON,NSW,2033,Australia,"Shop 3 230 Anzac Parade, KENSINGTON,NSW, 2033,Australia",-33.9115946,151.2236347
Domino's,Glebe,167 Glebe Point Road,GLEBE,NSW,2037,Australia,"167 Glebe Point Road, GLEBE,NSW, 2037,Australia",-33.88106377,151.1885816
Domino's,Rouse Hill,43 Panmure Street,ROUSE HILL,NSW,2155,Australia,"43 Panmure Street, ROUSE HILL,NSW, 2155,Australia",-33.68282271,150.9164227
Domino's,Dee Why,2/830 Pittwater Road,DEE WHY,NSW,2099,Australia,"2/830 Pittwater Road, DEE WHY,NSW, 2099,Australia",-33.7554905,151.2836154
Domino's,Forestville,Shop 20 The Centre Darley Street,FORESTVILLE,NSW,2087,Australia,"Shop 20 The Centre Darley Street, FORESTVILLE,NSW, 2087,Australia",-33.7614959,151.2142746
Domino's,North Richmond,Shop 4 Heritage Plaza 15-17 Bells Line Of Road,NORTH RICHMOND,NSW,2754,Australia,"Shop 4 Heritage Plaza 15-17 Bells Line Of Road, NORTH RICHMOND,NSW, 2754,Australia",-33.58230156,150.7214101
Domino's,Toongabbie,26 Aurelia Street,TOONGABBIE,NSW,2146,Australia,"26 Aurelia Street, TOONGABBIE,NSW, 2146,Australia",-33.78818952,150.9503948
Domino's,Crows Nest,297 Pacific Highway,NORTH SYDNEY,NSW,2060,Australia,"297 Pacific Highway, NORTH SYDNEY,NSW, 2060,Australia",-33.83281569,151.2047336
Domino's,Earlwood,259 Homer Street,EARLWOOD,NSW,2206,Australia,"259 Homer Street, EARLWOOD,NSW, 2206,Australia",-33.92657055,151.1286881
Domino's,Cambridge Park,Shop 3 128 Oxford Street,CAMBRIDGE PARK,NSW,2747,Australia,"Shop 3 128 Oxford Street, CAMBRIDGE PARK,NSW, 2747,Australia",-33.74780283,150.7208486
Domino's,Northmead,Retail Unit 3 38 Briens Road,NORTHMEAD,NSW,2152,Australia,"Retail Unit 3 38 Briens Road, NORTHMEAD,NSW, 2152,Australia",-33.79352024,150.9947904
Domino's,Mount Pritchard,Shop 4 169-179 Meadows Road,MOUNT PRITCHARD,NSW,2170,Australia,"Shop 4 169-179 Meadows Road, MOUNT PRITCHARD,NSW, 2170,Australia",-33.90376812,150.8954859
Domino's,Lighthouse Beach,Shop 10 Lighthouse Plaza 100 Ocean Dr,PORT MACQUARIE,NSW,2444,Australia,"Shop 10 Lighthouse Plaza 100 Ocean Dr, PORT MACQUARIE,NSW, 2444,Australia",-31.47731092,152.9143385
Domino's,Wetherill Park,Unit 13B Greenway Plaza 1183-1185 The Horsley Drive,WETHERILL PARK,NSW,2164,Australia,"Unit 13B Greenway Plaza 1183-1185 The Horsley Drive, WETHERILL PARK,NSW, 2164,Australia",-33.85006418,150.8978565
Domino's,Matraville,Shop 1 508 Bunnerong Road,MATRAVILLE,NSW,2036,Australia,"Shop 1 508 Bunnerong Road, MATRAVILLE,NSW, 2036,Australia",-33.95851562,151.2308841
Domino's,Plumpton,Shop 1 331 Rooty Hill Rd,PLUMPTON,NSW,2761,Australia,"Shop 1 331 Rooty Hill Rd, PLUMPTON,NSW, 2761,Australia",-33.74964563,150.8411166
Domino's,Gatton,35 North Street,GATTON,QLD,4343,Australia,"35 North Street, GATTON,QLD, 4343,Australia",-27.55650636,152.2761509
Domino's,Acacia Ridge,1422 Beaudesert Rd,ACACIA RIDGE,QLD,4110,Australia,"1422 Beaudesert Rd, ACACIA RIDGE,QLD, 4110,Australia",-27.58794759,153.0276274
Domino's,Gabba2 D2Go,Lvl 4 Sec 75 Brisbane Cricket Ground Vulture Street,WOOLLOONGABBA,QLD,4102,Australia,"Lvl 4 Sec 75 Brisbane Cricket Ground Vulture Street, WOOLLOONGABBA,QLD, 4102,Australia",-27.4846758,153.0361378
Domino's,Banyo,3/276 St Vincents Rd,BANYO,QLD,4014,Australia,"3/276 St Vincents Rd, BANYO,QLD, 4014,Australia",-27.37451018,153.0778069
Domino's,Redland Bay,Shop 12 & 13 Redland Bay Village 2-8 Stradbroke St,REDLAND BAY,QLD,4165,Australia,"Shop 12 & 13 Redland Bay Village 2-8 Stradbroke St, REDLAND BAY,QLD, 4165,Australia",-27.61284348,153.3026614
Domino's,Wolli Creek,Commercial Tenancy 5 Shop 1 1-5 Gertrude Street,WOLLI CREEK,NSW,2205,Australia,"Commercial Tenancy 5 Shop 1 1-5 Gertrude Street, WOLLI CREEK,NSW, 2205,Australia",-33.93299146,151.1534915
Domino's,North Caboolture,Central Lakes Shopping Centre Tenancy 2 1-21 Pettigrew Street,CABOOLTURE,QLD,4510,Australia,"Central Lakes Shopping Centre Tenancy 2 1-21 Pettigrew Street, CABOOLTURE,QLD, 4510,Australia",-27.07853348,152.964977
Domino's,Eatons Hill,1/640 South Pine Road,EATONS HILL,QLD,4037,Australia,"1/640 South Pine Road, EATONS HILL,QLD, 4037,Australia",-27.33769774,152.9622526
Domino's,Paddington Qld,1/232 Given Tce,PADDINGTON,QLD,4064,Australia,"1/232 Given Tce, PADDINGTON,QLD, 4064,Australia",-27.46167141,153.0049887
Domino's,Surfers Paradise,Tenancy 37 Circle On Cavill 3184 Surfers Paradise Boulevard,SURFERS PARADISE,QLD,4217,Australia,"Tenancy 37 Circle On Cavill 3184 Surfers Paradise Boulevard, SURFERS PARADISE,QLD, 4217,Australia",-28.0012701,153.4283078
Domino's,Pacific Pines,Shop 3 Pines Point 25 Pitcairn Way,PACIFIC PINES,QLD,4211,Australia,"Shop 3 Pines Point 25 Pitcairn Way, PACIFIC PINES,QLD, 4211,Australia",-27.94614726,153.3224196
Domino's,Amf Mount Gravatt,533 Kessels Road,MACGREGOR,QLD,4109,Australia,"533 Kessels Road, MACGREGOR,QLD, 4109,Australia",-27.56167187,153.0712318
Domino's,Hamilton Qld,T09 Ground Floor Hamilton Harbour 485 Kingsford Smith Drive,HAMILTON,QLD,4007,Australia,"T09 Ground Floor Hamilton Harbour 485 Kingsford Smith Drive, HAMILTON,QLD, 4007,Australia",-27.43953459,153.0631141
Domino's,Park Ridge,Shop 1 Park Ridge Shopping Centre 3714-3720 Mt Lindsay Highway,PARK RIDGE,QLD,4125,Australia,"Shop 1 Park Ridge Shopping Centre 3714-3720 Mt Lindsay Highway, PARK RIDGE,QLD, 4125,Australia",-27.69243078,153.0342193
Domino's,Jimboomba,Shop 6 133-145 Brisbane Street,JIMBOOMBA,QLD,4280,Australia,"Shop 6 133-145 Brisbane Street, JIMBOOMBA,QLD, 4280,Australia",-27.83348886,153.0271954
Domino's,Moorooka,Shop 4 131 Beaudesert Road,MOOROOKA,QLD,4105,Australia,"Shop 4 131 Beaudesert Road, MOOROOKA,QLD, 4105,Australia",-27.53167455,153.0236971
Domino's,Manly West,Shop 17 Mayfair On Manly 11 Burnett Street,MANLY WEST,QLD,4179,Australia,"Shop 17 Mayfair On Manly 11 Burnett Street , MANLY WEST,QLD, 4179,Australia",-27.47481754,153.1558861
Domino's,Albert Street,105 Albert Street,BRISBANE,QLD,4000,Australia,"105 Albert Street, BRISBANE,QLD, 4000,Australia",-27.47140548,153.0272404
Domino's,Runaway Bay,Tenancy B 388 Oxley Drive,RUNAWAY BAY,QLD,4216,Australia,"Tenancy B 388 Oxley Drive, RUNAWAY BAY,QLD, 4216,Australia",-27.91220684,153.3883036
Domino's,Clontarf,24 Hornibrook Esplanade,CLONTARF,QLD,4019,Australia,"24 Hornibrook Esplanade, CLONTARF,QLD, 4019,Australia",-27.26010089,153.0810487
Domino's,Coolangatta Qld,Shop 18 129 Griffith St,COOLANGATTA,QLD,4225,Australia,"Shop 18 129 Griffith St, COOLANGATTA,QLD, 4225,Australia",-28.16832326,153.5421659
Domino's,St Lucia,Shop 5 191 Sir Fred Schonell Drive,ST LUCIA,QLD,4067,Australia,"Shop 5 191 Sir Fred Schonell Drive, ST LUCIA,QLD, 4067,Australia",-27.49457545,153.0030582
Domino's,Broadbeach,Shop 5 88 Surf Parade,BROADBEACH,QLD,4218,Australia,"Shop 5 88 Surf Parade, BROADBEACH,QLD, 4218,Australia",-28.0290991,153.430904
Domino's,Warner,Shop 34 Warner Marketplace 355 Samsonvale Road,WARNER,QLD,4500,Australia,"Shop 34 Warner Marketplace 355 Samsonvale Road, WARNER,QLD, 4500,Australia",-27.29218074,152.9535077
Domino's,Samford,Shop 17 19 Main Street,SAMFORD,QLD,4520,Australia,"Shop 17 19 Main Street, SAMFORD,QLD, 4520,Australia",-27.37191648,152.886079
Domino's,Redbank Plains,357 - 381 Redbank Plains Rd Shop 34 Town Square Redbank Plains,REDBANK PLAINS,QLD,4301,Australia,"357 - 381 Redbank Plains Rd Shop 34 Town Square Redbank Plains, REDBANK PLAINS,QLD, 4301,Australia",-27.64526118,152.8717685
Domino's,Northpoint,Shop 16 Northpoint Shopping Centre 121-129 Ruthven Street,HARLAXTON,QLD,4350,Australia,"Shop 16 Northpoint Shopping Centre 121-129 Ruthven Street, HARLAXTON,QLD, 4350,Australia",-27.54073975,151.9532689
Domino's,Woodford,Shop 2 92 Archer Street,WOODFORD,QLD,4514,Australia,"Shop 2 92 Archer Street, WOODFORD,QLD, 4514,Australia",-26.95400631,152.7765648
Domino's,Fortitude Valley,Brunswick St Mall,FORTITUDE VALLEY,QLD,4006,Australia,"Brunswick St Mall, FORTITUDE VALLEY,QLD, 4006,Australia",-27.4578938,153.0344274
Domino's,Daisy Hill,Shop 15 4-14 Allamanda Drive,DAISY HILL,QLD,4127,Australia,"Shop 15 4-14 Allamanda Drive , DAISY HILL,QLD, 4127,Australia",-27.64401464,153.1539457
Domino's,Wishart,9 Shillington Place,WISHART,QLD,4122,Australia,"9 Shillington Place, WISHART,QLD, 4122,Australia",-27.54896449,153.1069736
Domino's,Crestwood Plaza,Shop 1B Crestwood Plaza 458 Olsen Ave,MOLENDINAR,QLD,4214,Australia,"Shop 1B Crestwood Plaza 458 Olsen Ave, MOLENDINAR,QLD, 4214,Australia",-27.96972446,153.3757692
Domino's,Windsor Qld,T301 Windsor Home Zone 142 Newmarket Road,WINDSOR,QLD,4030,Australia,"T301 Windsor Home Zone 142 Newmarket Road, WINDSOR,QLD, 4030,Australia",-27.43804458,153.023712
Domino's,Murrumba Downs,Shop T24 Murrumba Downs Shopping Centre 2 Goodrich Rd West,MURRUMBA DOWNS,QLD,4503,Australia,"Shop T24 Murrumba Downs Shopping Centre 2 Goodrich Rd West, MURRUMBA DOWNS,QLD, 4503,Australia",-27.27238658,153.0166404
Domino's,Ferny Grove,Shop 19 Ferny Grove Shopping Village 45-51 Mcginn Road,FERNY GROVE,QLD,4055,Australia,"Shop 19 Ferny Grove Shopping Village 45-51 Mcginn Road, FERNY GROVE,QLD, 4055,Australia",-27.40497487,152.9310677
Domino's,Karama,Shop R28 Karama Shopping Centre Kalymnos Dr,KARAMA,NT,812,Australia,"Shop R28 Karama Shopping Centre Kalymnos Dr, KARAMA,NT, 0812,Australia",-12.4012677,130.9159534
Domino's,Atherton,Shop 1D 1 Robert Street,ATHERTON,QLD,4883,Australia,"Shop 1D 1 Robert Street, ATHERTON,QLD, 4883,Australia",-17.26964201,145.4827431
Domino's,Ingham,1/102 Herbert Street,INGHAM,QLD,4850,Australia,"1/102 Herbert Street, INGHAM,QLD, 4850,Australia",-18.64703115,146.1616598
Domino's,Bowen Old #,41 Herbert St,BOWEN,QLD,4805,Australia,"41 Herbert St, BOWEN,QLD, 4805,Australia",-20.01400426,148.2470421
Domino's,Rural View,Shop 5 Nindaroo Shopping Centre 3 Rosewood Dr,RURAL VIEW,QLD,4740,Australia,"Shop 5 Nindaroo Shopping Centre 3 Rosewood Dr, RURAL VIEW,QLD, 4740,Australia",-21.06609015,149.157811
Domino's,Spring Farm,7/254 Richardson Road (Woolworths Shopping Centre),SPRING FARM,NSW,2570,Australia,"7/254 Richardson Road (Woolworths Shopping Centre), SPRING FARM,NSW, 2570,Australia",-34.06953174,150.7288326
Domino's,Kirkwood,3&4 Kirkwood Road,NEW AUCKLAND,QLD,4680,Australia,"3&4 Kirkwood Road, NEW AUCKLAND,QLD, 4680,Australia",-23.8884737,151.2349174
Domino's,North Shore,Shop 001A Stockland North Shore 20-38 Main St,BURDELL,QLD,4818,Australia,"Shop 001A Stockland North Shore 20-38 Main St, BURDELL,QLD, 4818,Australia",-19.25377818,146.6999852
Domino's,Ayr,Tenancy 5 Burdekin Plaza Shopping Centre 118 Edwards Street,AYR,QLD,4807,Australia,"Tenancy 5 Burdekin Plaza Shopping Centre 118 Edwards Street, AYR,QLD, 4807,Australia",-19.57216724,147.4042601
Domino's,Kingaroy,Tenancy 5 18 Avoca Street,KINGAROY,QLD,4610,Australia,"Tenancy 5 18 Avoca Street, KINGAROY,QLD, 4610,Australia",-26.54467691,151.8398973
Domino's,Edmonton,Shop 5 & 6 Sugarworld Shopping Centre 7-11 Walker Rd,EDMONTON,QLD,4869,Australia,"Shop 5 & 6 Sugarworld Shopping Centre 7-11 Walker Rd, EDMONTON,QLD, 4869,Australia",-17.0204663,145.7278782
Domino's,Biloela,Room 3A 5 Gladstone Road,BILOELA,QLD,4715,Australia,"Room 3A 5 Gladstone Road, BILOELA,QLD, 4715,Australia",-24.39886729,150.5168334
Domino's,Hermit Park,226 Charters Towers Road (Cnr Fraire Street),HERMIT PARK,QLD,4812,Australia,"226 Charters Towers Road (Cnr Fraire Street), HERMIT PARK,QLD, 4812,Australia",-19.28556986,146.7975686
Domino's,North Mackay,6/25-29 Evans Ave,NORTH MACKAY,QLD,4740,Australia,"6/25-29 Evans Ave, NORTH MACKAY,QLD, 4740,Australia",-21.12636035,149.187856
Domino's,South Mackay,Shop 10 Gas Works Shopping Centre Shakespeare Street,MACKAY,QLD,4740,Australia,"Shop 10 Gas Works Shopping Centre Shakespeare Street, MACKAY,QLD, 4740,Australia",-21.14815296,149.1882378
Domino's,Moranbah,Tenancy 3 30 Bacon Street,MORANBAH,QLD,4744,Australia,"Tenancy 3 30 Bacon Street, MORANBAH,QLD, 4744,Australia",-22.00081514,148.0407204
Domino's,Aitkenvale,Shop 3 Banyans On Nathan 186 Nathan Street,AITKENVALE,QLD,4814,Australia,"Shop 3 Banyans On Nathan 186 Nathan Street, AITKENVALE,QLD, 4814,Australia",-19.30128261,146.7620208
Domino's,Manunda,1 Jensen Street,MANOORA,QLD,4870,Australia,"1 Jensen Street, MANOORA,QLD, 4870,Australia",-16.91416772,145.7406584
Domino's,North Rockhampton,29 Bridge St,NORTH ROCKHAMPTON,QLD,4701,Australia,"29 Bridge St, NORTH ROCKHAMPTON,QLD, 4701,Australia",-23.37165147,150.5184216
Domino's,Gladstone,45/55 Dawson Highway,WEST GLADSTONE,QLD,4680,Australia,"45/55 Dawson Highway, WEST GLADSTONE,QLD, 4680,Australia",-23.86771249,151.2395741
Domino's,Palmerston Northern Territory (0830),130 University Avenue,PALMERSTON,NT,830,Australia,"130 University Avenue, PALMERSTON,NT, 0830,Australia",-12.480159,130.970379
Domino's,Innisfail,2&3/1 Clare St,INNISFAIL,QLD,4860,Australia,"2&3/1 Clare St, INNISFAIL,QLD, 4860,Australia",-17.52767207,146.0284773
Domino's,Casuarina,Shop 1 283 Trower Road,CASUARINA,NT,810,Australia,"Shop 1 283 Trower Road, CASUARINA,NT, 0810,Australia",-12.37207302,130.883615
Domino's,Darwin City,130 Smith Street,DARWIN,NT,800,Australia,"130 Smith Street, DARWIN,NT, 800,Australia",-12.4568918,130.8357788
Domino's,Hervey Bay,160 Boat Harbour Drive,HERVEY BAY,QLD,4655,Australia,"160 Boat Harbour Drive, HERVEY BAY,QLD, 4655,Australia",-25.28731692,152.8359845
Domino's,Redlynch,Shop 9 Redlynch Central Shopping Centre 20 Larsen Road,REDLYNCH,QLD,4870,Australia,"Shop 9 Redlynch Central Shopping Centre 20 Larsen Road, REDLYNCH,QLD, 4870,Australia",-16.89361131,145.6991915
Domino's,Gympie,3/15 Wickham St,GYMPIE,QLD,4570,Australia,"3/15 Wickham St, GYMPIE,QLD, 4570,Australia",-26.19142822,152.6575604
Domino's,Maryborough,3/88 Ferry Street,MARYBOROUGH,QLD,4650,Australia,"3/88 Ferry Street, MARYBOROUGH,QLD, 4650,Australia",-25.53721213,152.6935237
Domino's,Bundaberg,268C Bourbong St,BUNDABERG,QLD,4670,Australia,"268C Bourbong St, BUNDABERG,QLD, 4670,Australia",-24.86935935,152.3381942
Domino's,Smithfield Qld,Campus Shopping Village Faculty Close,SMITHFIELD,QLD,4878,Australia,"Campus Shopping Village Faculty Close, SMITHFIELD,QLD, 4878,Australia",-16.8203269,145.6947196
Domino's,Airlie Beach,Shop 1B 400 Shute Harbour Road,AIRLIE BEACH,QLD,4802,Australia,"Shop 1B 400 Shute Harbour Road, AIRLIE BEACH,QLD, 4802,Australia",-20.27004584,148.7205902
Domino's,Cairns City,Shop 10 Civic Shopping Centre 113-117 Sheridan Street,CAIRNS,QLD,4870,Australia,"Shop 10 Civic Shopping Centre 113-117 Sheridan Street, CAIRNS,QLD, 4870,Australia",-16.92033739,145.7699158
Domino's,Kirwan,Shop 5A 2-12 Hervey Range Road,THURINGOWA CENTRAL,QLD,4817,Australia,"Shop 5A 2-12 Hervey Range Road, THURINGOWA CENTRAL,QLD, 4817,Australia",-19.31818669,146.7276208
Domino's,Glenmore Qld,Shop 1 Glenmore Shopping Village 301-303 Farm Street,GLENMORE,QLD,4701,Australia,"Shop 1 Glenmore Shopping Village 301-303 Farm Street, GLENMORE,QLD, 4701,Australia",-23.33407917,150.5196084
Domino's,Millner,Shop 2 Millner Village Plaza 348 Bagot Road,MILLNER,NT,810,Australia,"Shop 2 Millner Village Plaza 348 Bagot Road, MILLNER,NT, 0810,Australia",-12.39279644,130.8569425
Domino's,Mount Isa,3/12 Miles Street,MOUNT ISA,QLD,4825,Australia,"3/12 Miles Street, MOUNT ISA,QLD, 4825,Australia",-20.72720595,139.4919315
Domino's,Yeppoon,Shop 5 26 James Street,YEPPOON,QLD,4703,Australia,"Shop 5 26 James Street, YEPPOON,QLD, 4703,Australia",-23.12907194,150.7448977
Domino's,Emerald,Shop 3 71 Clermont Street,EMERALD,QLD,4720,Australia,"Shop 3 71 Clermont Street, EMERALD,QLD, 4720,Australia",-23.52621779,148.1594293
Domino's,Coolalinga Nt,Shop 5 Coolalinga Shopping Centre Stuart Highway,COOLALINGA,NT,839,Australia,"Shop 5 Coolalinga Shopping Centre Stuart Highway, COOLALINGA,NT, 0839,Australia",-12.52485,131.04251
Domino's,Chermside,Tenancy 3 392 Hamilton Road,CHERMSIDE,QLD,4032,Australia,"Tenancy 3 392 Hamilton Road, CHERMSIDE,QLD, 4032,Australia",-27.38640896,153.0317372
Domino's,North Ward,Shop 15 North Ward Shopping Village Cnr Eyre & Gregory Streets,NORTH WARD,QLD,4810,Australia,"Shop 15 North Ward Shopping Village Cnr Eyre & Gregory Streets, NORTH WARD,QLD, 4810,Australia",-19.25154939,146.8130321
Domino's,Revesby South,17A Selems Parade,REVESBY,NSW,2212,Australia,"17A Selems Parade, REVESBY,NSW, 2212,Australia",-33.95121234,151.0145638
Domino's,Alice Springs,Unit 2 1 Parsons Street,ALICE SPRINGS,NT,870,Australia,"Unit 2 1 Parsons Street, ALICE SPRINGS,NT, 0870,Australia",-23.69720153,133.8797049
Domino's,Bargara,Shop 17 Bargara Central Shopping Village 699 Bargara Rd,BARGARA,QLD,4670,Australia,"Shop 17 Bargara Central Shopping Village 699 Bargara Rd, BARGARA,QLD, 4670,Australia",-24.81854763,152.4554203
Domino's,Earlville,Shop 6 508 Mulgrave Road,EARLVILLE,QLD,4870,Australia,"Shop 6 508 Mulgrave Road, EARLVILLE,QLD, 4870,Australia",-16.94309057,145.7382084
Domino's,Sarina,Shop 3 24 Broad Street,SARINA,QLD,4737,Australia,"Shop 3 24 Broad Street, SARINA,QLD, 4737,Australia",-21.42381968,149.2181963
Domino's,Dalby,Suite 1 59 Condamine Street,DALBY,QLD,4405,Australia,"Suite 1 59 Condamine Street, DALBY,QLD, 4405,Australia",-27.18117823,151.2631403
Domino's,Goondiwindi,130 Marshall Street,GOONDIWINDI,QLD,4390,Australia,"130 Marshall Street , GOONDIWINDI,QLD, 4390,Australia",-28.54775123,150.3095352
Domino's,Pacific Paradise,North Shore Village 722-728 David Low Way (Cnr Menzies Drive),PACIFIC PARADISE,QLD,4564,Australia,"North Shore Village 722-728 David Low Way (Cnr Menzies Drive), PACIFIC PARADISE,QLD, 4564,Australia",-26.6104704,153.0811142
Domino's,Port Douglas,Store Closed 15/12/14 Cannot Use This Number,PORT DOUGLAS,QLD,,Australia,"Store Closed 15/12/14 Cannot Use This Number, PORT DOUGLAS,QLD,,Australia",-16.4839785,145.4658327
Domino's,Chinchilla,Shop 2 37 Warrego Highway,CHINCHILLA,QLD,4413,Australia,"Shop 2 37 Warrego Highway, CHINCHILLA,QLD, 4413,Australia",-26.74439,150.6367566
Domino's,Bellbowrie,21C/37 Birkin Road,BELLBOWRIE,QLD,4070,Australia,"21C/37 Birkin Road, BELLBOWRIE,QLD, 4070,Australia",-27.56314365,152.8886433
Domino's,Yeppoon,Shop 5 26 James Street,YEPPOON,QLD,4703,Australia,"Shop 5 26 James Street, YEPPOON,QLD, 4703,Australia",-23.12907194,150.7448977
Domino's,Highfields,Shop 24A Highfields Village Lauder Dr,HIGHFIELDS,QLD,4352,Australia,"Shop 24A Highfields Village Lauder Dr, HIGHFIELDS,QLD, 4352,Australia",-27.4411241,151.9571535
Domino's,Bushland Beach,6/267-289 Mt Low Parkway (Cnr Lionel Turner Dr),BUSHLAND BEACH,QLD,4818,Australia,"6/267-289 Mt Low Parkway (Cnr Lionel Turner Dr), BUSHLAND BEACH,QLD, 4818,Australia",-19.19389031,146.6757068
Domino's,Launceston,76B Wellington Street,LAUNCESTON,TAS,7250,Australia,"76B Wellington Street, LAUNCESTON,TAS, 7250,Australia",-41.4421042,147.1378056
Domino's,Kings Meadows,Shop 1B 89-93 Hobart Road,KINGS MEADOWS,TAS,7249,Australia,"Shop 1B 89-93 Hobart Road, KINGS MEADOWS,TAS, 7249,Australia",-41.4639668,147.1586056
Domino's,Devonport,139 William Street (Cnr Best Street),DEVONPORT,TAS,7310,Australia,"139 William Street (Cnr Best Street), DEVONPORT,TAS, 7310,Australia",-41.17685049,146.3506398
Domino's,Burnie,133 Wilson Street,BURNIE,TAS,7320,Australia,"133 Wilson Street, BURNIE,TAS, 7320,Australia",-41.0551992,145.9058483
Domino's,Mowbray,377 Invermay Road,MOWBRAY,TAS,7248,Australia,"377 Invermay Road, MOWBRAY,TAS, 7248,Australia",-41.40608067,147.1325544
Domino's,Ulverstone,27 Alexandra Road,ULVERSTONE,TAS,7315,Australia,"27 Alexandra Road, ULVERSTONE,TAS, 7315,Australia",-41.15725771,146.1767391
Domino's,Hobart,147 Macquarie Street,HOBART,TAS,7000,Australia,"147 Macquarie Street, HOBART,TAS, 7000,Australia",-42.88450204,147.3273828
Domino's,Glenorchy,357A Main Road,GLENORCHY,TAS,7010,Australia,"357A Main Road, GLENORCHY,TAS, 7010,Australia",-42.83317763,147.2777733
Domino's,Rosny,Lg2 18 Ross Ave,ROSNY PARK,TAS,7018,Australia,"Lg2 18 Ross Ave, ROSNY PARK,TAS, 7018,Australia",-42.86539365,147.370741
Domino's,Ropes Crossing,Shop 15 Ropes Crossing Village 8 Central Place,ROPES CROSSING,NSW,2760,Australia,"Shop 15 Ropes Crossing Village 8 Central Place, ROPES CROSSING,NSW, 2760,Australia",-33.73263208,150.7813866
Domino's,Kingston,Shop 23 7-23 Westside Circuit,KINGSTON,TAS,7050,Australia,"Shop 23 7-23 Westside Circuit , KINGSTON,TAS, 7050,Australia",-42.97657444,147.302227
Domino's,Sorell,32-34 Cole Street,SORELL,TAS,7172,Australia,"32-34 Cole Street, SORELL,TAS, 7172,Australia",-42.78174188,147.5631383
Domino's,Bridgewater,Shop 2B/1 Hurst Street,BRIDGEWATER,TAS,7030,Australia,"Shop 2B/1 Hurst Street, BRIDGEWATER,TAS, 7030,Australia",-42.73471714,147.2449977
Domino's,Roxburgh Park,15 Fouz Street (Roxburgh Park Market Place),ROXBURGH PARK,VIC,3064,Australia,"15 Fouz Street (Roxburgh Park Market Place), ROXBURGH PARK,VIC, 3064,Australia",-37.62106763,144.9287463
Domino's,Calwell,1/5 Webber Crescent,CALWELL,ACT,2905,Australia,"1/5 Webber Crescent, CALWELL,ACT, 2905,Australia",-35.43393463,149.1137526
Domino's,Church Street Parramatta,269 Church St,PARRAMATTA,NSW,2150,Australia,"269 Church St, PARRAMATTA,NSW, 2150,Australia",-33.81259607,151.0034313
Domino's,Schofields,111 Railway Terrace,SCHOFIELDS,NSW,2762,Australia,"111 Railway Terrace, SCHOFIELDS,NSW, 2762,Australia",-33.69672468,150.8707166
Domino's,Pyrmont,212-214 Harris Street,PYRMONT,NSW,2009,Australia,"212-214 Harris Street , PYRMONT,NSW, 2009,Australia",-33.87106517,151.1949862
Domino's,New Lambton,79/81 Regent St,NEW LAMBTON,NSW,2305,Australia,"79/81 Regent St, NEW LAMBTON,NSW, 2305,Australia",-32.92340589,151.7135307
Domino's,Ripley,332 Ripley Road,RIPLEY,QLD,4303,Australia,"332 Ripley Road, RIPLEY,QLD, 4303,Australia",-27.65716497,152.7788824
Domino's,Enmore,83 Enmore Road,NEWTOWN,NSW,2042,Australia,"83 Enmore Road, NEWTOWN,NSW, 2042,Australia",-33.8984817,151.1747418
Domino's,Drysdale,26-28 High Street,DRYSDALE,VIC,3222,Australia,"26-28 High Street, DRYSDALE,VIC, 3222,Australia",-38.17398854,144.5692708
Domino's,Hope Island,99-103 Broadwater Ave (Shop Ff04 Hope Island Market Place),HOPE ISLAND,QLD,4212,Australia,"99-103 Broadwater Ave (Shop Ff04 Hope Island Market Place), HOPE ISLAND,QLD, 4212,Australia",-27.87763555,153.3639748
Domino's,Kerang,65-67 Wellington Street,KERANG,VIC,3579,Australia,"65-67 Wellington Street, KERANG,VIC, 3579,Australia",-35.73484349,143.9192159
Domino's,Googong,4/189 Gorman Drive,GOOGONG,NSW,2620,Australia,"4/189 Gorman Drive, GOOGONG,NSW, 2620,Australia",-35.42226149,149.2362378
Domino's,Lakes Entrance (Pinkys),21B Myer Street,LAKES ENTRANCE,VIC,3909,Australia,"21B Myer Street, LAKES ENTRANCE,VIC, 3909,Australia",-37.87838065,147.9936137
Domino's,Flagstone,Shop 7 Cnr Homestead Dr And Hollows St,FLAGSTONE,QLD,4280,Australia,"Shop 7 Cnr Homestead Dr And Hollows St, FLAGSTONE,QLD, 4280,Australia",-27.81661831,152.9706509
Domino's,Chapel Hill,3/ 620 Moggill Road,CHAPEL HILL,QLD,4069,Australia,"3/ 620 Moggill Road, CHAPEL HILL,QLD, 4069,Australia",-27.50576248,152.9607035
Domino's,St Arnaud,103-105 Napier Street,SAINT ARNAUD,VIC,3478,Australia,"103-105 Napier Street, SAINT ARNAUD,VIC, 3478,Australia",-36.61350407,143.2554761
Domino's,Swan Hill,298 Campbell Street,SWAN HILL,VIC,3585,Australia,"298 Campbell Street, SWAN HILL,VIC, 3585,Australia",-35.34243212,143.5602539
Domino's,Beachmere,Shop 3. 874 Beachmere Road,BEACHMERE,QLD,4510,Australia,"Shop 3. 874 Beachmere Road, BEACHMERE,QLD, 4510,Australia",-27.12866326,153.0519618
Domino's,Officer,1/445 Princes Hwy,OFFICER,VIC,3809,Australia,"1/445 Princes Hwy, OFFICER,VIC, 3809,Australia",-38.0602374,145.4117437
Domino's,Cherrybrook Nsw,6/132 Shephard Drive,CHERRYBROOK,NSW,2126,Australia,"6/132 Shephard Drive, CHERRYBROOK,NSW, 2126,Australia",-33.71423008,151.050872
Domino's,Camp Hill,16/37-39 Thomas St ( Cnr Samuel Street And Thomas St),CAMP HILL,QLD,4152,Australia,"16/37-39 Thomas St ( Cnr Samuel Street And Thomas St), CAMP HILL,QLD, 4152,Australia",-27.50057249,153.0777248
Domino's,Punchbowl,31/1 Broadway (Broadway Plaza),PUNCHBOWL,NSW,2196,Australia,"31/1 Broadway (Broadway Plaza), PUNCHBOWL,NSW, 2196,Australia",-33.9256914,151.0582559
Domino's,Ballarat (Pinkys),807 Sturt Street,BALLARAT,VIC,3350,Australia,"807 Sturt Street, BALLARAT,VIC, 3350,Australia",-37.5612107,143.848486
Domino's,Bendigo (Pinkys),5 Somerville Street,BENDIGO,VIC,3550,Australia,"5 Somerville Street, BENDIGO,VIC, 3550,Australia",-36.77010211,144.2919816
Domino's,Mcg1 D2Go,Store Perm Closed 08/03/2012,RICHMOND,VIC,3002,Australia,"Store Perm Closed 08/03/2012, RICHMOND,VIC, 3002,Australia",-37.811291,144.985916
Domino's,Mcg2 D2Go,Brunton Avenue,RICHMOND,VIC,3002,Australia,"Brunton Avenue, RICHMOND,VIC, 3002,Australia",-37.82317017,144.9890931
Domino's,Mcg3 D2Go,Store Perm Closed 08/03/2012,RICHMOND,VIC,3002,Australia,"Store Perm Closed 08/03/2012, RICHMOND,VIC, 3002,Australia",-37.811291,144.985916
Domino's,Mcg4 D2Go,Store Perm Closed 08/03/2012,RICHMOND,VIC,3121,Australia,"Store Perm Closed 08/03/2012, RICHMOND,VIC, 3121,Australia",-37.8096617,144.9923376
Domino's,Derrimut,Shop 3 Derrimut Village Shopping Centre 20 Mount Derrimut Road,DERRIMUT,VIC,3030,Australia,"Shop 3 Derrimut Village Shopping Centre 20 Mount Derrimut Road, DERRIMUT,VIC, 3030,Australia",-37.78407896,144.7724503
Domino's,Esdi1 D2Go,Etihad Stadium 740 Bourke Street,DOCKLANDS,VIC,3008,Australia,"Etihad Stadium 740 Bourke Street, DOCKLANDS,VIC, 3008,Australia",-37.8182487,144.9485148
Domino's,Esdi2 D2Go,Etihad Stadium 740 Bourke Street,DOCKLANDS,VIC,3008,Australia,"Etihad Stadium 740 Bourke Street, DOCKLANDS,VIC, 3008,Australia",-37.8182487,144.9485148
Domino's,Green Hills,2/24 Garnett Rd,EAST MAITLAND,NSW,2323,Australia,"2/24 Garnett Rd, EAST MAITLAND,NSW, 2323,Australia",-32.76155662,151.5875386
Domino's,Gaythorne,1/399 Samford Rd,GAYTHORNE,QLD,4051,Australia,"1/399 Samford Rd, GAYTHORNE,QLD, 4051,Australia",-27.41696565,152.9821003
Domino's,Esdi 5 D2Go,Etihad Stadiuim 740 Bourke Street,DOCKLANDS,VIC,3008,Australia,"Etihad Stadiuim 740 Bourke Street, DOCKLANDS,VIC, 3008,Australia",-37.8182487,144.9485148
Domino's,Esdi6 D2Go,Etihad Stadium 740 Bourke Street,DOCKLANDS,VIC,3008,Australia,"Etihad Stadium 740 Bourke Street, DOCKLANDS,VIC, 3008,Australia",-37.8182487,144.9485148
Domino's,Andergrove,6 Oak Street Shop 5&6 Andergrove Central Square,ANDERGROVE,QLD,4740,Australia,"6 Oak Street Shop 5&6 Andergrove Central Square, ANDERGROVE,QLD, 4740,Australia",-21.09713823,149.1888993
Domino's,Toowong,T5 48 Sherwood Rd,TOOWONG,QLD,4066,Australia,"T5 48 Sherwood Rd, TOOWONG,QLD, 4066,Australia",-27.48577324,152.9908187
Domino's,Warana,3/3 Kawana Island Boulevard,WARANA,QLD,4575,Australia,"3/3 Kawana Island Boulevard, WARANA,QLD, 4575,Australia",-26.71932593,153.1288787
Domino's,Carseldine Qld,735 Beams Rd,CARSELDINE,QLD,4034,Australia,"735 Beams Rd, CARSELDINE,QLD, 4034,Australia",-27.34502004,153.0110684
Domino's,Esdi11 D2Go,Etihad Stadium 740 Bourke Street,DOCKLANDS,VIC,3008,Australia,"Etihad Stadium 740 Bourke Street, DOCKLANDS,VIC, 3008,Australia",-37.8182487,144.9485148
Domino's,Shellharbour Village,6/32 Addison Street,SHELLHARBOUR,NSW,2529,Australia,"6/32 Addison Street, SHELLHARBOUR,NSW, 2529,Australia",-34.57930648,150.8661263
Domino's,Newcomb,Shop 2 71 Bellarine Hwy,NEWCOMB,VIC,3219,Australia,"Shop 2 71 Bellarine Hwy, NEWCOMB,VIC, 3219,Australia",-38.17062396,144.3925086
Domino's,Port Melbourne,253 Bay Street,PORT MELBOURNE,VIC,3207,Australia,"253 Bay Street, PORT MELBOURNE,VIC, 3207,Australia",-37.837735,144.942798
Domino's,Pakenham,Shop 2 Tenancy B 206 Princes Highway,PAKENHAM,VIC,3810,Australia,"Shop 2 Tenancy B 206 Princes Highway, PAKENHAM,VIC, 3810,Australia",-38.06539927,145.4667052
Domino's,Skilled D2Go,Store Perm Closed 08/03/2012,GEELONG,VIC,3220,Australia,"Store Perm Closed 08/03/2012, GEELONG,VIC, 3220,Australia",-38.1480041,144.3593453
Domino's,Ashburton (Vic),287A High Street,ASHBURTON,VIC,3147,Australia,"287A High Street, ASHBURTON,VIC, 3147,Australia",-37.86344398,145.081429
Domino's,Ferntree Gully,Shop 7A 1009 Burwood Hwy,FERNTREE GULLY,VIC,3156,Australia,"Shop 7A 1009 Burwood Hwy, FERNTREE GULLY,VIC, 3156,Australia",-37.88858265,145.2890641
Domino's,Echuca,249 Ogilvie Ave,ECHUCA,VIC,3564,Australia,"249 Ogilvie Ave, ECHUCA,VIC, 3564,Australia",-36.14071699,144.7481266
Domino's,Mount Louisa,4/450 Bayswater Road,MOUNT LOUISA,QLD,4814,Australia,"4/450 Bayswater Road, MOUNT LOUISA,QLD, 4814,Australia",-19.27266881,146.7516994
Domino's,Berwick,256-258 Clyde Road,BERWICK,VIC,3806,Australia,"256-258 Clyde Road, BERWICK,VIC, 3806,Australia",-38.05826061,145.3382847
Domino's,Maryborough Vic,Shop 1A & 1B 92-96 Burke Street,MARYBOROUGH,VIC,3465,Australia,"Shop 1A & 1B 92-96 Burke Street, MARYBOROUGH,VIC, 3465,Australia",-37.04869902,143.7418533
Domino's,Yarrawonga,Shop 7&8 Yarrawonga Shopping Centre Cnr Belmore & Mcnally Street,YARRAWONGA,VIC,3730,Australia,"Shop 7&8 Yarrawonga Shopping Centre Cnr Belmore & Mcnally Street, YARRAWONGA,VIC, 3730,Australia",-36.01502671,146.0043394
Domino's,Rosebud,901 Point Nepean Road,ROSEBUD,VIC,3939,Australia,"901 Point Nepean Road, ROSEBUD,VIC, 3939,Australia",-38.35463901,144.909916
Domino's,Marriott Waters,Tenancy B Marriott Waters Sc 945 Thompsons Rd,LYNDHURST,VIC,3975,Australia,"Tenancy B Marriott Waters Sc 945 Thompsons Rd, LYNDHURST,VIC, 3975,Australia",-38.07755131,145.2464278
Domino's,Beaconsfield,Shop 4 2 Beaconsfield-Emerald Rd,BEACONSFIELD,VIC,3807,Australia,"Shop 4 2 Beaconsfield-Emerald Rd, BEACONSFIELD,VIC, 3807,Australia",-38.04357154,145.3672641
Domino's,Hastings Vic,95 High Street,HASTINGS,VIC,3915,Australia,"95 High Street, HASTINGS,VIC, 3915,Australia",-38.30795244,145.1894203
Domino's,Mordialloc,Shop 4 Mordialloc Plaza 600 Main Street,MORDIALLOC,VIC,3195,Australia,"Shop 4 Mordialloc Plaza 600 Main Street, MORDIALLOC,VIC, 3195,Australia",-38.00780508,145.0858935
Domino's,Diamond Creek,7/67 Main Hurstbridge Road,DIAMOND CREEK,VIC,3089,Australia,"7/67 Main Hurstbridge Road, DIAMOND CREEK,VIC, 3089,Australia",-37.67394184,145.1594733
Domino's,Corio,470-510 Princes Highway,CORIO,VIC,3214,Australia,"470-510 Princes Highway, CORIO,VIC, 3214,Australia",-38.06402359,144.3832548
Domino's,Waurn Ponds,Waurn Ponds Shopping Centre 173-199 Pioneer Road,WAURN PONDS,VIC,3216,Australia,"Waurn Ponds Shopping Centre 173-199 Pioneer Road, WAURN PONDS,VIC, 3216,Australia",-38.1984679,144.3198454
Domino's,Point Cook,T12/48 Windorah Drive,POINT COOK,VIC,3030,Australia,"T12/48 Windorah Drive, POINT COOK,VIC, 3030,Australia",-37.89862819,144.7286719
Domino's,Kangaroo Flat,101 High Street,KANGAROO FLAT,VIC,3555,Australia,"101 High Street, KANGAROO FLAT,VIC, 3555,Australia",-36.79534522,144.2445175
Domino's,Morwell,Mid Valley Shopping Centre 102 Mid Valley Dr,MORWELL,VIC,3840,Australia,"Mid Valley Shopping Centre 102 Mid Valley Dr, MORWELL,VIC, 3840,Australia",-38.2365008,146.428607
Domino's,Patterson Lakes,Shop 24 21 Thompson Street,PATTERSON LAKES,VIC,3197,Australia,"Shop 24 21 Thompson Street, PATTERSON LAKES,VIC, 3197,Australia",-38.06876247,145.1424259
Domino's,Warragul,Shop 3 6-10 Queen St,WARRAGUL,VIC,3820,Australia,"Shop 3 6-10 Queen St, WARRAGUL,VIC, 3820,Australia",-38.16221763,145.9259863
Domino's,Altona North,96 Millers Road,ALTONA NORTH,VIC,3025,Australia,"96 Millers Road, ALTONA NORTH,VIC, 3025,Australia",-37.82596199,144.848777
Domino's,Hampton,,HAMPTON,VIC,,Australia,", HAMPTON,VIC,,Australia",-37.937298,145.002518
Domino's,Hampton,355C Bluff Rd,HAMPTON,VIC,3188,Australia,"355C Bluff Rd, HAMPTON,VIC, 3188,Australia",-37.94592425,145.0220103
Domino's,Hatton Vale,4/1 Fairway Dr,HATTON VALE,QLD,4341,Australia,"4/1 Fairway Dr, HATTON VALE,QLD, 4341,Australia",-27.5537919,152.4825774
Domino's,Torquay Vic,Shop 2 108-110 Geelong Rd - Surf Coast Hwy,TORQUAY,VIC,3228,Australia,"Shop 2 108-110 Geelong Rd - Surf Coast Hwy, TORQUAY,VIC, 3228,Australia",-38.32699222,144.3178478
Domino's,Cameron Park,Shop 4 119 Stenhouse Drive,CAMERON PARK,NSW,2285,Australia,"Shop 4 119 Stenhouse Drive, CAMERON PARK,NSW, 2285,Australia",-32.89647869,151.5973047
Domino's,North Shepparton,1/161 Numurkah Road,SHEPPARTON,VIC,3632,Australia,"1/161 Numurkah Road, SHEPPARTON,VIC, 3632,Australia",-36.35550607,145.402503
Domino's,Doreen,9/95 Hazel Glen Drive,DOREEN,VIC,3754,Australia,"9/95 Hazel Glen Drive, DOREEN,VIC, 3754,Australia",-37.58677449,145.1272705
Domino's,Flinders St,Tenancy 2C 555 Flinders Street,MELBOURNE,VIC,3000,Australia,"Tenancy 2C 555 Flinders Street, MELBOURNE,VIC, 3000,Australia",-37.82145165,144.9556459
Domino's,Camberwell,752 Burke Rd,CAMBERWELL,VIC,3124,Australia,"752 Burke Rd, CAMBERWELL,VIC, 3124,Australia",-37.82534701,145.058068
Domino's,Vermont South,3/475 Burwood Highway,VERMONT,VIC,3133,Australia,"3/475 Burwood Highway, VERMONT,VIC, 3133,Australia",-37.85555623,145.1802192
Domino's,Ringwood,Shop 11B North Ringwood Shopping Centre 204 Warrandyte Rd,RINGWOOD NORTH,VIC,3134,Australia,"Shop 11B North Ringwood Shopping Centre 204 Warrandyte Rd, RINGWOOD NORTH,VIC, 3134,Australia",-37.79414161,145.2356044
Domino's,Sunbury,Shop 6 28-32 Gap Road,SUNBURY,VIC,3429,Australia,"Shop 6 28-32 Gap Road, SUNBURY,VIC, 3429,Australia",-37.58032311,144.7244889
Domino's,Williamstown,Shop 2 41 Ferguson Street,WILLIAMSTOWN,VIC,3016,Australia,"Shop 2 41 Ferguson Street, WILLIAMSTOWN,VIC, 3016,Australia",-37.85935026,144.8996829
Domino's,Craigieburn,Shop 14 Cnr Aitken Blvd & (300-322) Grand Blvd,CRAIGIEBURN,VIC,3064,Australia,"Shop 14 Cnr Aitken Blvd & (300-322) Grand Blvd, CRAIGIEBURN,VIC, 3064,Australia",-37.5751218,144.9199479
Domino's,Clayton,337 Clayton Road,CLAYTON,VIC,3168,Australia,"337 Clayton Road, CLAYTON,VIC, 3168,Australia",-37.92514899,145.119428
Domino's,Caroline Springs,Central Shopping Centre Shop 19 13 - 15 Lake Street,CAROLINE SPRINGS,VIC,3023,Australia,"Central Shopping Centre Shop 19 13 - 15 Lake Street, CAROLINE SPRINGS,VIC, 3023,Australia",-37.73296205,144.7415119
Domino's,Brunswick,1/597-605 Sydney Rd,BRUNSWICK EAST,VIC,3057,Australia,"1/597-605 Sydney Rd, BRUNSWICK EAST,VIC, 3057,Australia",-37.76302019,144.9626069
Domino's,Bruce,1/19 Cooinda Street,BRUCE,ACT,2617,Australia,"1/19 Cooinda Street, BRUCE,ACT, 2617,Australia",-35.24099299,149.0800677
Domino's,Erindale,1/20 Gartside Street,WANNIASSA,ACT,2903,Australia,"1/20 Gartside Street, WANNIASSA,ACT, 2903,Australia",-35.40567794,149.0995369
Domino's,Queanbeyan,Shop 2 10 Atkinson Ave,QUEANBEYAN,NSW,2620,Australia,"Shop 2 10 Atkinson Ave, QUEANBEYAN,NSW, 2620,Australia",-35.34980903,149.2411354
Domino's,Weston,Shop 3 19 Trenerry Street,WESTON,ACT,2611,Australia,"Shop 3 19 Trenerry Street, WESTON,ACT, 2611,Australia",-35.34154204,149.0514904
Domino's,Dickson,73/2 Cape Street,DICKSON,ACT,2602,Australia,"73/2 Cape Street, DICKSON,ACT, 2602,Australia",-35.25138864,149.1360254
Domino's,Belconnen,1/32 Cohen Street,BELCONNEN,ACT,2617,Australia,"1/32 Cohen Street, BELCONNEN,ACT, 2617,Australia",-35.23963797,149.0624907
Domino's,Goulburn,364 Auburn Street,GOULBURN,NSW,2580,Australia,"364 Auburn Street, GOULBURN,NSW, 2580,Australia",-34.75022811,149.72145
Domino's,Conder,Unit 3 Lanyon Market Place 5 Sidney Nolan Street,CONDER,ACT,2906,Australia,"Unit 3 Lanyon Market Place 5 Sidney Nolan Street, CONDER,ACT, 2906,Australia",-35.45719568,149.0929697
Domino's,Gungahlin,Shop 3 Block 8 Ernest Cavanagh Street,GUNGAHLIN,ACT,2912,Australia,"Shop 3 Block 8 Ernest Cavanagh Street, GUNGAHLIN,ACT, 2912,Australia",-35.18373572,149.1314278
Domino's,Fyshwick,2 Yallourn Street,FYSHWICK,ACT,2609,Australia,"2 Yallourn Street, FYSHWICK,ACT, 2609,Australia",-35.33359013,149.1697267
Domino's,Mawson Act,9/93 Mawson Place,MAWSON,ACT,2607,Australia,"9/93 Mawson Place, MAWSON,ACT, 2607,Australia",-35.3650084,149.0940257
Domino's,Kippax,Shop 8 118-126 Hardwick Cr,HOLT,ACT,2615,Australia,"Shop 8 118-126 Hardwick Cr, HOLT,ACT, 2615,Australia",-35.22226431,149.0186344
Domino's,Canberra City,Shop 10 Lena Karmel Lodge 1 Childers Lane,CANBERRA,ACT,2600,Australia,"Shop 10 Lena Karmel Lodge 1 Childers Lane, CANBERRA,ACT, 2600,Australia",-35.27638582,149.1258644
Domino's,Kambah,Shop 9 9 Jenke Circuit,KAMBAH,ACT,2902,Australia,"Shop 9 9 Jenke Circuit, KAMBAH,ACT, 2902,Australia",-35.39340997,149.0686461
Domino's,Casey,T7 Casey Marketplace 15 Kingsland Parade,CASEY,ACT,2913,Australia,"T7 Casey Marketplace 15 Kingsland Parade, CASEY,ACT, 2913,Australia",-35.17486308,149.0956253
Domino's,Scone,Shop 2 199 Kelly St,SCONE,NSW,2337,Australia,"Shop 2 199 Kelly St, SCONE,NSW, 2337,Australia",-32.05134644,150.8668215
Domino's,Underwood,Shop 19 Underwood Market Place 3215 Logan Rd,UNDERWOOD,QLD,4119,Australia,"Shop 19 Underwood Market Place 3215 Logan Rd, UNDERWOOD,QLD, 4119,Australia",-27.60706419,153.1099318
Domino's,Rothwell,T1.15 743-757 Deception Bay Rd,ROTHWELL,QLD,4022,Australia,"T1.15 743-757 Deception Bay Rd, ROTHWELL,QLD, 4022,Australia",-27.21277255,153.0459042
Domino's,Yarrabilba,36 Yarrabilba Drive,YARRABILBA,QLD,4207,Australia,"36 Yarrabilba Drive, YARRABILBA,QLD, 4207,Australia",-27.80148034,153.1032593
Domino's,Surfers Paradise South,Shop 8 2893 Gold Coast Hwy,SURFERS PARADISE,QLD,4217,Australia,"Shop 8 2893 Gold Coast Hwy, SURFERS PARADISE,QLD, 4217,Australia",-28.01365653,153.4301564
Domino's,Holmview,Shop 11 302 - 322 Logan River Rd,HOLMVIEW,QLD,4207,Australia,"Shop 11 302 - 322 Logan River Rd, HOLMVIEW,QLD, 4207,Australia",-27.71103718,153.1612124
Domino's,Torquay Qld,Shop 1 486 The Esplanade,TORQUAY,QLD,4655,Australia,"Shop 1 486 The Esplanade, TORQUAY,QLD, 4655,Australia",-25.28183494,152.8845438
Domino's,Mona Vale,9D Waratah Street,MONA VALE,NSW,2103,Australia,"9D Waratah Street, MONA VALE,NSW, 2103,Australia",-33.67785773,151.3028131
Domino's,North Ryde,Shop 1 203-213 Coxs Road,NORTH RYDE,NSW,2113,Australia,"Shop 1 203-213 Coxs Road, NORTH RYDE,NSW, 2113,Australia",-33.79427641,151.1221706
Domino's,Bondi Junction,2/282 Oxford Street,BONDI JUNCTION,NSW,2022,Australia,"2/282 Oxford Street, BONDI JUNCTION,NSW, 2022,Australia",-33.89083191,151.2450203
Domino's,Erskine Park (Nsw),Shop 10 Erskine Park Shopping Centre 54 Peppertree Dr (Cnr Swallow Dr),ERSKINE PARK,NSW,2759,Australia,"Shop 10 Erskine Park Shopping Centre 54 Peppertree Dr (Cnr Swallow Dr), ERSKINE PARK,NSW, 2759,Australia",-33.80438823,150.8045855
Domino's,Kings Langley,Shop 11 Kings Langley Shopping Centre 125 James Cook Drive,KINGS LANGLEY,NSW,2147,Australia,"Shop 11 Kings Langley Shopping Centre 125 James Cook Drive, KINGS LANGLEY,NSW, 2147,Australia",-33.74348254,150.9238602
Domino's,Cabramatta,Shop 7 & 8 24-32 Hughes Street,CABRAMATTA,NSW,2166,Australia,"Shop 7 & 8 24-32 Hughes Street, CABRAMATTA,NSW, 2166,Australia",-33.89365737,150.9356748
Domino's,Leichhardt,Shop 6 1A Lords Road,LEICHHARDT,NSW,2040,Australia,"Shop 6 1A Lords Road, LEICHHARDT,NSW, 2040,Australia",-33.8854918,151.149578
Domino's,Kellyville,Shop 2B The Village Centre 29-31 Windsor Road,KELLYVILLE,NSW,2155,Australia,"Shop 2B The Village Centre 29-31 Windsor Road, KELLYVILLE,NSW, 2155,Australia",-33.71226238,150.9584258
Domino's,Manly,41 Sydney Rd,MANLY,NSW,2095,Australia,"41 Sydney Rd, MANLY,NSW, 2095,Australia",-33.7971582,151.2857937
Domino's,Newtown (Nsw),12 King Street,NEWTOWN,NSW,2042,Australia,"12 King Street, NEWTOWN,NSW, 2042,Australia",-33.89252062,151.1873588
Domino's,Cronulla,39 Kingsway,CRONULLA,NSW,2230,Australia,"39 Kingsway, CRONULLA,NSW, 2230,Australia",-34.05070641,151.1518078
Domino's,Sfs1 D2Go,Sydney Football Stadium Driver Avenue,MOORE PARK,NSW,2021,Australia,"Sydney Football Stadium Driver Avenue, MOORE PARK,NSW, 2021,Australia",-33.89097582,151.2234683
Domino's,Scg1 D2Go,Sydney Cricket Ground Driver Avenue,MOORE PARK,NSW,2021,Australia,"Sydney Cricket Ground Driver Avenue , MOORE PARK,NSW, 2021,Australia",-33.88704,151.22237
Domino's,Scg2 D2Go,Sydney Cricket Ground Driver Avenue,MOORE PARK,NSW,2021,Australia,"Sydney Cricket Ground Driver Avenue , MOORE PARK,NSW, 2021,Australia",-33.88704,151.22237
Domino's,Scg3 D2Go,Sydney Cricket Ground Driver Avenue,MOORE PARK,NSW,2021,Australia,"Sydney Cricket Ground Driver Avenue, MOORE PARK,NSW, 2021,Australia",-33.88704,151.22237
Domino's,Scg4 D2Go,Sydney Cricket Ground Driver Avenue,MOORE PARK,NSW,2021,Australia,"Sydney Cricket Ground Driver Avenue, MOORE PARK,NSW, 2021,Australia",-33.88704,151.22237
Domino's,Scg5 D2Go,Sydney Cricket Ground Driver Avenue,MOORE PARK,NSW,2021,Australia,"Sydney Cricket Ground Driver Avenue, MOORE PARK,NSW, 2021,Australia",-33.88704,151.22237
Domino's,Drummoyne,139 Victoria Road,DRUMMOYNE,NSW,2047,Australia,"139 Victoria Road, DRUMMOYNE,NSW, 2047,Australia",-33.8529859,151.1560145
Domino's,Amf Rooty Hill Rsl,Amf Rooty Hill Rsl 55 Sherbrooke St,ROOTY HILL,NSW,2766,Australia,"Amf Rooty Hill Rsl 55 Sherbrooke St, ROOTY HILL,NSW, 2766,Australia",-33.77014278,150.833422
Domino's,Scg6 D2Go,Sydney Cricket Ground Driver Avenue,MOORE PARK,NSW,2021,Australia,"Sydney Cricket Ground Driver Avenue, MOORE PARK,NSW, 2021,Australia",-33.88704,151.22237
Domino's,Kearns,Shop 2 70 Kearns Ave,KEARNS,NSW,2558,Australia,"Shop 2 70 Kearns Ave, KEARNS,NSW, 2558,Australia",-34.02275729,150.8040962
Domino's,Glenmore Park Nsw,Shop 7D Glenmore Park Town Centre 1-11 Town Tce,GLENMORE PARK,NSW,2745,Australia,"Shop 7D Glenmore Park Town Centre 1-11 Town Tce , GLENMORE PARK,NSW, 2745,Australia",-33.7885517,150.6689065
Domino's,Sydney Olympic Park,Shop 6 Dawn Fraser Ave (Cnr Australia Dr),SYDNEY OLYMPIC PARK,NSW,2127,Australia,"Shop 6 Dawn Fraser Ave (Cnr Australia Dr), SYDNEY OLYMPIC PARK,NSW, 2127,Australia",-33.84683501,151.0701251
Domino's,Moorebank,Shop 26 Moorebank Shopping Village 7 Mackay Avenue,MOOREBANK,NSW,2170,Australia,"Shop 26 Moorebank Shopping Village 7 Mackay Avenue, MOOREBANK,NSW, 2170,Australia",-33.93305361,150.9495524
Domino's,Sydney Cbd,T22 259 George St (Cnr Of Jamison & Lang Sts),SYDNEY CBD,NSW,2000,Australia,"T22 259 George St (Cnr Of Jamison & Lang Sts), SYDNEY CBD,NSW, 2000,Australia",-33.86426342,151.2054803
Domino's,Greenacre,195B Waterloo Rd,GREENACRE,NSW,2190,Australia,"195B Waterloo Rd, GREENACRE,NSW, 2190,Australia",-33.9060216,151.0577708
Domino's,Aldinga,1 Aldinga Beach Road (Shop 46 Aldinga Central S C),ALDINGA,SA,5173,Australia,"1 Aldinga Beach Road (Shop 46 Aldinga Central S C), ALDINGA,SA, 5173,Australia",-35.27827347,138.4741748
Domino's,Malvern (Sa),Shop 2 259-269 Unley Road,MALVERN,SA,5061,Australia,"Shop 2 259-269 Unley Road, MALVERN,SA, 5061,Australia",-34.95718443,138.6084062
Domino's,Newton,Shop 23 84 Gorge Road,NEWTON,SA,5074,Australia,"Shop 23 84 Gorge Road, NEWTON,SA, 5074,Australia",-34.87732224,138.6748799
Domino's,Gilles Plains,Shop 24 Gilles Plains Shopping Centre 575 North East Road (Cnr Sudholz Road),GILLES PLAINS,SA,5086,Australia,"Shop 24 Gilles Plains Shopping Centre 575 North East Road (Cnr Sudholz Road), GILLES PLAINS,SA, 5086,Australia",-34.85574148,138.6551047
Domino's,Elizabeth South,Shop 2 Elizabeth South Shopping Centre 100 Philip Highway,ELIZABETH SOUTH,SA,5112,Australia,"Shop 2 Elizabeth South Shopping Centre 100 Philip Highway, ELIZABETH SOUTH,SA, 5112,Australia",-34.7326091,138.6620918
Domino's,Reynella,Shop 7 70 Main South Road,REYNELLA,SA,5161,Australia,"Shop 7 70 Main South Road, REYNELLA,SA, 5161,Australia",-35.10453732,138.52849
Domino's,Noarlunga,Shop 6 Noarlunga Discount Centre 70 Dyson Road,NOARLUNGA CENTRE,SA,5168,Australia,"Shop 6 Noarlunga Discount Centre 70 Dyson Road, NOARLUNGA CENTRE,SA, 5168,Australia",-35.14241904,138.4872473
Domino's,Findon,Shop 3 156 Findon Rd,FINDON,SA,5023,Australia,"Shop 3 156 Findon Rd, FINDON,SA, 5023,Australia",-34.8927335,138.5313116
Domino's,Hove,Shop 6 367 Brighton Road,HOVE,SA,5048,Australia,"Shop 6 367 Brighton Road, HOVE,SA, 5048,Australia",-35.00988954,138.5221765
Domino's,Fulham,Shop 4 516-520 Henley Beach Road,FULHAM,SA,5024,Australia,"Shop 4 516-520 Henley Beach Road, FULHAM,SA, 5024,Australia",-34.92607177,138.5172602
Domino's,Plympton,Shop 4 546 Marion Rd,PLYMPTON PARK,SA,5038,Australia,"Shop 4 546 Marion Rd, PLYMPTON PARK,SA, 5038,Australia",-34.97777964,138.5554275
Domino's,Golden Grove,35A/1037 The Golden Way,GOLDEN GROVE,SA,5125,Australia,"35A/1037 The Golden Way, GOLDEN GROVE,SA, 5125,Australia",-34.78641706,138.7032344
Domino's,Tranmere,200 Glynburn Rd,TRANMERE,SA,5073,Australia,"200 Glynburn Rd, TRANMERE,SA, 5073,Australia",-34.90469955,138.6579442
Domino's,Pasadena,Tenancy 13 20 Pasadena Green Shopping Centre Fiveash Drive,PASADENA,SA,5042,Australia,"Tenancy 13 20 Pasadena Green Shopping Centre Fiveash Drive, PASADENA,SA, 5042,Australia",-35.01148869,138.5853771
Domino's,Aberfoyle,2/40 Sandpiper Crescent,ABERFOYLE PARK,SA,5159,Australia,"2/40 Sandpiper Crescent, ABERFOYLE PARK,SA, 5159,Australia",-35.07671187,138.5908823
Domino's,Nailsworth,193 Main North Road,NAILSWORTH,SA,5083,Australia,"193 Main North Road, NAILSWORTH,SA, 5083,Australia",-34.88057182,138.602867
Domino's,Woodville Park,435 Torrens Rd,WOODVILLE,SA,5011,Australia,"435 Torrens Rd, WOODVILLE,SA, 5011,Australia",-34.87684648,138.5504066
Domino's,Port Adelaide,19 Church Place,PORT ADELAIDE,SA,5015,Australia,"19 Church Place, PORT ADELAIDE,SA, 5015,Australia",-34.84523309,138.502073
Domino's,Hollywood Plaza,50/200 Winzor St,SALISBURY DOWNS,SA,5108,Australia,"50/200 Winzor St, SALISBURY DOWNS,SA, 5108,Australia",-34.76798467,138.6246502
Domino's,Murray Bridge,Shop 2 17-19 Adelaide Road,MURRAY BRIDGE,SA,5253,Australia,"Shop 2 17-19 Adelaide Road, MURRAY BRIDGE,SA, 5253,Australia",-35.12036478,139.2720557
Domino's,Mount Gambier,108 Commercial Street East,MOUNT GAMBIER,SA,5290,Australia,"108 Commercial Street East, MOUNT GAMBIER,SA, 5290,Australia",-37.83056936,140.7864954
Domino's,Mount Barker,28 Morphett Street,MOUNT BARKER,SA,5251,Australia,"28 Morphett Street, MOUNT BARKER,SA, 5251,Australia",-35.06531085,138.8598055
Domino's,Modbury,947-949 North East Road,MODBURY,SA,5092,Australia,"947-949 North East Road, MODBURY,SA, 5092,Australia",-34.83211713,138.6842541
Domino's,Glenunga,Temp Closed Eff 01/04/12 553 Portrush Road,GLENUNGA,SA,5064,Australia,"Temp Closed Eff 01/04/12 553 Portrush Road, GLENUNGA,SA, 5064,Australia",-34.9491562,138.6426465
Domino's,Blackwood,Store Closed 06/05/2007,BLACKWOOD,SA,5051,Australia,"Store Closed 06/05/2007, BLACKWOOD,SA, 5051,Australia",-35.006543,138.6196224
Domino's,Port Augusta,25 Tottenham Rd (Cnr Victoria Parade),PORT AUGUSTA,SA,5700,Australia,"25 Tottenham Rd (Cnr Victoria Parade), PORT AUGUSTA,SA, 5700,Australia",-32.49906266,137.7763494
Domino's,Port Lincoln,4 King St,PORT LINCOLN,SA,5606,Australia,"4 King St, PORT LINCOLN,SA, 5606,Australia",-34.72273019,135.8630871
Domino's,Blackwood,Shop 1 237 Main Road,BLACKWOOD,SA,5051,Australia,"Shop 1 237 Main Road, BLACKWOOD,SA, 5051,Australia",-35.02019744,138.6166498
Domino's,Adelaide City,236 Pulteney Street,ADELAIDE,SA,5000,Australia,"236 Pulteney Street, ADELAIDE,SA, 5000,Australia",-34.92798699,138.6062918
Domino's,Hallett Cove,2 Ramrod Avenue,HALLETT COVE,SA,5158,Australia,"2 Ramrod Avenue, HALLETT COVE,SA, 5158,Australia",-35.07753955,138.5180162
Domino's,Renmark,Shop 17 32 Renmark Ave,RENMARK,SA,5341,Australia,"Shop 17 32 Renmark Ave, RENMARK,SA, 5341,Australia",-34.17188522,140.7495219
Domino's,Gawler,Shop 27 485 Main North Road,EVANSTON,SA,5116,Australia,"Shop 27 485 Main North Road, EVANSTON,SA, 5116,Australia",-34.62257692,138.7379686
Domino's,Whyalla Norrie,128 Mcdouall Stuart Ave,WHYALLA,SA,5608,Australia,"128 Mcdouall Stuart Ave, WHYALLA,SA, 5608,Australia",-33.03202601,137.5296481
Domino's,Turramurra,1/21 Rohini Street,TURRAMURRA,NSW,2074,Australia,"1/21 Rohini Street, TURRAMURRA,NSW, 2074,Australia",-33.73235984,151.1293383
Domino's,Mount Gambier (Pinkys),Store Perm Closed 10/6/10,MOUNT GAMBIER,SA,5290,Australia,"Store Perm Closed 10/6/10 , MOUNT GAMBIER,SA, 5290,Australia",-37.8284096,140.7806561
Domino's,Brooklyn Park,Shop 3 261-263 Henley Beach Road,BROOKLYN PARK,SA,5032,Australia,"Shop 3 261-263 Henley Beach Road, BROOKLYN PARK,SA, 5032,Australia",-34.92501699,138.5514821
Domino's,Aami1 D2Go,Aami Stadium Turner Drive,WEST LAKES,SA,5021,Australia,"Aami Stadium Turner Drive, WEST LAKES,SA, 5021,Australia",-34.88071586,138.4936603
Domino's,Victor Harbor,308-310 Port Elliot Road,HAYBOROUGH,SA,5211,Australia,"308-310 Port Elliot Road, HAYBOROUGH,SA, 5211,Australia",-35.53685661,138.639586
Domino's,Glenelg,148B Jetty Road,GLENELG,SA,5045,Australia,"148B Jetty Road, GLENELG,SA, 5045,Australia",-34.98043759,138.518341
Domino's,Mawson Lakes,Tenancy 6 28-30 Goodall Parade,MAWSON LAKES,SA,5095,Australia,"Tenancy 6 28-30 Goodall Parade, MAWSON LAKES,SA, 5095,Australia",-34.80730942,138.6159647
Domino's,Munno Para,Shop 87 Munno Para Shopping City 600 Main North Rd,SMITHFIELD,SA,5114,Australia,"Shop 87 Munno Para Shopping City 600 Main North Rd, SMITHFIELD,SA, 5114,Australia",-34.6876594,138.690572
Domino's,Aami2 D2Go,Aami Stadium Turner Drive,WEST LAKES,SA,5021,Australia,"Aami Stadium Turner Drive, WEST LAKES,SA, 5021,Australia",-34.88071586,138.4936603
Domino's,Port Pirie,Shop 2 10 Main Road,PORT PIRIE,SA,5540,Australia,"Shop 2 10 Main Road, PORT PIRIE,SA, 5540,Australia",-33.18336982,138.0128782
Domino's,Glenunga,549 Portrush Road,GLENUNGA,SA,5064,Australia,"549 Portrush Road, GLENUNGA,SA, 5064,Australia",-34.9491562,138.6426465
Domino's,Kelso Qld,3&4/1463 Riverway Drive,KELSO,QLD,4815,Australia,"3&4/1463 Riverway Drive, KELSO,QLD, 4815,Australia",-19.38452317,146.7299456
Domino's,Seaford Sa,Unit 1 1103 Main St,SEAFORD,SA,5169,Australia,"Unit 1 1103 Main St, SEAFORD,SA, 5169,Australia",-35.18708327,138.4787184
Domino's,St Peters,Shop 5 103-111 Payneham Rd,ST PETERS,SA,5069,Australia,"Shop 5 103-111 Payneham Rd, ST PETERS,SA, 5069,Australia",-34.91037037,138.6267373
Domino's,Ingle Farm,219-247 Montague Rd,INGLE FARM,SA,5098,Australia,"219-247 Montague Rd, INGLE FARM,SA, 5098,Australia",-34.82954459,138.6477553
Domino's,Zetland,Ruby Tower 15 Gadigal Ave,ZETLAND,NSW,2017,Australia,"Ruby Tower 15 Gadigal Ave, ZETLAND,NSW, 2017,Australia",-33.9039946,151.2121472
Domino's,Ermington,12 Betty Cuthbert Avenue,ERMINGTON,NSW,2115,Australia,"12 Betty Cuthbert Avenue, ERMINGTON,NSW, 2115,Australia",-33.81481015,151.0556655
Domino's,Terrigal,48 Terrigal Esplanade,TERRIGAL,NSW,2260,Australia,"48 Terrigal Esplanade, TERRIGAL,NSW, 2260,Australia",-33.44734148,151.4448255
Domino's,Bradbury,3/100 The Parkway,BRADBURY,NSW,2560,Australia,"3/100 The Parkway, BRADBURY,NSW, 2560,Australia",-34.08488349,150.8125944
Domino's,Sippy Downs,4/123 Sippy Downs Drive,SIPPY DOWNS,QLD,4556,Australia,"4/123 Sippy Downs Drive, SIPPY DOWNS,QLD, 4556,Australia",-26.71415497,153.0620999
Domino's,Woolloomooloo,Retail A 65 Cowper Wharf Roadway,WOOLLOOMOOLOO,NSW,2011,Australia,"Retail A 65 Cowper Wharf Roadway, WOOLLOOMOOLOO,NSW, 2011,Australia",-33.86944494,151.2218766
Domino's,Tanilba Bay,1/67 Beatty Boulevard,TANILBA BAY,NSW,2319,Australia,"1/67 Beatty Boulevard, TANILBA BAY,NSW, 2319,Australia",-32.73518804,151.9992219
Domino's,Keilor,664-688 Old Calder Hwy & Hunter St,KEILOR,VIC,3036,Australia,"664-688 Old Calder Hwy & Hunter St, KEILOR,VIC, 3036,Australia",-37.72060679,144.8363509
Domino's,Crestmead,15/1 Fifth Ave Marsden On Fifth,CRESTMEAD,QLD,4132,Australia,"15/1 Fifth Ave Marsden On Fifth, CRESTMEAD,QLD, 4132,Australia",-27.6773835,153.0814082
Domino's,Castlemaine,44 Forrest Street,CASTLEMAINE,VIC,3450,Australia,"44 Forrest Street, CASTLEMAINE,VIC, 3450,Australia",-37.0671001,144.2173518
Domino's,Abbotsford,110 Hoddle St,ABBOTSFORD,VIC,3067,Australia,"110 Hoddle St, ABBOTSFORD,VIC, 3067,Australia",-37.80519063,144.9926852
Domino's,Elizabeth St,233 Elizabeth St,MELBOURNE,VIC,3000,Australia,"233 Elizabeth St, MELBOURNE,VIC, 3000,Australia",-37.81312188,144.9623675
Domino's,Drouin,Shop 4 149 Princes Hwy,DROUIN,VIC,3818,Australia,"Shop 4 149 Princes Hwy, DROUIN,VIC, 3818,Australia",-38.13362331,145.8544451
Domino's,Cobblebank,Tenancy A02 223 Bridge Road,COBBLEBANK,VIC,3338,Australia,"Tenancy A02 223 Bridge Road, COBBLEBANK,VIC, 3338,Australia",-37.71534702,144.5946839
Domino's,Strathdale,36/134 Condon St,KENNINGTON,VIC,3550,Australia,"36/134 Condon St, KENNINGTON,VIC, 3550,Australia",-36.7736552,144.3056977
Domino's,Young,16 Lovell Street,YOUNG,NSW,2594,Australia,"16 Lovell Street, YOUNG,NSW, 2594,Australia",-34.31278757,148.2998655
Domino's,Forbes,95-97 Lachlan St,FORBES,NSW,2871,Australia,"95-97 Lachlan St, FORBES,NSW, 2871,Australia",-33.38417814,148.0080005
Domino's,Tura Beach,Shop 8 Tura Beach Market Place Cnr Tura Beach Dr & Sapphire Coast Dr,TURA BEACH,NSW,2548,Australia,"Shop 8 Tura Beach Market Place Cnr Tura Beach Dr & Sapphire Coast Dr, TURA BEACH,NSW, 2548,Australia",-36.86245929,149.9121337
Domino's,Medowie,Shop 9 37E Ferodale Road,MEDOWIE,NSW,2318,Australia,"Shop 9 37E Ferodale Road, MEDOWIE,NSW, 2318,Australia",-32.74077776,151.8651663
Domino's,South Dubbo,T2 1 Spitfire Drive,DUBBO,NSW,2830,Australia,"T2 1 Spitfire Drive, DUBBO,NSW, 2830,Australia",-32.25637622,148.6188718
Domino's,West Bathurst,19/1 Wark Parade,WINDRADYNE,NSW,2795,Australia,"19/1 Wark Parade, WINDRADYNE,NSW, 2795,Australia",-33.40455509,149.5460143
Domino's,Wauchope,1/21 Bransdon Street,WAUCHOPE,NSW,2446,Australia,"1/21 Bransdon Street, WAUCHOPE,NSW, 2446,Australia",-31.45658336,152.7333732
Domino's,Eastwood,79A Balaclava Rd,EASTWOOD,NSW,2122,Australia,"79A Balaclava Rd, EASTWOOD,NSW, 2122,Australia",-33.78436435,151.0943972
Domino's,Penrith,8/109 Batt Street,JAMISONTOWN,NSW,2750,Australia,"8/109 Batt Street, JAMISONTOWN,NSW, 2750,Australia",-33.76686637,150.6811837
Domino's,Albury,1/492 Townsend St,ALBURY,NSW,2640,Australia,"1/492 Townsend St, ALBURY,NSW, 2640,Australia",-36.08107221,146.9134169
Domino's,Unanderra,1/114 - 118 Princes Hwy,UNANDERRA,NSW,2526,Australia,"1/114 - 118 Princes Hwy, UNANDERRA,NSW, 2526,Australia",-34.45514723,150.8442253
Domino's,Leeton,T12 - 13 Leeton Plaza 1 Acacia Ave,LEETON,NSW,2705,Australia,"T12 - 13 Leeton Plaza 1 Acacia Ave, LEETON,NSW, 2705,Australia",-34.5520395,146.39892
Domino's,Gordon,2/9-11 St Johns Avenue,GORDON,NSW,2072,Australia,"2/9-11 St Johns Avenue, GORDON,NSW, 2072,Australia",-33.75610321,151.1535822
Domino's,North Orange,Shop 13 9 Telopea Way,NORTH ORANGE,NSW,2800,Australia,"Shop 13 9 Telopea Way, NORTH ORANGE,NSW, 2800,Australia",-33.25299406,149.1008141
Domino's,Nelson Bay,Shop 29 - 30 71 Victoria Pde,NELSON BAY,NSW,2315,Australia,"Shop 29 - 30 71 Victoria Pde, NELSON BAY,NSW, 2315,Australia",-32.72096336,152.1445334
Domino's,Fletcher Village,8/221 Minmi Road,FLETCHER,NSW,2287,Australia,"8/221 Minmi Road, FLETCHER,NSW, 2287,Australia",-32.87673894,151.6466082
Domino's,Wilton,Shop T5 Wilton Plaza 1 Greenbridge Dr,WILTON,NSW,2571,Australia,"Shop T5 Wilton Plaza 1 Greenbridge Dr, WILTON,NSW, 2571,Australia",-34.22844575,150.6838328
Domino's,Armidale East,Shop 6 & 7 108 Beardy St,ARMIDALE,NSW,2350,Australia,"Shop 6 & 7 108 Beardy St, ARMIDALE,NSW, 2350,Australia",-30.51445924,151.669218
Domino's,Katherine,7 Victoria Highway,KATHERINE,NT,850,Australia,"7 Victoria Highway, KATHERINE,NT, 850,Australia",-14.46566322,132.2606403
Domino's,Mareeba,150 Byrnes Street,MAREEBA,QLD,4880,Australia,"150 Byrnes Street, MAREEBA,QLD, 4880,Australia",-16.99380292,145.4221236
Domino's,South Rockhampton,Shop 27A Allenstown Shopping Square 139-143 Derby Street,ALLENSTOWN,QLD,4700,Australia,"Shop 27A Allenstown Shopping Square 139-143 Derby Street, ALLENSTOWN,QLD, 4700,Australia",-23.3902528,150.5035512
Domino's,Roma,115 Mcdowall St,ROMA,QLD,4455,Australia,"115 Mcdowall St, ROMA,QLD, 4455,Australia",-26.57119449,148.7875913
Domino's,Charters Towers,58 Gill Street,CHARTERS TOWERS,QLD,4820,Australia,"58 Gill Street, CHARTERS TOWERS,QLD, 4820,Australia",-20.07668699,146.2591684
Domino's,East Bundaberg,Shop 2B 123 Bargara Rd,BUNDABERG EAST,QLD,4670,Australia,"Shop 2B 123 Bargara Rd, BUNDABERG EAST,QLD, 4670,Australia",-24.85348805,152.3791834
Domino's,Stanthorpe,19 Davadi Street,STANTHORPE,QLD,4380,Australia,"19 Davadi Street, STANTHORPE,QLD, 4380,Australia",-28.65546242,151.9375765
Domino's,Port Douglas,Shop 18 Port Village 11-17 Macrossan St,PORT DOUGLAS,QLD,4877,Australia,"Shop 18 Port Village 11-17 Macrossan St, PORT DOUGLAS,QLD, 4877,Australia",-16.4821119,145.4628673
Domino's,Colac (Pinkys),169 Murray Street,COLAC,VIC,3250,Australia,"169 Murray Street, COLAC,VIC, 3250,Australia",-38.33955242,143.5852214
Domino's,Shepparton,Shop 3 50 Macintosh Street,SHEPPARTON,VIC,3630,Australia,"Shop 3 50 Macintosh Street, SHEPPARTON,VIC, 3630,Australia",-36.39338741,145.4014179
Domino's,Wendouree,918-920 Howitt St,WENDOUREE,VIC,3355,Australia,"918-920 Howitt St, WENDOUREE,VIC, 3355,Australia",-37.54104312,143.8410986
Domino's,Kangaroo Flat,Store Closed 23/12/2007,KANGAROO FLAT,VIC,3555,Australia,"Store Closed 23/12/2007, KANGAROO FLAT,VIC, 3555,Australia",-36.7952164,144.2407839
Domino's,Mildura,810 Fifteenth Street,MILDURA,VIC,3500,Australia,"810 Fifteenth Street, MILDURA,VIC, 3500,Australia",-34.21357543,142.1443509
Domino's,Bendigo,Tenancy 3 141 High Street,BENDIGO,VIC,3550,Australia,"Tenancy 3 141 High Street, BENDIGO,VIC, 3550,Australia",-36.76254709,144.2717667
Domino's,Wodonga,Shop G18 Birallee Village 3 Birallee Place,WEST WODONGA,VIC,3690,Australia,"Shop G18 Birallee Village 3 Birallee Place , WEST WODONGA,VIC, 3690,Australia",-36.12803077,146.8645346
Domino's,Bundoora,1282 Plenty Road,BUNDOORA,VIC,3083,Australia,"1282 Plenty Road, BUNDOORA,VIC, 3083,Australia",-37.70053599,145.058415
Domino's,Burwood (Vic),Unit 3 251-255 Burwood Highway,BURWOOD,VIC,3125,Australia,"Unit 3 251-255 Burwood Highway, BURWOOD,VIC, 3125,Australia",-37.85009165,145.1178853
Domino's,Altona,Store Temp Closed 18/8/08 Perm Closed 28/11/2008,ALTONA NORTH,VIC,3025,Australia,"Store Temp Closed 18/8/08 Perm Closed 28/11/2008, ALTONA NORTH,VIC, 3025,Australia",-37.8345804,144.8474245
Domino's,Narre Warren,Shop 9 420 Princes Highway,NARRE WARREN,VIC,3805,Australia,"Shop 9 420 Princes Highway, NARRE WARREN,VIC, 3805,Australia",-38.02532598,145.30605
Domino's,Chelsea Heights,Store Closed As At 9/1/09,CHELSEA HEIGHTS,VIC,3196,Australia,"Store Closed As At 9/1/09, CHELSEA HEIGHTS,VIC, 3196,Australia",-38.05109627,145.1170948
Domino's,Croydon,394 Maroondah Highway,CROYDON,VIC,3136,Australia,"394 Maroondah Highway, CROYDON,VIC, 3136,Australia",-37.77236815,145.2940949
Domino's,Melton,298 High Street,MELTON,VIC,3337,Australia,"298 High Street, MELTON,VIC, 3337,Australia",-37.68273526,144.5838627
Domino's,Lower Plenty,63A Main Road,LOWER PLENTY,VIC,3093,Australia,"63A Main Road, LOWER PLENTY,VIC, 3093,Australia",-37.72766649,145.1118711
Domino's,Flemington,266 Racecourse Road,FLEMINGTON,VIC,3031,Australia,"266 Racecourse Road, FLEMINGTON,VIC, 3031,Australia",-37.78820546,144.9318821
Domino's,Vermont,Store Closed 16/09/2007,VERMONT,VIC,3133,Australia,"Store Closed 16/09/2007, VERMONT,VIC, 3133,Australia",-37.830329,145.2087969
Domino's,Sunshine,Shop 1 487-489 Ballarat Road,SUNSHINE,VIC,3020,Australia,"Shop 1 487-489 Ballarat Road, SUNSHINE,VIC, 3020,Australia",-37.77779643,144.8336329
Domino's,Hoppers Crossing,Shop 1 377 Sayers Road,HOPPERS CROSSING,VIC,3029,Australia,"Shop 1 377 Sayers Road, HOPPERS CROSSING,VIC, 3029,Australia",-37.85100054,144.707346
Domino's,Tecoma,Store Closed 19/02/2007,TECOMA,VIC,3160,Australia,"Store Closed 19/02/2007, TECOMA,VIC, 3160,Australia",-37.906975,145.343735
Domino's,Cranbourne,Shop 3 241 South Gippsland Highway Cnr Camms Road,CRANBOURNE,VIC,3977,Australia,"Shop 3 241 South Gippsland Highway Cnr Camms Road, CRANBOURNE,VIC, 3977,Australia",-38.09780446,145.2824709
Domino's,Bayswater North,Unit 2 339 Bayswater Road,BAYSWATER NORTH,VIC,3153,Australia,"Unit 2 339 Bayswater Road, BAYSWATER NORTH,VIC, 3153,Australia",-37.8324231,145.2698108
Domino's,Carrum Downs,129 Hall Rd,CARRUM DOWNS,VIC,3201,Australia,"129 Hall Rd, CARRUM DOWNS,VIC, 3201,Australia",-38.10113975,145.1872812
Domino's,Pakenham (Closed On 9/01/09),Store Closed 9/1/09,PAKENHAM,VIC,3810,Australia,"Store Closed 9/1/09, PAKENHAM,VIC, 3810,Australia",-38.06537899,145.467762
Domino's,Ballarat,75 Victoria Street,BALLARAT EAST,VIC,3350,Australia,"75 Victoria Street, BALLARAT EAST,VIC, 3350,Australia",-37.56185493,143.8689362
Domino's,Sebastopol,4 Albert Street,SEBASTOPOL,VIC,3356,Australia,"4 Albert Street, SEBASTOPOL,VIC, 3356,Australia",-37.58254591,143.8405234
Domino's,Broadmeadows,Shop Hm02 Broadmeadows Homemaker Centre 1099-1169 Pascoe Vale Road,BROADMEADOWS,VIC,3047,Australia,"Shop Hm02 Broadmeadows Homemaker Centre 1099-1169 Pascoe Vale Road, BROADMEADOWS,VIC, 3047,Australia",-37.67808934,144.9216528
Domino's,Dandenong,39 Langhorne Street,DANDENONG,VIC,3175,Australia,"39 Langhorne Street, DANDENONG,VIC, 3175,Australia",-37.98860004,145.2165325
Domino's,St Kilda East,142 Chapel St,SAINT KILDA,VIC,3182,Australia,"142 Chapel St, SAINT KILDA,VIC, 3182,Australia",-37.86989,144.99027
Domino's,Hawthorn,807 Glennferrie Road,HAWTHORN,VIC,3122,Australia,"807 Glennferrie Road , HAWTHORN,VIC, 3122,Australia",-37.81542301,145.0364945
Domino's,Mill Park,Shop 3 5 Bush Boulevard,MILL PARK,VIC,3082,Australia,"Shop 3 5 Bush Boulevard, MILL PARK,VIC, 3082,Australia",-37.65558824,145.0787616
Domino's,Belmore,440 Burwood Road,BELMORE,NSW,2192,Australia,"440 Burwood Road, BELMORE,NSW, 2192,Australia",-33.9202148,151.0893629
Domino's,Bentleigh (Vic),488 Centre Road,BENTLEIGH,VIC,3204,Australia,"488 Centre Road , BENTLEIGH,VIC, 3204,Australia",-37.91881898,145.040255
Domino's,Caulfield,Shop 2 322 Hawthorn Road,CAULFIELD,VIC,3162,Australia,"Shop 2 322 Hawthorn Road, CAULFIELD,VIC, 3162,Australia",-37.88551944,145.0220017
Domino's,Noble Park,390A Princes Highway,NOBLE PARK,VIC,3174,Australia,"390A Princes Highway, NOBLE PARK,VIC, 3174,Australia",-37.96161316,145.1890592
Domino's,Edens Crossing,7/7001 Sunbird Dr Cnr Mt Juillerat Drive,REDBANK PLAINS,QLD,4301,Australia,"7/7001 Sunbird Dr Cnr Mt Juillerat Drive, REDBANK PLAINS,QLD, 4301,Australia",-27.66296202,152.8376268
Domino's,Wangaratta,90A Murphy Street,WANGARATTA,VIC,3677,Australia,"90A Murphy Street, WANGARATTA,VIC, 3677,Australia",-36.35487298,146.327656
Domino's,Craigieburn,Store Closed 13/12/07,CRAIGIEBURN,VIC,3064,Australia,"Store Closed 13/12/07, CRAIGIEBURN,VIC, 3064,Australia",-37.59936298,144.94239
Domino's,Endeavour Hills,Endeavour Hills Shopping Centre Shop 65 Cnr Heatherton Rd & Matthew Flinders Ave,ENDEAVOUR HILLS,VIC,3802,Australia,"Endeavour Hills Shopping Centre Shop 65 Cnr Heatherton Rd & Matthew Flinders Ave, ENDEAVOUR HILLS,VIC, 3802,Australia",-37.97497639,145.2581003
Domino's,Doncaster East,183 Reynolds Road,DONCASTER EAST,VIC,3109,Australia,"183 Reynolds Road, DONCASTER EAST,VIC, 3109,Australia",-37.76362301,145.169458
Domino's,Knox,401 Burwood Highway,WANTIRNA,VIC,3152,Australia,"401 Burwood Highway, WANTIRNA,VIC, 3152,Australia",-37.86842916,145.2358505
Domino's,Bulleen,Shop 30F Bulleen Plaza 101 Manningham Road,BULLEEN,VIC,3105,Australia,"Shop 30F Bulleen Plaza 101 Manningham Road, BULLEEN,VIC, 3105,Australia",-37.7666568,145.0919582
Domino's,Frankston (Vic),Tenancy 2 136 Frankston-Flinders Road,FRANKSTON,VIC,3199,Australia,"Tenancy 2 136 Frankston-Flinders Road, FRANKSTON,VIC, 3199,Australia",-38.16617263,145.1367504
Domino's,Carlton (Vic),Shop 2 121 Grattan St,CARLTON,VIC,3053,Australia,"Shop 2 121 Grattan St, CARLTON,VIC, 3053,Australia",-37.80073163,144.9651636
Domino's,Horsham,23A Firebrace Street,HORSHAM,VIC,3400,Australia,"23A Firebrace Street, HORSHAM,VIC, 3400,Australia",-36.7128178,142.1999357
Domino's,Preston,593A Bell Street,PRESTON,VIC,3072,Australia,"593A Bell Street, PRESTON,VIC, 3072,Australia",-37.74407704,144.9894772
Domino's,Mornington,960 Nepean Highway,MORNINGTON,VIC,3931,Australia,"960 Nepean Highway, MORNINGTON,VIC, 3931,Australia",-38.23118393,145.0439227
Domino's,St Albans (Vic),206 Main Road East,SAINT ALBANS,VIC,3021,Australia,"206 Main Road East, SAINT ALBANS,VIC, 3021,Australia",-37.74536501,144.811325
Domino's,Lilydale,Shop 10 Lilydale Village 343-347 Main St (Cnr Anderson St),LILYDALE,VIC,3140,Australia,"Shop 10 Lilydale Village 343-347 Main St (Cnr Anderson St), LILYDALE,VIC, 3140,Australia",-37.75724568,145.3528251
Domino's,Langwarrin,Shop T16 Langwarrin Plaza Shopping Centre 385 Cranbourne-Frankston Road,LANGWARRIN,VIC,3910,Australia,"Shop T16 Langwarrin Plaza Shopping Centre 385 Cranbourne-Frankston Road, LANGWARRIN,VIC, 3910,Australia",-38.1425198,145.2093148
Domino's,Richmond,189A Swan Street,RICHMOND,VIC,3121,Australia,"189A Swan Street, RICHMOND,VIC, 3121,Australia",-37.82556163,144.9982378
Domino's,Fairfield Victoria,8/306 Station St,FAIRFIELD,VIC,3078,Australia,"8/306 Station St, FAIRFIELD,VIC, 3078,Australia",-37.76620057,145.0198753
Domino's,Heidelberg,Shop 11 101 Burgundy St,HEIDELBERG,VIC,3084,Australia,"Shop 11 101 Burgundy St, HEIDELBERG,VIC, 3084,Australia",-37.75645598,145.066614
Domino's,Essendon,Shop 2 1096 Mt Alexander Road,ESSENDON,VIC,3040,Australia,"Shop 2 1096 Mt Alexander Road, ESSENDON,VIC, 3040,Australia",-37.74565401,144.911486
Domino's,Mcdowall,Shop 15 Mcdowall Village Shopping Centre 109 Beckett Rd,MCDOWALL,QLD,4053,Australia,"Shop 15 Mcdowall Village Shopping Centre 109 Beckett Rd, MCDOWALL,QLD, 4053,Australia",-27.38028522,152.9897854
Domino's,West Gosford,Shop 5 Riverside Centre 69 Central Coast Highway,WEST GOSFORD,NSW,2250,Australia,"Shop 5 Riverside Centre 69 Central Coast Highway, WEST GOSFORD,NSW, 2250,Australia",-33.42691009,151.3221118
Domino's,Lysterfield,Shop 4 1201 Wellington Rd,LYSTERFIELD,VIC,3156,Australia,"Shop 4 1201 Wellington Rd, LYSTERFIELD,VIC, 3156,Australia",-37.92840633,145.2655687
Domino's,Bella Vista,51/24-32 Lexington Drive,BELLA VISTA,NSW,2153,Australia,"51/24-32 Lexington Drive , BELLA VISTA,NSW, 2153,Australia",-33.73425197,150.9452175
Domino's,Hampton (Vic) Old,Temp Closed Eff 30/7/09 Perm Closed Eff 10/6/10,HAMPTON,VIC,3188,Australia,"Temp Closed Eff 30/7/09 Perm Closed Eff 10/6/10, HAMPTON,VIC, 3188,Australia",-37.92878495,144.9939502
Domino's,Mount Waverley,309 Stephensons Road,MOUNT WAVERLEY,VIC,3149,Australia,"309 Stephensons Road, MOUNT WAVERLEY,VIC, 3149,Australia",-37.87767699,145.128424
Domino's,Box Hill,2/1031 Whitehorse Road,BOX HILL,VIC,3128,Australia,"2/1031 Whitehorse Road, BOX HILL,VIC, 3128,Australia",-37.8180861,145.1266967
Domino's,Maribyrnong,Shop 37 Waterford Gardens 13 Wests Road,MARIBYRNONG,VIC,3032,Australia,"Shop 37 Waterford Gardens 13 Wests Road, MARIBYRNONG,VIC, 3032,Australia",-37.77475141,144.8805263
Domino's,Balwyn,Shop 2 310 Whitehorse Rd,BALWYN,VIC,3103,Australia,"Shop 2 310 Whitehorse Rd, BALWYN,VIC, 3103,Australia",-37.81337401,145.084202
Domino's,Prahran,181 High Street,PRAHRAN,VIC,3181,Australia,"181 High Street, PRAHRAN,VIC, 3181,Australia",-37.85185688,144.9942369
Domino's,Footscray,234 Barkly Street,FOOTSCRAY,VIC,3011,Australia,"234 Barkly Street, FOOTSCRAY,VIC, 3011,Australia",-37.79925934,144.8965849
Domino's,Coburg,Shop 3 441-449 Sydney Road,COBURG,VIC,3058,Australia,"Shop 3 441-449 Sydney Road, COBURG,VIC, 3058,Australia",-37.74278116,144.9661245
Domino's,Keysborough South,7/211-215 Chapel Road,KEYSBOROUGH,VIC,3173,Australia,"7/211-215 Chapel Road, KEYSBOROUGH,VIC, 3173,Australia",-38.01140313,145.1596772
Domino's,Highton,Shop 3 Barrabool Hills Shopping Centre 4-46 Province Boulevard (Cnr Stoneleigh Cres),HIGHTON,VIC,3216,Australia,"Shop 3 Barrabool Hills Shopping Centre 4-46 Province Boulevard (Cnr Stoneleigh Cres), HIGHTON,VIC, 3216,Australia",-38.16184074,144.3065048
Domino's,Thomastown,247 High Street,THOMASTOWN,VIC,3074,Australia,"247 High Street, THOMASTOWN,VIC, 3074,Australia",-37.67891198,145.013805
Domino's,Belmont (Vic),Store Closed 27/07/08,BELMONT,VIC,3216,Australia,"Store Closed 27/07/08, BELMONT,VIC, 3216,Australia",-38.17487858,144.3447785
Domino's,Ferntree Gully,Store Closed 9/1/09,FERNTREE GULLY,VIC,3156,Australia,"Store Closed 9/1/09, FERNTREE GULLY,VIC, 3156,Australia",-37.883583,145.295395
Domino's,Mitcham,533 Whitehorse Road,MITCHAM,VIC,3132,Australia,"533 Whitehorse Road, MITCHAM,VIC, 3132,Australia",-37.81593874,145.1942765
Domino's,Glenroy,822 Pascoe Vale Road,GLENROY,VIC,3046,Australia,"822 Pascoe Vale Road, GLENROY,VIC, 3046,Australia",-37.70416657,144.9158574
Domino's,Malvern (Vic),1412 High Street,MALVERN,VIC,3144,Australia,"1412 High Street, MALVERN,VIC, 3144,Australia",-37.85825558,145.0405158
Domino's,Geelong West,202-210 Latrobe Terrace,GEELONG WEST,VIC,3218,Australia,"202-210 Latrobe Terrace, GEELONG WEST,VIC, 3218,Australia",-38.14406699,144.3530636
Domino's,Seabrook,Seabrook Plaza Shopping Centre Shop 1 73-75 Point Cook Rd,SEABROOK,VIC,3028,Australia,"Seabrook Plaza Shopping Centre Shop 1 73-75 Point Cook Rd, SEABROOK,VIC, 3028,Australia",-37.87707379,144.7582056
Domino's,Portland,83A Percy Street,PORTLAND,VIC,3305,Australia,"83A Percy Street, PORTLAND,VIC, 3305,Australia",-38.34606965,141.6034738
Domino's,Corio,Shop G031a Corio Village Shopping Centre 83A Purnell Road,CORIO,VIC,3214,Australia,"Shop G031a Corio Village Shopping Centre 83A Purnell Road, CORIO,VIC, 3214,Australia",-38.07394357,144.3554964
Domino's,Keilor East,Shop 26 Milleara Shopping Centre Cnr Milleara & Buckley Streets,KEILOR EAST,VIC,3033,Australia,"Shop 26 Milleara Shopping Centre Cnr Milleara & Buckley Streets, KEILOR EAST,VIC, 3033,Australia",-37.75083889,144.8618561
Domino's,Wyndham Vale,1/210 Ballan Road,WYNDHAM VALE,VIC,3024,Australia,"1/210 Ballan Road, WYNDHAM VALE,VIC, 3024,Australia",-37.89146128,144.6301894
Domino's,Sydenham,Shop 1 595 Melton Highway,SYDENHAM,VIC,3037,Australia,"Shop 1 595 Melton Highway, SYDENHAM,VIC, 3037,Australia",-37.69382737,144.7544779
Domino's,Wheelers Hill,Tenancy 12-14 190 Jells Road,WHEELERS HILL,VIC,3150,Australia,"Tenancy 12-14 190 Jells Road, WHEELERS HILL,VIC, 3150,Australia",-37.90978417,145.1888361
Domino's,St Kilda,Shop 1 12 Fitzroy Street,SAINT KILDA,VIC,3182,Australia,"Shop 1 12 Fitzroy Street, SAINT KILDA,VIC, 3182,Australia",-37.86140868,144.9740764
Domino's,Werribee,Shop 5 57-61 Synnot St,WERRIBEE,VIC,3030,Australia,"Shop 5 57-61 Synnot St, WERRIBEE,VIC, 3030,Australia",-37.90372376,144.6600685
Domino's,Rye,3/2353-2359 Point Nepean Rd,RYE,VIC,3941,Australia,"3/2353-2359 Point Nepean Rd, RYE,VIC, 3941,Australia",-38.37066785,144.8232525
Domino's,Brighton Vic,331 Bay Street,BRIGHTON,VIC,3186,Australia,"331 Bay Street, BRIGHTON,VIC, 3186,Australia",-37.90546698,145.003451
Domino's,Oakleigh,Shop 1 19-21 Hanover Street,OAKLEIGH,VIC,3166,Australia,"Shop 1 19-21 Hanover Street, OAKLEIGH,VIC, 3166,Australia",-37.90085824,145.0917337
Domino's,Warrnambool,Shop 3 Northpoint Shopping Centre 72 Hopkins Highway,WARRNAMBOOL,VIC,3280,Australia,"Shop 3 Northpoint Shopping Centre 72 Hopkins Highway, WARRNAMBOOL,VIC, 3280,Australia",-38.36549546,142.4948996
Domino's,Sunbury,Store Closed Effect 9/1/09,SUNBURY,VIC,3429,Australia,"Store Closed Effect 9/1/09, SUNBURY,VIC, 3429,Australia",-37.5794297,144.7287551
Domino's,Epping North,Cnr Epping Road Lyndarum Drive,EPPING,VIC,3076,Australia,"Cnr Epping Road Lyndarum Drive, EPPING,VIC, 3076,Australia",-37.63045899,145.0173892
Domino's,Sale,Shop 3 180 - 182 York St,SALE,VIC,3850,Australia,"Shop 3 180 - 182 York St, SALE,VIC, 3850,Australia",-38.10669142,147.0684342
Domino's,Ararat,Shop 3 & 4 Safeway Complex 1 Ingor Street,ARARAT,VIC,3377,Australia,"Shop 3 & 4 Safeway Complex 1 Ingor Street, ARARAT,VIC, 3377,Australia",-37.28317572,142.9273855
Domino's,Traralgon,35 Princes Highway,TRARALGON,VIC,3844,Australia,"35 Princes Highway, TRARALGON,VIC, 3844,Australia",-38.1984083,146.5388871
Domino's,Hampton Park (Vic),Shop 71 Hampton Park Shopping Square Hallam Road & Somerville Road,HAMPTON PARK,VIC,3976,Australia,"Shop 71 Hampton Park Shopping Square Hallam Road & Somerville Road, HAMPTON PARK,VIC, 3976,Australia",-38.03221808,145.2678525
Domino's,Bacchus Marsh,113 Main Street,BACCHUS MARSH,VIC,3340,Australia,"113 Main Street, BACCHUS MARSH,VIC, 3340,Australia",-37.67574559,144.4356869
Domino's,Cheltenham,G02 295 Charman Rd,CHELTENHAM,VIC,3192,Australia,"G02 295 Charman Rd, CHELTENHAM,VIC, 3192,Australia",-37.96554683,145.0554294
Domino's,Moe,1/85 Albert Street,MOE,VIC,3825,Australia,"1/85 Albert Street, MOE,VIC, 3825,Australia",-38.17482154,146.2605401
Domino's,Bairnsdale,51C Main Street,BAIRNSDALE,VIC,3875,Australia,"51C Main Street, BAIRNSDALE,VIC, 3875,Australia",-37.82580764,147.6354416
Pizza Hut,Albany,"Shop 1, 69 Lockyer Avenue",Albany,WA,6330,Australia,"Shop 1, 69 Lockyer Avenue,Albany,WA,6330,Australia",-35.01855383,117.8835337
Pizza Hut,Alderley,"Shop 2, 30 South Pine Rd",Alderley,QLD,4051,Australia,"Shop 2, 30 South Pine Rd,Alderley,QLD,4051,Australia",-27.4244276,153.000184
Pizza Hut,Alice Springs,"Shops 25 & 26 Alice Springs Shopping Centre Shops, Cnr Bath Street and Gregory Terrace",Alice Springs,NT,870,Australia,"Shops 25 & 26 Alice Springs Shopping Centre Shops, Cnr Bath Street and Gregory Terrace,Alice Springs,NT,870,Australia",-23.6998658,133.879586
Pizza Hut,Armadale,Shop 11 Haynes Shop Centre Cnr Armadale & Eight Rd's,Armadale,WA,6112,Australia,"Shop 11 Haynes Shop Centre Cnr Armadale & Eight Rd's,Armadale,WA,6112,Australia",-32.1470371,115.9840178
Pizza Hut,Armidale,113-115 Rusden St,Armidale,NSW,2350,Australia,"113-115 Rusden St,Armidale,NSW,2350,Australia",-30.51517636,151.6682038
Pizza Hut,Ashgrove,"Shop 2, 214 Waterworks Rd",Ashgrove,QLD,4060,Australia,"Shop 2, 214 Waterworks Rd,Ashgrove,QLD,4060,Australia",-27.4457157,152.9936185
Pizza Hut,Ashmore,458 Olsen Avenue,Molendinar,QLD,4214,Australia,"458 Olsen Avenue,Molendinar,QLD,4214,Australia",-27.96972446,153.3757692
Pizza Hut,Aspley,"Shop 10, 1370 Gympie Rd",Aspley,QLD,4034,Australia,"Shop 10, 1370 Gympie Rd,Aspley,QLD,4034,Australia",-27.36255176,153.01633
Pizza Hut,Augustine Heights,"Shop T7, 118 Augusta Pwy",Augustine Heights,QLD,4300,Australia,"Shop T7, 118 Augusta Pwy,Augustine Heights,QLD,4300,Australia",-27.66529064,152.8909559
Pizza Hut,Balga,"Shop 10A Fieldgate Square, 25 Culloton Cres",Balga,WA,6061,Australia,"Shop 10A Fieldgate Square, 25 Culloton Cres,Balga,WA,6061,Australia",-31.84838997,115.82526
Pizza Hut,Balgowlah,312 Sydney Rd,Balgowlah,NSW,2093,Australia,"312 Sydney Rd,Balgowlah,NSW,2093,Australia",-33.79435566,151.2657142
Pizza Hut,Ballajura,"Shop 1, 329 Alexander Drive",Ballajura,WA,6066,Australia,"Shop 1, 329 Alexander Drive,Ballajura,WA,6066,Australia",-31.82741548,115.8772015
Pizza Hut,Ballarat Dine In,31 Victoria St,Ballarat Dine In,VIC,3350,Australia,"31 Victoria St,Ballarat Dine In,VIC,3350,Australia",-37.56226883,143.8668054
Pizza Hut,Bankstown,242 Chapel Rd Sth,Bankstown,NSW,2200,Australia,"242 Chapel Rd Sth,Bankstown,NSW,2200,Australia",-33.92128513,151.0308639
Pizza Hut,Bassendean,"Shop 23B, Bassendean Shopping Village, Cnr West &, Guildford Rd",Bassendean,WA,6054,Australia,"Shop 23B, Bassendean Shopping Village, Cnr West &, Guildford Rd,Bassendean,WA,6054,Australia",-31.9021054,115.9542907
Pizza Hut,Bateau Bay,161 Cresthaven Ave,Bateau Bay,NSW,2261,Australia,"161 Cresthaven Ave,Bateau Bay,NSW,2261,Australia",-33.38608008,151.4620825
Pizza Hut,Bathurst,"Shop 1, 52 Durham St",Bathurst,NSW,2795,Australia,"Shop 1, 52 Durham St,Bathurst,NSW,2795,Australia",-33.41579778,149.5826435
Pizza Hut,Baulkham Hills,22A Old Northern Rd,Baulkham Hills,NSW,2153,Australia,"22A Old Northern Rd,Baulkham Hills,NSW,2153,Australia",-33.76033658,150.9925619
Pizza Hut,Beenleigh,"112 City Rd, Enter via George St",Beenleigh,QLD,4207,Australia,"112 City Rd, Enter via George St,Beenleigh,QLD,4207,Australia",-27.71364475,153.2028592
Pizza Hut,Beerwah,4/70 Simpson Rd,Beerwah,QLD,4519,Australia,"4/70 Simpson Rd,Beerwah,QLD,4519,Australia",-26.85886488,152.9576281
Pizza Hut,Belfield,26A Burwood Rd,Belfield,NSW,2191,Australia,"26A Burwood Rd,Belfield,NSW,2191,Australia",-33.90335636,151.0839003
Pizza Hut,Bell Post Hill,"Shop 23, 290 Anakie Rd",Bell Post Hill,VIC,3214,Australia,"Shop 23, 290 Anakie Rd,Bell Post Hill,VIC,3214,Australia",-38.08960114,144.3358145
Pizza Hut,Bellbowrie,37 Birkin Rd,Bellbowrie,QLD,4070,Australia,"37 Birkin Rd,Bellbowrie,QLD,4070,Australia",-27.56314365,152.8886433
Pizza Hut,Belmont Village,"Shop 13B, 65 High St",Belmont,VIC,3216,Australia,"Shop 13B, 65 High St,Belmont,VIC,3216,Australia",-38.17016409,144.349361
Pizza Hut,Belmont Wa,"Shop 1A, 268 Belmont Ave, Cnr Fulham St",Cloverdale,WA,6105,Australia,"Shop 1A, 268 Belmont Ave, Cnr Fulham St,Cloverdale,WA,6105,Australia",-31.96697999,115.93448
Pizza Hut,Bentleigh East,697 Centre Rd,Bentleigh East,VIC,3165,Australia,"697 Centre Rd,Bentleigh East,VIC,3165,Australia",-37.92044959,145.0549389
Pizza Hut,Bentley Park,"Shop 12b, 96 Mclaughlin Rd",Bentley Park,QLD,4869,Australia,"Shop 12b, 96 Mclaughlin Rd,Bentley Park,QLD,4869,Australia",-17.00564295,145.742158
Pizza Hut,Beverly Hills,322 King Georges Rd,Beverly Hills,NSW,2209,Australia,"322 King Georges Rd,Beverly Hills,NSW,2209,Australia",-33.94030425,151.0760849
Pizza Hut,Blacktown,88 Reservoir Rd,Blacktown,NSW,2148,Australia,"88 Reservoir Rd,Blacktown,NSW,2148,Australia",-33.78466057,150.8995478
Pizza Hut,Blackwater,"Shop 9, 5 Rufus St",Blackwater,QLD,4717,Australia,"Shop 9, 5 Rufus St,Blackwater,QLD,4717,Australia",-23.58345978,148.8804724
Pizza Hut,Bonnyrigg,"Shop 3 Rigg Plaza, 5 Rigg Pl",Bonnyrigg,NSW,2177,Australia,"Shop 3 Rigg Plaza, 5 Rigg Pl,Bonnyrigg,NSW,2177,Australia",-33.89398372,150.8906785
Pizza Hut,Boonooroo Park,"Shop 10, Cnr Nielsens Rd & Coelia Crt",Carrara,QLD,4211,Australia,"Shop 10, Cnr Nielsens Rd & Coelia Crt,Carrara,QLD,4211,Australia",-28.015924,153.351473
Pizza Hut,Bowen,21 Herbert St,Bowen,QLD,4805,Australia,"21 Herbert St,Bowen,QLD,4805,Australia",-20.0148855,148.2476471
Pizza Hut,Brassall,"Shop 38B, 68 Hunter St",Brassall,QLD,4305,Australia,"Shop 38B, 68 Hunter St,Brassall,QLD,4305,Australia",-27.59711743,152.7479711
Pizza Hut,Brinsmead,Shop 2 / 101-115 Brinsmead Rd,Brinsmead,QLD,4870,Australia,"Shop 2 / 101-115 Brinsmead Rd,Brinsmead,QLD,4870,Australia",-16.90668155,145.7107131
Pizza Hut,Broadbeach,"Shop 7, 2633 Gold Coast Highway",Broadbeach,QLD,4218,Australia,"Shop 7, 2633 Gold Coast Highway,Broadbeach,QLD,4218,Australia",-28.03593165,153.4323563
Pizza Hut,Browns Plains Restaurant,"1-25 Browns Plains Rd, Grand Plaza Shopping Centre",Browns Plains,QLD,4118,Australia,"1-25 Browns Plains Rd, Grand Plaza Shopping Centre,Browns Plains,QLD,4118,Australia",-27.66289429,153.0403557
Pizza Hut,Bunbury,"T13-14/123 Spencer Street,",South Bunbury,WA,6230,Australia,"T13-14/123 Spencer Street,,South Bunbury,WA,6230,Australia",-33.33716999,115.64058
Pizza Hut,Bundaberg,224 Bourbong Rd,Bundaberg West,QLD,4670,Australia,"224 Bourbong Rd,Bundaberg West,QLD,4670,Australia",-24.8681283,152.3431584
Pizza Hut,Bundoora,"Shop 9 Bld H, Polaris Town Centre, Copernicus Crt",Bundoora,VIC,3083,Australia,"Shop 9 Bld H, Polaris Town Centre, Copernicus Crt,Bundoora,VIC,3083,Australia",-37.6969263,145.0586386
Pizza Hut,Burleigh Waters,"Shop 6, 1 Santa Maria Pl",Burleigh Waters,QLD,4220,Australia,"Shop 6, 1 Santa Maria Pl,Burleigh Waters,QLD,4220,Australia",-28.07618569,153.4231316
Pizza Hut,Byford,"Shop 2 Byford Centre, 837 South Western Hwy",Byford,WA,6122,Australia,"Shop 2 Byford Centre, 837 South Western Hwy,Byford,WA,6122,Australia",-32.21885999,116.00833
Pizza Hut,Caboolture,22 Rowe Street,Caboolture,QLD,4510,Australia,"22 Rowe Street,Caboolture,QLD,4510,Australia",-27.07873855,152.9543958
Pizza Hut,Cairns,"Shop 3, 213 Sheridan St",Cairns,QLD,4870,Australia,"Shop 3, 213 Sheridan St,Cairns,QLD,4870,Australia",-16.91353908,145.7645271
Pizza Hut,Cambridge Gardens,2-6 Star Ct,Cambridge Gardens,NSW,2747,Australia,"2-6 Star Ct,Cambridge Gardens,NSW,2747,Australia",-33.74021004,150.7173023
Pizza Hut,Camden,"Shop 1, 166-172 Argyle St",Camden,NSW,2570,Australia,"Shop 1, 166-172 Argyle St,Camden,NSW,2570,Australia",-34.05554549,150.6946213
Pizza Hut,Camp Hill,"Unit 1, 412 Old Cleveland Rd",Camp Hill,QLD,4152,Australia,"Unit 1, 412 Old Cleveland Rd,Camp Hill,QLD,4152,Australia",-27.49188628,153.0639247
Pizza Hut,Campbell,15 Provan St,Campbell,ACT,2612,Australia,"15 Provan St,Campbell,ACT,2612,Australia",-35.28982419,149.1433901
Pizza Hut,Campbelltown,174 Queen St,Campbelltown,NSW,2560,Australia,"174 Queen St,Campbelltown,NSW,2560,Australia",-34.06676802,150.8145805
Pizza Hut,Canley Vale,"Shop 1, 17 Canley Vale Rd",Canley Vale,NSW,2166,Australia,"Shop 1, 17 Canley Vale Rd,Canley Vale,NSW,2166,Australia",-33.88684657,150.9427234
Pizza Hut,Cannon Hill,"Shop 8, 936 Wynnum Rd",Cannon Hill,QLD,4170,Australia,"Shop 8, 936 Wynnum Rd,Cannon Hill,QLD,4170,Australia",-27.46820192,153.0891809
Pizza Hut,Capalaba,"Shop 2, 131 Old Cleveland Rd",Capalaba,QLD,4157,Australia,"Shop 2, 131 Old Cleveland Rd,Capalaba,QLD,4157,Australia",-27.52101788,153.1945373
Pizza Hut,Carina,"Shop 2, 1396 Creek Rd",Carina,QLD,4152,Australia,"Shop 2, 1396 Creek Rd,Carina,QLD,4152,Australia",-27.49340932,153.1012831
Pizza Hut,Carlingford,322 Pennant Hills Road,Carlingford,NSW,2118,Australia,"322 Pennant Hills Road,Carlingford,NSW,2118,Australia",-33.78329931,151.047418
Pizza Hut,Caroline Springs,"Shop 13 North Lake Shopping Centre, 106 Gourlay Rd",Caroline Springs,VIC,3023,Australia,"Shop 13 North Lake Shopping Centre, 106 Gourlay Rd,Caroline Springs,VIC,3023,Australia",-37.71028171,144.7402533
Pizza Hut,Carrum Downs,"Shop 4 Carrum Downs Shop Centre, 100 Hall Rd",Carrum Downs,VIC,3201,Australia,"Shop 4 Carrum Downs Shop Centre, 100 Hall Rd,Carrum Downs,VIC,3201,Australia",-38.10141807,145.1853738
Pizza Hut,Castle Hill,27 Victoria Ave,Castle Hill,NSW,2154,Australia,"27 Victoria Ave,Castle Hill,NSW,2154,Australia",-33.72711344,150.9786094
Pizza Hut,Chancellor Park,"Shop 11, 1-19 Chancellor Village Bvd",Sippy Downs,QLD,4556,Australia,"Shop 11, 1-19 Chancellor Village Bvd,Sippy Downs,QLD,4556,Australia",-26.71876317,153.0494232
Pizza Hut,Charters Towers,Church St,Charters Towers,QLD,4820,Australia,"Church St,Charters Towers,QLD,4820,Australia",-20.08049857,146.2610581
Pizza Hut,Chester Hill,185-187 Priam St,Chester Hill,NSW,2162,Australia,"185-187 Priam St,Chester Hill,NSW,2162,Australia",-33.88315362,151.0022432
Pizza Hut,Clarkson,"Shop 4, 1868 Marmion Ave",Clarkson,WA,6030,Australia,"Shop 4, 1868 Marmion Ave,Clarkson,WA,6030,Australia",-31.69034998,115.71552
Pizza Hut,Cleveland,197-203 Bloomfield St,Cleveland,QLD,4163,Australia,"197-203 Bloomfield St,Cleveland,QLD,4163,Australia",-27.53183397,153.2661679
Pizza Hut,Clontarf,"Shop 15, 9 Elizabeth Ave",Clontarf,QLD,4019,Australia,"Shop 15, 9 Elizabeth Ave,Clontarf,QLD,4019,Australia",-27.26072622,153.0796718
Pizza Hut,Collaroy,"Shop C, 996 Pittwater Rd",Collaroy,NSW,2097,Australia,"Shop C, 996 Pittwater Rd,Collaroy,NSW,2097,Australia",-33.7388453,151.3029203
Pizza Hut,Collingwood,27 Victoria Pde,Collingwood,VIC,3066,Australia,"27 Victoria Pde,Collingwood,VIC,3066,Australia",-37.80864498,144.983568
Pizza Hut,Coolalinga,425 Stuart Hwy,Coolalinga,NT,839,Australia,"425 Stuart Hwy,Coolalinga,NT,839,Australia",-12.52086295,131.0409806
Pizza Hut,Coopers Plains,"Shop 4, 19 Kessles Rd",Cooper Plains,QLD,4108,Australia,"Shop 4, 19 Kessles Rd,Cooper Plains,QLD,4108,Australia",-27.55774017,153.0419311
Pizza Hut,Craigieburn,3 Highlander Drive,Craigieburn,VIC,3064,Australia,"3 Highlander Drive,Craigieburn,VIC,3064,Australia",-37.59100011,144.893532
Pizza Hut,Cranbourne,65 High St,Cranbourne,VIC,3977,Australia,"65 High St,Cranbourne,VIC,3977,Australia",-38.11128541,145.2827992
Pizza Hut,Croydon North,"Shop 4, 427 Maroondah Highway",Croydon,VIC,3136,Australia,"Shop 4, 427 Maroondah Highway,Croydon,VIC,3136,Australia",-37.77029899,145.295047
Pizza Hut,Currimundi,"Shop 2 Currimundi Markets, 754 Nicklin Way",Currimundi,QLD,4551,Australia,"Shop 2 Currimundi Markets, 754 Nicklin Way,Currimundi,QLD,4551,Australia",-26.77277247,153.1233601
Pizza Hut,Dandenong,"Shop 12, 30 Langhorne St",Dandenong,VIC,3175,Australia,"Shop 12, 30 Langhorne St,Dandenong,VIC,3175,Australia",-37.98928438,145.2164851
Pizza Hut,Dapto,"Shop 2, 32 Princes Hwy",Dapto,NSW,2530,Australia,"Shop 2, 32 Princes Hwy,Dapto,NSW,2530,Australia",-34.49172988,150.7956099
Pizza Hut,Darra,"Shop 7, 166 Monier Rd",Darra,QLD,4027,Australia,"Shop 7, 166 Monier Rd,Darra,QLD,4027,Australia",-27.55902378,152.9510198
Pizza Hut,Deer Park,"Shop 11, 837A Ballarat Rd",Deer Park,VIC,3023,Australia,"Shop 11, 837A Ballarat Rd,Deer Park,VIC,3023,Australia",-37.77004514,144.7714702
Pizza Hut,Deeragun,"Shop 3, 2-10 Deeragun Rd",Deeragun,QLD,4818,Australia,"Shop 3, 2-10 Deeragun Rd,Deeragun,QLD,4818,Australia",-19.24856585,146.6813418
Pizza Hut,Docklands,"Shop 12, 57 Batmans Hill Dr",Docklands,VIC,3008,Australia,"Shop 12, 57 Batmans Hill Dr,Docklands,VIC,3008,Australia",-37.81947226,144.9478449
Pizza Hut,Doncaster East,5/15 Blackburn Rd,Doncaster East,VIC,3109,Australia,"5/15 Blackburn Rd,Doncaster East,VIC,3109,Australia",-37.79978774,145.1596238
Pizza Hut,Doonside,"Woodcroft Dr, Shop 16 Woodcroft Plaza",Doonside,NSW,2767,Australia,"Woodcroft Dr, Shop 16 Woodcroft Plaza,Doonside,NSW,2767,Australia",-33.748601,150.879483
Pizza Hut,Dubbo,"Shop 3, 14 Cobra St",Dubbo,NSW,2830,Australia,"Shop 3, 14 Cobra St,Dubbo,NSW,2830,Australia",-32.25285481,148.6007291
Pizza Hut,Earlwood,3 Clarke St,Earlwood,NSW,2206,Australia,"3 Clarke St,Earlwood,NSW,2206,Australia",-33.92609953,151.1248696
Pizza Hut,East Maitland,99 Lawes St,East Maitland,NSW,2323,Australia,"99 Lawes St,East Maitland,NSW,2323,Australia",-32.75079116,151.5892524
Pizza Hut,Eastwood,79 Balaclava Rd,Eastwood,NSW,2122,Australia,"79 Balaclava Rd,Eastwood,NSW,2122,Australia",-33.78430124,151.094234
Pizza Hut,Ellenbrook,"Shop 6, Aveley Central, 1549 Gnangara Rd",Aveley,WA,6069,Australia,"Shop 6, Aveley Central, 1549 Gnangara Rd,Aveley,WA,6069,Australia",-31.79501523,115.9803112
Pizza Hut,Emerald,63 Hospital Rd,Emerald,QLD,4720,Australia,"63 Hospital Rd,Emerald,QLD,4720,Australia",-23.51681837,148.1561847
Pizza Hut,Emerald Hills,13 Raby Road,Leppington,NSW,2179,Australia,"13 Raby Road,Leppington,NSW,2179,Australia",-33.99666497,150.7907485
Pizza Hut,Emerton,"Shop 2, 127-129 Popondetta Rd",Emerton,NSW,2770,Australia,"Shop 2, 127-129 Popondetta Rd,Emerton,NSW,2770,Australia",-33.74521206,150.8101877
Pizza Hut,Erindale,"Shop 2, 38 Gartside St",Canberra,ACT,2903,Australia,"Shop 2, 38 Gartside St,Canberra,ACT,2903,Australia",-35.4057351,149.1003973
Pizza Hut,Everton Park,"Shop 24 Northwest Plaza, 97 Flockton St",Everton Park,QLD,4053,Australia,"Shop 24 Northwest Plaza, 97 Flockton St,Everton Park,QLD,4053,Australia",-27.3951094,152.9963253
Pizza Hut,Fairfield Heights,259 The Boulevarde,Fairfield Heights,NSW,2165,Australia,"259 The Boulevarde,Fairfield Heights,NSW,2165,Australia",-33.86260016,150.9385777
Pizza Hut,Fairfield Waters,"Shop T2, The Precinct, 40-42 Stuart Drive",Idalia,QLD,4811,Australia,"Shop T2, The Precinct, 40-42 Stuart Drive,Idalia,QLD,4811,Australia",-19.30822794,146.8055211
Pizza Hut,Fairy Meadow,12-16 Princes Highway Fairy Meadow,Wollongong,NSW,2519,Australia,"12-16 Princes Highway Fairy Meadow,Wollongong,NSW,2519,Australia",-34.38752564,150.8946836
Pizza Hut,Fernvale,1456 Brisbane Valley Hwy,Fernvale,QLD,4306,Australia,"1456 Brisbane Valley Hwy,Fernvale,QLD,4306,Australia",-27.45659713,152.6548
Pizza Hut,Flemington,103 Mt. Alexander Rd,Flemington,VIC,3031,Australia,"103 Mt. Alexander Rd,Flemington,VIC,3031,Australia",-37.78385647,144.9362046
Pizza Hut,Footscray,"Shop 3, 203 Ballarat Rd",Footscray,VIC,3011,Australia,"Shop 3, 203 Ballarat Rd,Footscray,VIC,3011,Australia",-37.79129536,144.8891419
Pizza Hut,Forest Lake,251 Forest Lake Blvd,Forest Lake,QLD,4078,Australia,"251 Forest Lake Blvd,Forest Lake,QLD,4078,Australia",-27.62560203,152.9699406
Pizza Hut,Frenchs Forest,"Shop 2, 55 Sorlie Rd",Frenchs Forest,NSW,2086,Australia,"Shop 2, 55 Sorlie Rd,Frenchs Forest,NSW,2086,Australia",-33.74543008,151.215654
Pizza Hut,Gawler,29 Adelaide Rd,Gawler,SA,5118,Australia,"29 Adelaide Rd,Gawler,SA,5118,Australia",-34.6062662,138.7443633
Pizza Hut,Geraldton,57/95 Durlacher St,Geraldton,WA,6530,Australia,"57/95 Durlacher St,Geraldton,WA,6530,Australia",-28.77584998,114.61492
Pizza Hut,Gladstone,"Shop 53, 71-77 Dawson Hwy",Gladstone,QLD,4680,Australia,"Shop 53, 71-77 Dawson Hwy,Gladstone,QLD,4680,Australia",-23.88365609,151.2094024
Pizza Hut,Glenwood Park,"Shop 6, 60 Glenwood Park Dr",Glenwood Park,NSW,2768,Australia,"Shop 6, 60 Glenwood Park Dr,Glenwood Park,NSW,2768,Australia",-33.73412473,150.9281466
Pizza Hut,Golden Point,507 Main Rd,Golden Point,VIC,3350,Australia,"507 Main Rd,Golden Point,VIC,3350,Australia",-37.57565753,143.8689351
Pizza Hut,Goodna,"St Ives Shopping Centre, Smiths Rd",Goodna,QLD,4300,Australia,"St Ives Shopping Centre, Smiths Rd,Goodna,QLD,4300,Australia",-27.6101501,152.8983033
Pizza Hut,Griffith,450 Banna Ave,Griffith,NSW,2680,Australia,"450 Banna Ave,Griffith,NSW,2680,Australia",-34.28773829,146.041086
Pizza Hut,Guildford,283 Woodville Rd,Guildford,NSW,2161,Australia,"283 Woodville Rd,Guildford,NSW,2161,Australia",-33.84983959,150.9971729
Pizza Hut,Gungahlin,4/26 Ernest Cavanagh St,Gungahlin,ACT,2912,Australia,"4/26 Ernest Cavanagh St,Gungahlin,ACT,2912,Australia",-35.18401356,149.1316726
Pizza Hut,Gunnedah,2/1 Kamilaroi Hwy,Gunnedah,NSW,2380,Australia,"2/1 Kamilaroi Hwy,Gunnedah,NSW,2380,Australia",-30.95708412,150.2231813
Pizza Hut,Gympie Dine In,112 Bruce Hwy,Gympie,QLD,4570,Australia,"112 Bruce Hwy,Gympie,QLD,4570,Australia",-26.19925831,152.6667006
Pizza Hut,Harvest Lakes,"Shop T14 Harvest Lakes Shopping Centre, 89 Lyon Rd",Atwell,WA,6164,Australia,"Shop T14 Harvest Lakes Shopping Centre, 89 Lyon Rd,Atwell,WA,6164,Australia",-32.15695432,115.8612079
Pizza Hut,Helensvale,9 Sir John Overall Dr,Helensvale,QLD,4212,Australia,"9 Sir John Overall Dr,Helensvale,QLD,4212,Australia",-27.9222748,153.3356801
Pizza Hut,Hervey Bay,Shop 2/161 Boat Harbour Dr,Hervey Bay,QLD,4655,Australia,"Shop 2/161 Boat Harbour Dr,Hervey Bay,QLD,4655,Australia",-25.28834475,152.8362837
Pizza Hut,Holland Park,"1230 Logan Rd, Homemaker Centre",Holland Park,QLD,4121,Australia,"1230 Logan Rd, Homemaker Centre,Holland Park,QLD,4121,Australia",-27.529361,153.071774
Pizza Hut,Hollywood Plaza,"Shop 101 Hollywood Plaza, 122-200 Winzor St",Salisbury Downs,SA,5108,Australia,"Shop 101 Hollywood Plaza, 122-200 Winzor St,Salisbury Downs,SA,5108,Australia",-34.767388,138.6236104
Pizza Hut,Hornsby,9a Salisbury Rd,Hornsby,NSW,2077,Australia,"9a Salisbury Rd,Hornsby,NSW,2077,Australia",-33.69767448,151.1106536
Pizza Hut,Howrah,225 Clarence St,Howrah,TAS,7018,Australia,"225 Clarence St,Howrah,TAS,7018,Australia",-42.87911457,147.4013676
Pizza Hut,Ingleburn,38 Carlisle St,Ingleburn,NSW,2565,Australia,"38 Carlisle St,Ingleburn,NSW,2565,Australia",-33.99913947,150.8655523
Pizza Hut,Innaloo,387 Scarborough Beach Rd,Innaloo,WA,6018,Australia,"387 Scarborough Beach Rd,Innaloo,WA,6018,Australia",-31.90282323,115.7977897
Pizza Hut,Ipswich,37-41 Brisbane Street,Ipswich,QLD,4305,Australia,"37-41 Brisbane Street,Ipswich,QLD,4305,Australia",-27.61505307,152.7631674
Pizza Hut,Jerrabomberra,"Shop 10B, Jerrabomberra Village, Limestone Drive",Jerrabomberra,NSW,2619,Australia,"Shop 10B, Jerrabomberra Village, Limestone Drive,Jerrabomberra,NSW,2619,Australia",-35.379837,149.2006929
Pizza Hut,Jesmond,18 Blue Gum Rd,Jesmond,NSW,2299,Australia,"18 Blue Gum Rd,Jesmond,NSW,2299,Australia",-32.90366073,151.6905551
Pizza Hut,Joondalup,"Shop 1, 45 Candlewood Blvd",Joondalup,WA,6027,Australia,"Shop 1, 45 Candlewood Blvd,Joondalup,WA,6027,Australia",-31.72868474,115.764365
Pizza Hut,Kawana Waters,"Tenancy 5, 1 Kensington Drive",Minyama,QLD,4575,Australia,"Tenancy 5, 1 Kensington Drive,Minyama,QLD,4575,Australia",-26.70089945,153.1236724
Pizza Hut,Keilor,702B Old Calder Hwy,Keilor,VIC,3036,Australia,"702B Old Calder Hwy,Keilor,VIC,3036,Australia",-37.71877312,144.8345787
Pizza Hut,Kings Meadows,142 Hobart Rd,Kings Meadows,TAS,7249,Australia,"142 Hobart Rd,Kings Meadows,TAS,7249,Australia",-41.46960703,147.1609313
Pizza Hut,Kippax,"Block 2 Section 52 Kippax Centre, 102 Hardwick Cr",Kippax,ACT,2615,Australia,"Block 2 Section 52 Kippax Centre, 102 Hardwick Cr,Kippax,ACT,2615,Australia",-35.22131753,149.0183345
Pizza Hut,Kirwan,"Shop 8A, 109 Thuringowa Dr",Kirwan,QLD,4817,Australia,"Shop 8A, 109 Thuringowa Dr,Kirwan,QLD,4817,Australia",-19.30331623,146.7353409
Pizza Hut,Knox,"Shop 46, 450 Burwood Hwy",Wantirna South,VIC,3152,Australia,"Shop 46, 450 Burwood Hwy,Wantirna South,VIC,3152,Australia",-37.87065598,145.238957
Pizza Hut,Kogarah,45 Regent St,Kogarah,NSW,2217,Australia,"45 Regent St,Kogarah,NSW,2217,Australia",-33.96197445,151.1349669
Pizza Hut,Kwinana,"4 Chisham Ave, Kwinana Marketplace",Kwinana,WA,6167,Australia,"4 Chisham Ave, Kwinana Marketplace,Kwinana,WA,6167,Australia",-32.24588798,115.813962
Pizza Hut,Kyogle,72 Summerland Way,Kyogle,NSW,2474,Australia,"72 Summerland Way,Kyogle,NSW,2474,Australia",-28.6202,153.004158
Pizza Hut,Lithgow,132 Main St,Lithgow,NSW,2790,Australia,"132 Main St,Lithgow,NSW,2790,Australia",-33.48129217,150.1558844
Pizza Hut,Liverpool,"Shop 1, 52 Memorial Ave",Liverpool,NSW,2170,Australia,"Shop 1, 52 Memorial Ave,Liverpool,NSW,2170,Australia",-33.92481978,150.9210573
Pizza Hut,Loganholme,"37-59 Bryants Rd, Shop 31A",Brisbane,QLD,4129,Australia,"37-59 Bryants Rd, Shop 31A,Brisbane,QLD,4129,Australia",-27.66348161,153.1759724
Pizza Hut,Lurnea,172 Hoxton Park Rd,Lurnea,NSW,2170,Australia,"172 Hoxton Park Rd,Lurnea,NSW,2170,Australia",-33.92661972,150.8987682
Pizza Hut,Mango Hill,"Shop 2, 2 Halpine Dr",Mango Hill,QLD,4509,Australia,"Shop 2, 2 Halpine Dr,Mango Hill,QLD,4509,Australia",-27.24271715,153.0243742
Pizza Hut,Maroochydore,"Shop 2A, 69 Maud St",Sunshine Coast,QLD,4558,Australia,"Shop 2A, 69 Maud St,Sunshine Coast,QLD,4558,Australia",-26.66288241,153.0929485
Pizza Hut,Maroubra,979 Anzac Pde,Maroubra,NSW,2035,Australia,"979 Anzac Pde,Maroubra,NSW,2035,Australia",-33.95071521,151.240912
Pizza Hut,Marrickville,232 Marrickville Rd,Marrickville,NSW,2204,Australia,"232 Marrickville Rd,Marrickville,NSW,2204,Australia",-33.9118277,151.1585443
Pizza Hut,Marsden,"Shop 2, 42 Bourke St",Marsden,QLD,4132,Australia,"Shop 2, 42 Bourke St,Marsden,QLD,4132,Australia",-27.68108767,153.1170431
Pizza Hut,Marsden Park,9 Hollinsworth Rd,Marsden Park,NSW,2765,Australia,"9 Hollinsworth Rd,Marsden Park,NSW,2765,Australia",-33.71983434,150.8403905
Pizza Hut,Mascot,938 Botany Rd,Mascot,NSW,2020,Australia,"938 Botany Rd,Mascot,NSW,2020,Australia",-33.93018872,151.1942403
Pizza Hut,Melton,37 Bakery Square,Melton,VIC,3337,Australia,"37 Bakery Square,Melton,VIC,3337,Australia",-37.68408001,144.584335
Pizza Hut,Menai,"Shop 8, 778-786 Old Illawarra Rd",Menai,NSW,2234,Australia,"Shop 8, 778-786 Old Illawarra Rd,Menai,NSW,2234,Australia",-34.01785111,151.0099815
Pizza Hut,Merrylands,"Shop 154, 280 Merrylands Rd",Merrylands,NSW,2160,Australia,"Shop 154, 280 Merrylands Rd,Merrylands,NSW,2160,Australia",-33.83635633,150.9864192
Pizza Hut,Mile End,195 South Rd,Mile End,SA,5031,Australia,"195 South Rd,Mile End,SA,5031,Australia",-34.92663436,138.5702334
Pizza Hut,Mill Park,"Shop 44 The Stables Shopping Centre, Childs Rd",Mill Park,VIC,3082,Australia,"Shop 44 The Stables Shopping Centre, Childs Rd,Mill Park,VIC,3082,Australia",-37.6673799,145.0603246
Pizza Hut,Minto,6/10 Lincoln St,Minto,NSW,2566,Australia,"6/10 Lincoln St,Minto,NSW,2566,Australia",-34.02478889,150.8412324
Pizza Hut,Minto - St Andrews Restaurant,1 Swettenham Rd,Minto,NSW,2566,Australia,"1 Swettenham Rd,Minto,NSW,2566,Australia",-34.02737844,150.8332617
Pizza Hut,Miranda,Shop 1A/94 Karimbla Rd,Miranda,NSW,2228,Australia,"Shop 1A/94 Karimbla Rd,Miranda,NSW,2228,Australia",-34.03735622,151.1019042
Pizza Hut,Moorebank,271-273 Newbridge Rd,Moorebank,NSW,2170,Australia,"271-273 Newbridge Rd,Moorebank,NSW,2170,Australia",-33.92867596,150.9484126
Pizza Hut,Moorooka,Cnr Currey Dr & Fegen Dr,Moorooka,QLD,4105,Australia,"Cnr Currey Dr & Fegen Dr,Moorooka,QLD,4105,Australia",-27.5400324,153.0228531
Pizza Hut,Morayfield,"Morayfield Convenience Centre, 111 William Berry Dr",Morayfield,QLD,4506,Australia,"Morayfield Convenience Centre, 111 William Berry Dr,Morayfield,QLD,4506,Australia",-27.10006144,152.9493464
Pizza Hut,Morley,60 Russell St,Morley,WA,6062,Australia,"60 Russell St,Morley,WA,6062,Australia",-31.89670988,115.8955326
Pizza Hut,Mortdale,50 Morts Rd,Mortdale,NSW,2223,Australia,"50 Morts Rd,Mortdale,NSW,2223,Australia",-33.96932978,151.0794057
Pizza Hut,Mount Druitt,10 Zoe Place,Mt Druitt,NSW,2770,Australia,"10 Zoe Place,Mt Druitt,NSW,2770,Australia",-33.76642674,150.8275157
Pizza Hut,Mount Isa,17-19 Simpson St,Mount Isa,QLD,4825,Australia,"17-19 Simpson St,Mount Isa,QLD,4825,Australia",-20.72689707,139.4938661
Pizza Hut,Mount Pleasant,"Shop 2a, 6 Discovery Lane",Mount Pleasant,QLD,4740,Australia,"Shop 2a, 6 Discovery Lane,Mount Pleasant,QLD,4740,Australia",-21.12836526,149.1649634
Pizza Hut,Mowbray,252 Invermay Rd,Mowbray,TAS,7248,Australia,"252 Invermay Rd,Mowbray,TAS,7248,Australia",-41.40675969,147.1337549
Pizza Hut,Munno Para,"Shop 2 Munno Para Shopping Centre, Munno Para",Adelaide,SA,5113,Australia,"Shop 2 Munno Para Shopping Centre, Munno Para,Adelaide,SA,5113,Australia",-34.687659,138.690571
Pizza Hut,Murray Bridge,"Shop 2, 32 Adelaide Rd",Murray Bridge,SA,5253,Australia,"Shop 2, 32 Adelaide Rd,Murray Bridge,SA,5253,Australia",-35.12137099,139.2712323
Pizza Hut,Nambucca Heads,"Shop 5A Nambucca Plaza, 2191 Giinagay Way",Nambucca Heads,NSW,2448,Australia,"Shop 5A Nambucca Plaza, 2191 Giinagay Way,Nambucca Heads,NSW,2448,Australia",-30.65430853,152.9876188
Pizza Hut,Narangba,212-226 Young Rd,Narangba,QLD,4504,Australia,"212-226 Young Rd,Narangba,QLD,4504,Australia",-27.17284905,152.9378018
Pizza Hut,Narellan,"Shop 21b, Narellan town Centre, 326 Camden valley Way",Narellan,NSW,2567,Australia,"Shop 21b, Narellan town Centre, 326 Camden valley Way,Narellan,NSW,2567,Australia",-34.04168442,150.737155
Pizza Hut,Narre Warren,5-7 Webb St,Narre Warren,VIC,3805,Australia,"5-7 Webb St,Narre Warren,VIC,3805,Australia",-38.02598501,145.303156
Pizza Hut,New Farm,Shop 4/660 Brunswick Street,New Farm,QLD,4005,Australia,"Shop 4/660 Brunswick Street,New Farm,QLD,4005,Australia",-27.46324763,153.0415961
Pizza Hut,New Town Dine In,74 Forster St,Hobart,TAS,7008,Australia,"74 Forster St,Hobart,TAS,7008,Australia",-42.85602341,147.3030972
Pizza Hut,Newcastle,684 Hunter St,Newcastle,NSW,2300,Australia,"684 Hunter St,Newcastle,NSW,2300,Australia",-32.9263228,151.7638115
Pizza Hut,Newcomb,"Shop1, 163 Bellarine Hwy",Geelong,VIC,3219,Australia,"Shop1, 163 Bellarine Hwy,Geelong,VIC,3219,Australia",-38.17378097,144.4039255
Pizza Hut,Newport,"Shop 1, 331-335 Barrenjoey Road",Newport,NSW,2106,Australia,"Shop 1, 331-335 Barrenjoey Road,Newport,NSW,2106,Australia",-33.65543027,151.3189876
Pizza Hut,Noosaville,1/11-19 Hilton Terrace,Noosaville,QLD,4566,Australia,"1/11-19 Hilton Terrace,Noosaville,QLD,4566,Australia",-26.39715202,153.0438
Pizza Hut,North Balwyn,249c Belmore Rd,North Balwyn,VIC,3104,Australia,"249c Belmore Rd,North Balwyn,VIC,3104,Australia",-37.803305,145.083474
Pizza Hut,North Rockhampton,Shop 3A/385/379 Yaamba Road,Park Avenue,QLD,4701,Australia,"Shop 3A/385/379 Yaamba Road,Park Avenue,QLD,4701,Australia",-23.34658853,150.5217131
Pizza Hut,North Strathfield,175 Concord Rd,North Strathfield,NSW,2137,Australia,"175 Concord Rd,North Strathfield,NSW,2137,Australia",-33.85772797,151.0923568
Pizza Hut,North Sydney,"MLC Building , Shop 23/105 Miller Street, cnr Denison & Spring St",North Sydney,NSW,2060,Australia,"MLC Building , Shop 23/105 Miller Street, cnr Denison & Spring St,North Sydney,NSW,2060,Australia",-33.83836053,151.2074944
Pizza Hut,Nowra,"Shop 1, 78 Kinghorne St",Nowra,NSW,2540,Australia,"Shop 1, 78 Kinghorne St,Nowra,NSW,2540,Australia",-34.87545073,150.6032582
Pizza Hut,Nundah,88 Buckland Rd,Nundah,QLD,4012,Australia,"88 Buckland Rd,Nundah,QLD,4012,Australia",-27.40380422,153.0610749
Pizza Hut,Oakey,92 Campbell St,Oakey,QLD,4401,Australia,"92 Campbell St,Oakey,QLD,4401,Australia",-27.43314779,151.7212595
Pizza Hut,Oakleigh,244 Huntingdale Rd,Huntingdale,VIC,3166,Australia,"244 Huntingdale Rd,Huntingdale,VIC,3166,Australia",-37.90546921,145.1048581
Pizza Hut,Orange Dine In,33 Bathurst Rd,Orange,NSW,2800,Australia,"33 Bathurst Rd,Orange,NSW,2800,Australia",-33.2859929,149.1069283
Pizza Hut,Ormeau,"Shop 1, 180 Pascoe Rd",Ormeau,QLD,4208,Australia,"Shop 1, 180 Pascoe Rd,Ormeau,QLD,4208,Australia",-27.76334113,153.2451532
Pizza Hut,Pakenham,"Shop 6, 1 Hunt Way",Pakenham,VIC,3810,Australia,"Shop 6, 1 Hunt Way,Pakenham,VIC,3810,Australia",-38.07944998,145.4920321
Pizza Hut,Palmerston,15 Temple Tce,Palmerston,NT,830,Australia,"15 Temple Tce,Palmerston,NT,830,Australia",-12.48366905,130.9855136
Pizza Hut,Palmwoods,2 Margaret St,Palmwoods,QLD,4555,Australia,"2 Margaret St,Palmwoods,QLD,4555,Australia",-26.68558362,152.9591264
Pizza Hut,Para Vista,296-306 Nelson Rd,Para Vista,SA,5093,Australia,"296-306 Nelson Rd,Para Vista,SA,5093,Australia",-34.81969276,138.661719
Pizza Hut,Parkmore,"Shop Z6 Parkmore Shopping Centre, Cheltenham Rd",Parkmore,VIC,3173,Australia,"Shop Z6 Parkmore Shopping Centre, Cheltenham Rd,Parkmore,VIC,3173,Australia",-37.99397431,145.1732662
Pizza Hut,Parramatta,476 Church St,North Parramatta,NSW,2151,Australia,"476 Church St,North Parramatta,NSW,2151,Australia",-33.80452568,151.0061864
Pizza Hut,Patterson Lakes,SHOP 8/100 Gladesville Bvd,Patterson Lakes,VIC,3197,Australia,"SHOP 8/100 Gladesville Bvd,Patterson Lakes,VIC,3197,Australia",-38.0668472,145.1443218
Pizza Hut,Penrith,"Shop 2, 29 York Rd",Penrith,NSW,2750,Australia,"Shop 2, 29 York Rd,Penrith,NSW,2750,Australia",-33.76407097,150.6884439
Pizza Hut,Perth,"Shop 2, 101 Murray St",Perth,WA,6000,Australia,"Shop 2, 101 Murray St,Perth,WA,6000,Australia",-31.95427818,115.8620403
Pizza Hut,Pimpama,27 Dixon Dr,Pimpama,QLD,4209,Australia,"27 Dixon Dr,Pimpama,QLD,4209,Australia",-27.82585794,153.31755
Pizza Hut,Pittsworth,"Shop 2, 122 Yandilla St",Pittsworth,QLD,4356,Australia,"Shop 2, 122 Yandilla St,Pittsworth,QLD,4356,Australia",-27.71715433,151.6316879
Pizza Hut,Plainland,"Shop H, 4424 Warrego Hwy",Plainland,QLD,4341,Australia,"Shop H, 4424 Warrego Hwy,Plainland,QLD,4341,Australia",-27.5642465,152.4219566
Pizza Hut,Plympton,353 Anzac Hwy,Plympton,SA,5038,Australia,"353 Anzac Hwy,Plympton,SA,5038,Australia",-34.96831643,138.5475794
Pizza Hut,Point Cook,"Shop 30A Sanctuary Lakes Shopping Centre, 300 Point Cook Rd",Point Cook,VIC,3030,Australia,"Shop 30A Sanctuary Lakes Shopping Centre, 300 Point Cook Rd,Point Cook,VIC,3030,Australia",-37.8954699,144.7534531
Pizza Hut,Port Augusta,23 Victoria Pde,Port Augusta,SA,5700,Australia,"23 Victoria Pde,Port Augusta,SA,5700,Australia",-32.49667901,137.77375
Pizza Hut,Potts Point,"Shop TG15 Kings Cross Centre, 82-94 Darlinghurst Rd",Potts Point,NSW,2011,Australia,"Shop TG15 Kings Cross Centre, 82-94 Darlinghurst Rd,Potts Point,NSW,2011,Australia",-33.8753422,151.2224552
Pizza Hut,Prahran,567 High St,Prahran,VIC,3181,Australia,"567 High St,Prahran,VIC,3181,Australia",-37.85356,145.007194
Pizza Hut,Randwick,129 Botany St,Randwick,NSW,2031,Australia,"129 Botany St,Randwick,NSW,2031,Australia",-33.92057229,151.2359447
Pizza Hut,Redbank Plains,"Shop 54 Town Square, 357 Redbank Plains Rd",Redbank Plains,QLD,4301,Australia,"Shop 54 Town Square, 357 Redbank Plains Rd,Redbank Plains,QLD,4301,Australia",-27.64526118,152.8717685
Pizza Hut,Reservoir,317 Spring St,Reservoir,VIC,3073,Australia,"317 Spring St,Reservoir,VIC,3073,Australia",-37.71496288,145.0071935
Pizza Hut,Revesby,"Shop 15 Palm Court, 23 Selems Pde",Revesby,NSW,2212,Australia,"Shop 15 Palm Court, 23 Selems Pde,Revesby,NSW,2212,Australia",-33.9511654,151.0142021
Pizza Hut,Ringwood,79 Bedford Rd,Ringwood,VIC,3134,Australia,"79 Bedford Rd,Ringwood,VIC,3134,Australia",-37.81710093,145.2400023
Pizza Hut,Riverton,"Shop P06 Riverton Forum, High Rd & Willeri Dr",Riverton,WA,6148,Australia,"Shop P06 Riverton Forum, High Rd & Willeri Dr,Riverton,WA,6148,Australia",-32.03868051,115.9035497
Pizza Hut,Riverwood,225 Belmore Rd,Riverwood,NSW,2210,Australia,"225 Belmore Rd,Riverwood,NSW,2210,Australia",-33.95373864,151.051357
Pizza Hut,Robina,"Shop 2, 510 Christine Ave",Robina,QLD,4226,Australia,"Shop 2, 510 Christine Ave,Robina,QLD,4226,Australia",-28.08529389,153.3928457
Pizza Hut,Rosewood,30 John St,Rosewood,QLD,4340,Australia,"30 John St,Rosewood,QLD,4340,Australia",-27.64078807,152.5925589
Pizza Hut,Rouse Hill,"Shop 2, 26 Adelphi St",Rouse Hill,NSW,2155,Australia,"Shop 2, 26 Adelphi St,Rouse Hill,NSW,2155,Australia",-33.68179278,150.9163438
Pizza Hut,Roxburgh Park,"Shop 62, Roxburgh Park Shopping Centre, 250 Somerton Road",Roxburgh Park,VIC,3064,Australia,"Shop 62, Roxburgh Park Shopping Centre, 250 Somerton Road,Roxburgh Park,VIC,3064,Australia",-37.64066317,144.9313736
Pizza Hut,Runaway Bay,390 Oxley Dr,Runaway Bay,QLD,4216,Australia,"390 Oxley Dr,Runaway Bay,QLD,4216,Australia",-27.91258498,153.3884165
Pizza Hut,Rutherford,"Shop T15 Rutherford Market Place, Hillview St",Rutherford,NSW,2320,Australia,"Shop T15 Rutherford Market Place, Hillview St,Rutherford,NSW,2320,Australia",-32.7174273,151.526898
Pizza Hut,Semaphore,114 Semaphore Rd,Semaphore,SA,5019,Australia,"114 Semaphore Rd,Semaphore,SA,5019,Australia",-34.839984,138.4878506
Pizza Hut,Seven Hills,53 Boomerang Pl,Seven Hills,NSW,2147,Australia,"53 Boomerang Pl,Seven Hills,NSW,2147,Australia",-33.77493928,150.9356942
Pizza Hut,Shellharbour,15 College Ave,Shellharbour,NSW,2529,Australia,"15 College Ave,Shellharbour,NSW,2529,Australia",-34.56718222,150.8364537
Pizza Hut,South Lake,"Shop 20-22 The Lakes Shopping Centre, 620 North Lake Rd",South Lake,WA,6164,Australia,"Shop 20-22 The Lakes Shopping Centre, 620 North Lake Rd,South Lake,WA,6164,Australia",-32.10674998,115.82776
Pizza Hut,South Mackay,"Shop 2-3, 135-137 Nebo Rd",South Mackay,QLD,4740,Australia,"Shop 2-3, 135-137 Nebo Rd,South Mackay,QLD,4740,Australia",-21.15558155,149.1648085
Pizza Hut,South Melbourne,203 Clarendon St South,Melbourne,VIC,3205,Australia,"203 Clarendon St South,Melbourne,VIC,3205,Australia",-37.83050151,144.9596735
Pizza Hut,South Rockhampton,Shop 1 Cnr George & Fitzroy Street,Rockhampton,QLD,4700,Australia,"Shop 1 Cnr George & Fitzroy Street,Rockhampton,QLD,4700,Australia",-23.38095199,150.5049418
Pizza Hut,Southport,"Shop 5, 201 Ferry Rd",Southport,QLD,4215,Australia,"Shop 5, 201 Ferry Rd,Southport,QLD,4215,Australia",-27.99023963,153.4118905
Pizza Hut,Spearwood,"Shop 4, 252 Rockingham Rd",Spearwood,WA,6163,Australia,"Shop 4, 252 Rockingham Rd,Spearwood,WA,6163,Australia",-32.09698997,115.78313
Pizza Hut,Springvale,"Shop 1, 23 Springvale Rd",Springvale,VIC,3171,Australia,"Shop 1, 23 Springvale Rd,Springvale,VIC,3171,Australia",-37.93500743,145.1555796
Pizza Hut,Springwood,"Shop 7A, 1 Achilles Dr",Springwood,QLD,4127,Australia,"Shop 7A, 1 Achilles Dr,Springwood,QLD,4127,Australia",-27.63362544,153.1407477
Pizza Hut,St Helens Park,Shop 2/24 Woodland Rd,St Helens Park,NSW,2560,Australia,"Shop 2/24 Woodland Rd,St Helens Park,NSW,2560,Australia",-34.09749469,150.8135735
Pizza Hut,St Johns Park,2 / 56-70 Canberra St,St Johns Park,NSW,2176,Australia,"2 / 56-70 Canberra St,St Johns Park,NSW,2176,Australia",-33.8784495,150.8997016
Pizza Hut,St Kilda,"Shop 3, 73 Fitzroy St",St Kilda,VIC,3182,Australia,"Shop 3, 73 Fitzroy St,St Kilda,VIC,3182,Australia",-37.8610442,144.9757684
Pizza Hut,St Marys,"Shop 4, 9-11 Gallipoli St",St Marys,NSW,2760,Australia,"Shop 4, 9-11 Gallipoli St,St Marys,NSW,2760,Australia",-33.78105061,150.7694572
Pizza Hut,Stanmore,106-110 Parramatta Rd,Stanmore,NSW,2048,Australia,"106-110 Parramatta Rd,Stanmore,NSW,2048,Australia",-33.88810981,151.1689693
Pizza Hut,Strathpine,"Shop 2 , 454 Gympie Road",Strathpine,QLD,4500,Australia,"Shop 2 , 454 Gympie Road,Strathpine,QLD,4500,Australia",-27.30217071,152.9877897
Pizza Hut,Stretton,Shop 6 / 66 Condamine Street,Runcorn,QLD,4113,Australia,"Shop 6 / 66 Condamine Street,Runcorn,QLD,4113,Australia",-27.61055744,153.0669298
Pizza Hut,Sunbury,4/85 Belleview Drive,Sunbury,VIC,3429,Australia,"4/85 Belleview Drive,Sunbury,VIC,3429,Australia",-37.59453312,144.7238914
Pizza Hut,Sunshine West,"Shop 3, 1-5 The Ave",Sunshine West,VIC,3020,Australia,"Shop 3, 1-5 The Ave,Sunshine West,VIC,3020,Australia",-37.7960339,144.7903548
Pizza Hut,Surry Hills,"Shop 1-2, 450 Elizabeth St",Surry Hills,NSW,2010,Australia,"Shop 1-2, 450 Elizabeth St,Surry Hills,NSW,2010,Australia",-33.88728528,151.2083581
Pizza Hut,Sutherland,"Shop 2, 818-820 Old Princes Hwy",Sutherland,NSW,2232,Australia,"Shop 2, 818-820 Old Princes Hwy,Sutherland,NSW,2232,Australia",-34.03307608,151.0570562
Pizza Hut,Swan View,"Shop 4, 297 Morrison Rd",Swan View,WA,6056,Australia,"Shop 4, 297 Morrison Rd,Swan View,WA,6056,Australia",-31.88560001,116.03951
Pizza Hut,Taigum,"Shop 56 Taigum Shopping Centre, 215 Beams Rd",Taigum,QLD,4018,Australia,"Shop 56 Taigum Shopping Centre, 215 Beams Rd,Taigum,QLD,4018,Australia",-27.35005204,153.048042
Pizza Hut,Tamworth,"Lot 246 , Goonoo Goonoo Road",Tamworth,NSW,2340,Australia,"Lot 246 , Goonoo Goonoo Road,Tamworth,NSW,2340,Australia",-31.10961841,150.9235708
Pizza Hut,Tarneit,"Shop 3, 409-413 Derrimut Rd",Tarneit,VIC,3029,Australia,"Shop 3, 409-413 Derrimut Rd,Tarneit,VIC,3029,Australia",-37.84792027,144.687567
Pizza Hut,The Lakes,Shop 3/196A Woolcock St,Currajong,QLD,4812,Australia,"Shop 3/196A Woolcock St,Currajong,QLD,4812,Australia",-19.27118488,146.7842667
Pizza Hut,The Pines,"The Pines Shopping Centre, KP McGrath Dr",The Pines,QLD,4221,Australia,"The Pines Shopping Centre, KP McGrath Dr,The Pines,QLD,4221,Australia",-28.13447873,153.4685755
Pizza Hut,Thornlie,"Unit 3, 320-330 Spencer Rd",Thornlie,WA,6108,Australia,"Unit 3, 320-330 Spencer Rd,Thornlie,WA,6108,Australia",-32.05703373,115.9627638
Pizza Hut,Toowoomba Dine In,871 Ruthven St,Toowoomba,QLD,4350,Australia,"871 Ruthven St,Toowoomba,QLD,4350,Australia",-27.59365198,151.9473398
Pizza Hut,Top Ryde,"Shop 4, 43 Blaxland Rd",Top Ryde,NSW,2112,Australia,"Shop 4, 43 Blaxland Rd,Top Ryde,NSW,2112,Australia",-33.81422279,151.1072092
Pizza Hut,Tuart Hill,207 Wanneroo Rd,Tuart Hill,WA,6060,Australia,"207 Wanneroo Rd,Tuart Hill,WA,6060,Australia",-31.88985001,115.83733
Pizza Hut,Turramurra,1255 Pacific Hwy,Turramurra,NSW,2074,Australia,"1255 Pacific Hwy,Turramurra,NSW,2074,Australia",-33.73286112,151.1305157
Pizza Hut,Umina,280 West St,Umina,NSW,2257,Australia,"280 West St,Umina,NSW,2257,Australia",-33.52175312,151.3200944
Pizza Hut,Upper Coomera,"Shop E1A Coomera Square Shopping Centre, 2 City Centre Dr",Upper Coomera,QLD,4209,Australia,"Shop E1A Coomera Square Shopping Centre, 2 City Centre Dr,Upper Coomera,QLD,4209,Australia",-27.85140493,153.3006508
Pizza Hut,Upper Mt Gravatt,"Shop 1, 1888 Logan Rd",Upper Mt Gravatt,QLD,4122,Australia,"Shop 1, 1888 Logan Rd,Upper Mt Gravatt,QLD,4122,Australia",-27.55501178,153.0805118
Pizza Hut,Wagga Wagga,19 Baylis Street,Wagga Wagga,NSW,2650,Australia,"19 Baylis Street,Wagga Wagga,NSW,2650,Australia",-35.11830983,147.369388
Pizza Hut,Wanneroo,"Shop 6, 981 Wanneroo Rd",Wanneroo,WA,6065,Australia,"Shop 6, 981 Wanneroo Rd,Wanneroo,WA,6065,Australia",-31.75023772,115.8017198
Pizza Hut,Warner,"Shop3, 341 Samsonvale Rd",Warner,QLD,4500,Australia,"Shop3, 341 Samsonvale Rd,Warner,QLD,4500,Australia",-27.29182832,152.953432
Pizza Hut,Warrawong,"Shop 4, 32-40 King St",Warrawong,NSW,2502,Australia,"Shop 4, 32-40 King St,Warrawong,NSW,2502,Australia",-34.48328034,150.8869919
Pizza Hut,Warwick,40 Albion St,Warwick,QLD,4370,Australia,"40 Albion St,Warwick,QLD,4370,Australia",-28.2140929,152.035873
Pizza Hut,Waterford West,"Shop 29 Waterford West Shopping Plaza, 917 Kingston Rd",Waterford West,QLD,4133,Australia,"Shop 29 Waterford West Shopping Plaza, 917 Kingston Rd,Waterford West,QLD,4133,Australia",-27.69271161,153.1351728
Pizza Hut,Waterloo,7 Archibald Ave,Waterloo,NSW,2017,Australia,"7 Archibald Ave,Waterloo,NSW,2017,Australia",-33.90154001,151.2095253
Pizza Hut,Wentworthville,41 Station St,Wentworthville,NSW,2145,Australia,"41 Station St,Wentworthville,NSW,2145,Australia",-33.80851048,150.9715694
Pizza Hut,Werribee,9 Station Pl,Wyndham,VIC,3030,Australia,"9 Station Pl,Wyndham,VIC,3030,Australia",-37.90034003,144.6611402
Pizza Hut,West Hoxton Park,Cnr Cowpasture & Fifteenth Ave,West Hoxton Park,NSW,2171,Australia,"Cnr Cowpasture & Fifteenth Ave,West Hoxton Park,NSW,2171,Australia",-33.92454062,150.8482941
Pizza Hut,West Pennant Hills,Cnr Castle Hills Rd & Pennant Hills Rd,West Pennant Hills,NSW,2125,Australia,"Cnr Castle Hills Rd & Pennant Hills Rd,West Pennant Hills,NSW,2125,Australia",-33.74805642,151.0498602
Pizza Hut,Whyalla,"Shop 63 Westland Shopping Centre, McDouall Stuart Ave",Whyalla,SA,5608,Australia,"Shop 63 Westland Shopping Centre, McDouall Stuart Ave,Whyalla,SA,5608,Australia",-33.02775,137.53239
Pizza Hut,Willoughby,511 Willoughby Rd,Willoughby,NSW,2068,Australia,"511 Willoughby Rd,Willoughby,NSW,2068,Australia",-33.8073961,151.1997027
Pizza Hut,Wilsonton,"Shop 15A Wilsonton Shopping Centre, 407 Bridge Street",North Toowoomba,QLD,4350,Australia,"Shop 15A Wilsonton Shopping Centre, 407 Bridge Street,North Toowoomba,QLD,4350,Australia",-27.5514724,151.9523199
Pizza Hut,Windsor Dine In,69 Macquarie St,Windsor,NSW,2756,Australia,"69 Macquarie St,Windsor,NSW,2756,Australia",-33.60828546,150.8196635
Pizza Hut,Woodridge,"Shop C , 1 Wembley Road",Logan Central,QLD,4116,Australia,"Shop C , 1 Wembley Road,Logan Central,QLD,4116,Australia",-27.64174629,153.1178268
Pizza Hut,Woodvale,"Shop 18A, 923 Whitfords Ave",Woodvale,WA,6026,Australia,"Shop 18A, 923 Whitfords Ave,Woodvale,WA,6026,Australia",-31.79982523,115.7940282
Pizza Hut,Woolloongabba,"Shop 2, 80 Ipswich Rd",Woolloongabba,QLD,4102,Australia,"Shop 2, 80 Ipswich Rd,Woolloongabba,QLD,4102,Australia",-27.49096956,153.035656
Pizza Hut,Wynnum,106 Tingal Rd,Wynnum,QLD,4178,Australia,"106 Tingal Rd,Wynnum,QLD,4178,Australia",-27.44605244,153.1713273
Pizza Hut,Wyoming,"Shop 5 Citygate Centre, 451 Pacific Hwy",Gosford,NSW,2250,Australia,"Shop 5 Citygate Centre, 451 Pacific Hwy,Gosford,NSW,2250,Australia",-33.41098602,151.3474894
Pizza Hut,Wyong,300 Pacific Hwy,Wyong,NSW,2259,Australia,"300 Pacific Hwy,Wyong,NSW,2259,Australia",-33.26936103,151.4410971
Pizza Hut,Yamanto,"Shop 22 Winston Glades Shopping Centre, 259 Ash St",Flinders View,QLD,4305,Australia,"Shop 22 Winston Glades Shopping Centre, 259 Ash St,Flinders View,QLD,4305,Australia",-27.6532846,152.7650521
Pizza Hut,Yamba,"Yamba Shopping Centre, Yamba Rd",Yamba,NSW,2464,Australia,"Yamba Shopping Centre, Yamba Rd,Yamba,NSW,2464,Australia",-29.4282824,153.3268677